{"type":"Feature","properties":{"reg_name":"Abruzzo","slug":"abruzzo","_provenance":{"authority":"ISTAT (openpolis/geojson-italy limits_IT_regions)","licence":"CC BY 4.0","method":"mapshaper 6% simplify, interior rings dropped, 5dp"}},"geometry":{"type":"MultiPolygon","coordinates":[[[[14.23309,42.46541],[14.206,42.47854],[14.12373,42.54946],[14.07527,42.60163],[14.03885,42.65478],[13.99583,42.70834],[13.96099,42.76988],[13.94026,42.81428],[13.91806,42.89443],[13.81612,42.87752],[13.77408,42.85949],[13.72486,42.85572],[13.6993,42.82262],[13.6636,42.80713],[13.63552,42.8033],[13.6244,42.81654],[13.57146,42.80051],[13.53448,42.81664],[13.52911,42.79534],[13.50232,42.77097],[13.50422,42.74708],[13.4888,42.73367],[13.45211,42.73391],[13.4274,42.70643],[13.38881,42.6873],[13.35886,42.69583],[13.34968,42.66872],[13.36992,42.64897],[13.40828,42.64286],[13.38178,42.58101],[13.32711,42.57994],[13.29126,42.57054],[13.26155,42.5831],[13.19136,42.58752],[13.15736,42.52772],[13.17777,42.51264],[13.17154,42.48608],[13.15405,42.46233],[13.11617,42.44391],[13.15517,42.41422],[13.1892,42.40022],[13.1894,42.38111],[13.15335,42.35699],[13.19135,42.33233],[13.22646,42.31933],[13.23864,42.27282],[13.27124,42.25416],[13.28213,42.23723],[13.31994,42.22964],[13.35223,42.19128],[13.35396,42.17494],[13.32319,42.16141],[13.30529,42.13826],[13.23723,42.12913],[13.19271,42.15826],[13.15831,42.15749],[13.12231,42.17712],[13.08706,42.17787],[13.08617,42.14433],[13.05982,42.12295],[13.03701,42.119],[13.01849,42.07494],[13.02662,42.05003],[13.05812,42.01555],[13.10132,42.00975],[13.10774,42.0251],[13.13995,42.01535],[13.19908,41.9865],[13.23154,41.98169],[13.28604,41.95037],[13.32262,41.94516],[13.33753,41.92598],[13.35656,41.92574],[13.38399,41.90419],[13.35984,41.86938],[13.36683,41.83307],[13.39151,41.81979],[13.40746,41.83746],[13.45155,41.82282],[13.46375,41.80945],[13.50441,41.80154],[13.52043,41.77297],[13.57623,41.75502],[13.5861,41.76643],[13.63127,41.78265],[13.63846,41.80432],[13.66289,41.81127],[13.69271,41.79152],[13.71649,41.7974],[13.74865,41.77359],[13.76591,41.7487],[13.82348,41.74088],[13.88059,41.7283],[13.89764,41.73213],[13.9197,41.71724],[13.93154,41.69437],[13.99441,41.69369],[14.01918,41.68236],[14.02692,41.7027],[14.05325,41.7017],[14.06957,41.73723],[14.11526,41.73693],[14.15868,41.74702],[14.19396,41.74802],[14.20191,41.767],[14.17069,41.77971],[14.16465,41.80947],[14.14716,41.8273],[14.15562,41.83961],[14.21687,41.85377],[14.22687,41.8748],[14.2793,41.90952],[14.30274,41.89422],[14.3245,41.89566],[14.34349,41.86895],[14.37589,41.87847],[14.4457,41.83782],[14.46514,41.77718],[14.48955,41.76097],[14.53335,41.79159],[14.55077,41.81659],[14.56798,41.81812],[14.59864,41.85347],[14.61424,41.88919],[14.66376,41.91629],[14.67024,41.9482],[14.72716,42.00325],[14.76582,42.01809],[14.76171,42.04169],[14.77955,42.06983],[14.75152,42.08059],[14.71777,42.10772],[14.71722,42.1702],[14.62079,42.19927],[14.56306,42.22393],[14.50827,42.2525],[14.50241,42.27181],[14.4412,42.31232],[14.41015,42.34788],[14.40992,42.35809],[14.32092,42.40499],[14.25992,42.44096],[14.23309,42.46541]]]]}}