{"type":"FeatureCollection","_provenance":{"authority":"ISTAT (comune geometry, openpolis/geojson-italy) / MASAF disciplinari (comune membership)","licence":"CC BY 4.0","method":"comune-union: ISTAT comuni dissolved per disciplinare comune lists (comune-level approximation; interior rings dropped, 5dp). Partial-territory comuni are included whole.","reviewed_at":"2026-09-07"},"features":[{"type":"Feature","properties":{"name":"montepulciano-d-abruzzo-colline-teramane","comuni_count":31},"geometry":{"type":"MultiPolygon","coordinates":[[[[13.72221,42.85465],[13.70661,42.84932],[13.70594,42.84742],[13.70597,42.84668],[13.70619,42.84583],[13.70627,42.84557],[13.70656,42.84536],[13.70737,42.84511],[13.70824,42.84503],[13.70903,42.84487],[13.70949,42.84469],[13.70988,42.84453],[13.71044,42.84422],[13.71075,42.8438],[13.71079,42.84375],[13.71088,42.84336],[13.70803,42.83814],[13.70129,42.82784],[13.70093,42.8259],[13.70038,42.82436],[13.69967,42.82314],[13.69945,42.82279],[13.6993,42.82262],[13.69912,42.82252],[13.69659,42.82148],[13.69426,42.82058],[13.69156,42.81963],[13.68872,42.81865],[13.68726,42.81835],[13.68699,42.81831],[13.6867,42.81826],[13.68375,42.81761],[13.677,42.81533],[13.67645,42.81514],[13.67251,42.81335],[13.66633,42.81033],[13.66439,42.80816],[13.6636,42.80713],[13.65664,42.80604],[13.64141,42.80297],[13.63552,42.8033],[13.63491,42.80352],[13.63128,42.80514],[13.63049,42.80555],[13.62877,42.80694],[13.62862,42.80715],[13.62844,42.80739],[13.62835,42.80751],[13.62796,42.80806],[13.62758,42.80967],[13.62748,42.81013],[13.62742,42.81037],[13.62718,42.81242],[13.62781,42.81417],[13.62793,42.81426],[13.62812,42.81441],[13.6282,42.81461],[13.62835,42.81496],[13.62836,42.815],[13.62824,42.81505],[13.628,42.81518],[13.62783,42.81526],[13.62509,42.81631],[13.62475,42.81642],[13.62461,42.81647],[13.6244,42.81654],[13.62319,42.81643],[13.62096,42.81571],[13.62056,42.81545],[13.61904,42.81432],[13.61892,42.81416],[13.61867,42.81385],[13.61856,42.81342],[13.61817,42.81312],[13.61675,42.81206],[13.61367,42.8105],[13.61319,42.8103],[13.60007,42.80635],[13.59491,42.8061],[13.59091,42.80657],[13.58884,42.80724],[13.58107,42.80414],[13.57711,42.80161],[13.5747,42.80081],[13.57443,42.80025],[13.57398,42.7993],[13.57384,42.79891],[13.57381,42.7986],[13.57374,42.7975],[13.57386,42.79682],[13.57482,42.79468],[13.57525,42.79404],[13.58509,42.78182],[13.58557,42.78098],[13.58697,42.77865],[13.5901,42.77387],[13.59083,42.77299],[13.59717,42.76763],[13.60703,42.75423],[13.61082,42.7443],[13.61101,42.73643],[13.61032,42.73024],[13.60738,42.72961],[13.60711,42.72946],[13.60695,42.72936],[13.60636,42.72861],[13.60579,42.72762],[13.6056,42.72647],[13.60483,42.72295],[13.60318,42.71919],[13.60189,42.71754],[13.60159,42.7171],[13.6013,42.71645],[13.60099,42.71554],[13.60092,42.71461],[13.60092,42.71457],[13.60098,42.71412],[13.60109,42.71331],[13.60165,42.71182],[13.60201,42.71114],[13.60353,42.70841],[13.60394,42.70773],[13.60443,42.70718],[13.60524,42.70652],[13.60599,42.70598],[13.60863,42.70195],[13.60937,42.69947],[13.60615,42.69787],[13.6058,42.69756],[13.6056,42.69739],[13.6054,42.69698],[13.60531,42.69679],[13.60538,42.69672],[13.60546,42.69664],[13.60551,42.69659],[13.60576,42.69635],[13.60918,42.69467],[13.62643,42.68504],[13.63536,42.6791],[13.64034,42.67149],[13.64974,42.66502],[13.6589,42.66388],[13.65904,42.66402],[13.6593,42.66428],[13.65976,42.66464],[13.6605,42.6652],[13.66216,42.66609],[13.66261,42.66632],[13.66304,42.66653],[13.66658,42.66684],[13.6726,42.66218],[13.67452,42.65891],[13.67527,42.65579],[13.67574,42.6526],[13.67574,42.65255],[13.67577,42.65203],[13.67568,42.65185],[13.67495,42.65209],[13.67454,42.65229],[13.66684,42.65014],[13.65047,42.64535],[13.64606,42.64118],[13.63478,42.6334],[13.62122,42.63475],[13.59803,42.63547],[13.58984,42.63534],[13.58491,42.63261],[13.58384,42.63084],[13.58332,42.62583],[13.58443,42.62319],[13.58587,42.61894],[13.58576,42.61627],[13.58324,42.61429],[13.58213,42.61174],[13.58137,42.60747],[13.56447,42.60476],[13.56505,42.60095],[13.56581,42.59287],[13.56609,42.59073],[13.56643,42.58911],[13.56734,42.58615],[13.56964,42.58251],[13.57002,42.58199],[13.57005,42.58195],[13.57126,42.58122],[13.57713,42.5749],[13.5775,42.57263],[13.57443,42.57186],[13.57553,42.57057],[13.57813,42.56526],[13.58356,42.55277],[13.58643,42.54595],[13.58638,42.54501],[13.58637,42.54436],[13.58681,42.54256],[13.58722,42.54122],[13.58831,42.5385],[13.59059,42.53582],[13.593,42.53314],[13.59467,42.53173],[13.59513,42.53228],[13.59555,42.53278],[13.59584,42.53323],[13.59763,42.53714],[13.60022,42.56058],[13.60033,42.56159],[13.60049,42.5623],[13.60139,42.56465],[13.60181,42.5654],[13.60508,42.57026],[13.60536,42.57022],[13.60557,42.57001],[13.60592,42.56962],[13.60617,42.56933],[13.60653,42.56876],[13.60785,42.56659],[13.60822,42.56571],[13.62007,42.55756],[13.62076,42.5571],[13.62082,42.5571],[13.62159,42.55703],[13.62417,42.55698],[13.62439,42.55703],[13.62476,42.55712],[13.63338,42.56001],[13.63649,42.56176],[13.63677,42.56214],[13.63627,42.56373],[13.63618,42.56399],[13.63592,42.56466],[13.63845,42.56679],[13.64432,42.57099],[13.64969,42.57406],[13.66304,42.58093],[13.66767,42.58261],[13.67172,42.58392],[13.67238,42.58388],[13.67315,42.58318],[13.67322,42.58249],[13.67325,42.58188],[13.67279,42.57952],[13.67256,42.57881],[13.67169,42.57703],[13.67125,42.57622],[13.67068,42.57571],[13.67027,42.5754],[13.67025,42.57536],[13.66997,42.57471],[13.67002,42.57404],[13.67051,42.57223],[13.67073,42.57145],[13.67135,42.56987],[13.67197,42.56933],[13.67303,42.56892],[13.68318,42.56557],[13.68466,42.56531],[13.68476,42.56531],[13.68518,42.56532],[13.68568,42.56543],[13.6863,42.56568],[13.68935,42.56695],[13.68999,42.56722],[13.69076,42.56757],[13.69085,42.56762],[13.69095,42.56766],[13.69193,42.56814],[13.70267,42.57463],[13.70319,42.57505],[13.70328,42.57513],[13.70363,42.57564],[13.70637,42.57982],[13.70827,42.58413],[13.71144,42.58845],[13.71268,42.58986],[13.71899,42.59019],[13.7191,42.59019],[13.71981,42.59021],[13.7232,42.5892],[13.72385,42.58892],[13.72438,42.5886],[13.72519,42.58779],[13.72631,42.58649],[13.7265,42.58626],[13.72668,42.58605],[13.7269,42.58541],[13.7263,42.58225],[13.72606,42.58117],[13.7253,42.58022],[13.72016,42.57166],[13.72061,42.57087],[13.72127,42.56948],[13.7212,42.56872],[13.72015,42.56547],[13.72361,42.56434],[13.72938,42.56067],[13.73222,42.55825],[13.74,42.5556],[13.74307,42.55468],[13.74727,42.55391],[13.75613,42.55336],[13.75759,42.55355],[13.76309,42.55588],[13.76607,42.54918],[13.77137,42.5507],[13.80062,42.55826],[13.80122,42.55763],[13.8021,42.55714],[13.80327,42.55683],[13.804,42.55695],[13.80504,42.55736],[13.80507,42.55737],[13.80578,42.55784],[13.80622,42.55822],[13.80644,42.55841],[13.80772,42.55843],[13.80887,42.55841],[13.80954,42.55837],[13.81087,42.55809],[13.81124,42.55797],[13.81151,42.55788],[13.81243,42.55746],[13.8157,42.55593],[13.81794,42.55476],[13.81812,42.5535],[13.81825,42.55292],[13.81856,42.5524],[13.8217,42.54974],[13.82304,42.54879],[13.82401,42.5481],[13.82488,42.54749],[13.82735,42.54589],[13.83215,42.53937],[13.83669,42.53348],[13.8412,42.52051],[13.84166,42.51295],[13.83967,42.51053],[13.83802,42.50829],[13.83698,42.50612],[13.83785,42.49794],[13.83869,42.49784],[13.83944,42.49759],[13.84216,42.49616],[13.84415,42.49492],[13.84465,42.49419],[13.8498,42.49189],[13.85984,42.48794],[13.86384,42.48776],[13.87202,42.48828],[13.88344,42.48925],[13.88408,42.48937],[13.88404,42.48953],[13.884,42.48966],[13.88386,42.49014],[13.88384,42.49023],[13.88301,42.49288],[13.88191,42.49421],[13.88101,42.50072],[13.88086,42.50195],[13.88085,42.50202],[13.88081,42.50255],[13.88094,42.50331],[13.88102,42.50356],[13.88115,42.50403],[13.88144,42.5047],[13.88177,42.50538],[13.88402,42.50869],[13.88461,42.50923],[13.89169,42.51165],[13.89302,42.51209],[13.89522,42.51197],[13.8957,42.51182],[13.89589,42.51176],[13.89717,42.51135],[13.89759,42.51098],[13.89771,42.51073],[13.91078,42.50639],[13.91131,42.50634],[13.91226,42.50625],[13.91331,42.50628],[13.9142,42.50642],[13.91493,42.50657],[13.91538,42.50671],[13.91891,42.50832],[13.92207,42.51366],[13.92708,42.51462],[13.93991,42.50936],[13.94477,42.50757],[13.95024,42.50604],[13.95593,42.50554],[13.95789,42.50538],[13.95853,42.50752],[13.95871,42.50816],[13.95879,42.50894],[13.95884,42.50953],[13.95886,42.51005],[13.95847,42.51147],[13.95816,42.51218],[13.95422,42.51861],[13.95189,42.52933],[13.95186,42.52974],[13.9557,42.53433],[13.96107,42.5337],[13.96664,42.53239],[13.9733,42.53281],[13.98719,42.53989],[13.98998,42.54187],[13.99596,42.54005],[13.99911,42.54074],[14.0079,42.53928],[14.0169,42.5377],[14.03145,42.5346],[14.0433,42.53473],[14.05702,42.53093],[14.05732,42.53067],[14.0582,42.53084],[14.05894,42.53127],[14.06006,42.53207],[14.06163,42.53428],[14.06285,42.53637],[14.0639,42.53858],[14.06496,42.54086],[14.06667,42.54453],[14.07181,42.54237],[14.07286,42.54208],[14.07393,42.54186],[14.07486,42.54182],[14.07914,42.54259],[14.08259,42.54333],[14.08295,42.54339],[14.0835,42.54348],[14.08483,42.54348],[14.08705,42.54323],[14.08755,42.54309],[14.08806,42.54281],[14.08841,42.5426],[14.08915,42.54201],[14.08943,42.54174],[14.0899,42.54128],[14.09027,42.54085],[14.09032,42.54079],[14.09059,42.54037],[14.09105,42.53961],[14.09126,42.53921],[14.09142,42.5388],[14.09137,42.53828],[14.09868,42.53298],[14.11099,42.53123],[14.12038,42.53],[14.12946,42.52707],[14.13311,42.5277],[14.14084,42.53016],[14.14626,42.53062],[14.14167,42.53424],[14.13064,42.54308],[14.12251,42.55046],[14.11779,42.555],[14.11208,42.56059],[14.10939,42.56323],[14.10713,42.56565],[14.10559,42.5673],[14.10465,42.56833],[14.10362,42.56946],[14.1033,42.56982],[14.10242,42.57091],[14.09971,42.57435],[14.09576,42.57897],[14.0956,42.57933],[14.09523,42.57992],[14.09377,42.58187],[14.09064,42.58498],[14.08946,42.58579],[14.08906,42.58609],[14.08767,42.58737],[14.08703,42.58806],[14.08113,42.59476],[14.08038,42.59562],[14.07966,42.59646],[14.07671,42.59993],[14.0738,42.60343],[14.07213,42.60545],[14.0626,42.61739],[14.06122,42.61927],[14.06007,42.62092],[14.05632,42.62639],[14.05535,42.62784],[14.04673,42.64122],[14.04289,42.64754],[14.03983,42.6533],[14.0395,42.65377],[14.03875,42.65457],[14.0385,42.65454],[14.03511,42.65825],[14.02586,42.66777],[14.01183,42.68685],[14.01012,42.68909],[14.00855,42.69115],[14.00575,42.69398],[14.00239,42.6986],[13.99782,42.70564],[13.99288,42.71348],[13.99236,42.71436],[13.99142,42.71617],[13.99111,42.71676],[13.98684,42.7257],[13.98242,42.73547],[13.98023,42.73994],[13.97651,42.74688],[13.97379,42.7512],[13.96979,42.75695],[13.96855,42.75854],[13.9674,42.76006],[13.96397,42.7653],[13.96243,42.76794],[13.96013,42.77203],[13.9595,42.77316],[13.95853,42.77511],[13.95548,42.7817],[13.95316,42.78555],[13.95072,42.78988],[13.94937,42.7928],[13.94909,42.79342],[13.94768,42.79649],[13.94245,42.80902],[13.94039,42.81428],[13.93183,42.81302],[13.92274,42.81571],[13.91962,42.81775],[13.91492,42.81822],[13.90918,42.81848],[13.9047,42.81818],[13.89816,42.81744],[13.8809,42.81251],[13.864,42.80687],[13.85642,42.80436],[13.85516,42.80762],[13.8565,42.81058],[13.8569,42.81136],[13.85699,42.81146],[13.8575,42.81203],[13.85816,42.81244],[13.85834,42.81255],[13.85842,42.81259],[13.85894,42.81289],[13.85956,42.81318],[13.85966,42.81322],[13.8604,42.81322],[13.87329,42.8162],[13.88546,42.81953],[13.89314,42.82869],[13.8983,42.82979],[13.90821,42.83239],[13.91453,42.83505],[13.92399,42.83865],[13.92817,42.83872],[13.93244,42.83803],[13.93224,42.83837],[13.93196,42.83889],[13.93136,42.84022],[13.93098,42.84138],[13.93053,42.84285],[13.93021,42.8439],[13.92963,42.84676],[13.92857,42.85382],[13.92676,42.86333],[13.92391,42.87335],[13.92225,42.87909],[13.92108,42.88514],[13.92072,42.88785],[13.92052,42.8911],[13.92098,42.89242],[13.91621,42.89459],[13.91027,42.89478],[13.91007,42.89478],[13.90885,42.89477],[13.90872,42.89477],[13.90826,42.89476],[13.9081,42.89475],[13.90694,42.89468],[13.90399,42.89431],[13.90324,42.89421],[13.90095,42.89375],[13.90043,42.89362],[13.90032,42.89358],[13.90002,42.89349],[13.8981,42.89289],[13.89084,42.89155],[13.88378,42.8919],[13.88054,42.89181],[13.87438,42.88882],[13.86339,42.88616],[13.85663,42.88458],[13.85253,42.88402],[13.84763,42.88362],[13.84381,42.88371],[13.83908,42.88321],[13.83475,42.88174],[13.83114,42.88116],[13.82347,42.87991],[13.82296,42.87983],[13.82206,42.87967],[13.82094,42.87937],[13.81932,42.87891],[13.81907,42.87882],[13.81758,42.87828],[13.81726,42.87811],[13.81718,42.87807],[13.8171,42.87803],[13.81666,42.8778],[13.81612,42.87752],[13.81536,42.87699],[13.81501,42.87674],[13.81491,42.87667],[13.81395,42.87596],[13.8138,42.87586],[13.81318,42.87535],[13.81307,42.87526],[13.81275,42.87471],[13.81273,42.87459],[13.81265,42.87409],[13.81263,42.87394],[13.8126,42.87386],[13.81243,42.87325],[13.81231,42.87313],[13.81184,42.87265],[13.81121,42.87228],[13.81091,42.8721],[13.80547,42.86936],[13.80405,42.86865],[13.80082,42.86727],[13.79934,42.86672],[13.77984,42.86098],[13.77807,42.86048],[13.77796,42.86045],[13.77379,42.85945],[13.77094,42.85904],[13.76946,42.85893],[13.76293,42.85868],[13.7607,42.85885],[13.75732,42.85885],[13.75484,42.85857],[13.75234,42.85814],[13.74976,42.85741],[13.74167,42.85584],[13.73932,42.85579],[13.72663,42.85565],[13.72221,42.85465]]]]}},{"type":"Feature","properties":{"name":"tullum","comuni_count":1},"geometry":{"type":"MultiPolygon","coordinates":[[[[14.33656,42.3279],[14.33528,42.32876],[14.33498,42.32895],[14.33409,42.32969],[14.3338,42.33],[14.33356,42.33041],[14.33294,42.33295],[14.33315,42.33899],[14.33625,42.34827],[14.33871,42.35553],[14.34166,42.36362],[14.34206,42.3653],[14.34195,42.36552],[14.34188,42.36566],[14.34077,42.36662],[14.34016,42.36711],[14.33902,42.36732],[14.3368,42.36733],[14.3362,42.3672],[14.33506,42.36694],[14.32581,42.36837],[14.31816,42.37041],[14.31663,42.37144],[14.31378,42.36921],[14.3071,42.36567],[14.30612,42.35812],[14.30649,42.35489],[14.30047,42.34617],[14.29969,42.34528],[14.29728,42.34294],[14.29361,42.33949],[14.29368,42.3395],[14.29428,42.33956],[14.29489,42.33943],[14.29534,42.33906],[14.29583,42.33853],[14.29608,42.33818],[14.29615,42.33808],[14.30033,42.33131],[14.30058,42.32721],[14.30017,42.32684],[14.29917,42.32522],[14.29916,42.32492],[14.30064,42.32222],[14.30108,42.32163],[14.3045,42.31974],[14.30579,42.31934],[14.30844,42.31929],[14.30881,42.31939],[14.31232,42.31976],[14.31936,42.32036],[14.32171,42.32049],[14.32282,42.32237],[14.32581,42.32431],[14.33042,42.32434],[14.33256,42.32461],[14.33593,42.32532],[14.33622,42.32565],[14.33715,42.32688],[14.33712,42.32722],[14.33656,42.3279]]]]}},{"type":"Feature","properties":{"name":"villamagna","comuni_count":3},"geometry":{"type":"MultiPolygon","coordinates":[[[[14.24886,42.31144],[14.2461,42.31296],[14.2509,42.32055],[14.2523,42.32076],[14.25383,42.32123],[14.25434,42.3215],[14.25487,42.32215],[14.25516,42.32294],[14.25803,42.33564],[14.25858,42.33932],[14.25414,42.34631],[14.25343,42.34766],[14.25289,42.3481],[14.25106,42.3491],[14.24877,42.34967],[14.24574,42.34795],[14.23819,42.34527],[14.23571,42.34521],[14.21683,42.34187],[14.21487,42.34116],[14.20707,42.34804],[14.20545,42.34505],[14.20341,42.34181],[14.20294,42.34113],[14.20267,42.34083],[14.20242,42.34059],[14.1879,42.33222],[14.18357,42.32606],[14.18231,42.32398],[14.18075,42.32295],[14.17727,42.32339],[14.17253,42.32444],[14.17019,42.32548],[14.1646,42.32696],[14.16409,42.32707],[14.16337,42.32723],[14.16156,42.32736],[14.15985,42.32739],[14.15974,42.32739],[14.15792,42.32735],[14.15557,42.3272],[14.15393,42.32708],[14.15335,42.32704],[14.15237,42.32696],[14.15216,42.32693],[14.15143,42.32681],[14.15108,42.32676],[14.15093,42.32673],[14.14987,42.32652],[14.1485,42.32607],[14.14474,42.32477],[14.14191,42.32378],[14.1409,42.32323],[14.14016,42.32269],[14.13572,42.32094],[14.13462,42.32053],[14.13327,42.32043],[14.12797,42.32008],[14.12184,42.31972],[14.12052,42.31867],[14.11982,42.31635],[14.12136,42.31124],[14.12698,42.30824],[14.13096,42.30555],[14.1335,42.30371],[14.1384,42.30009],[14.13864,42.29979],[14.13903,42.29929],[14.1394,42.29853],[14.13958,42.29791],[14.13957,42.29725],[14.13956,42.29709],[14.13957,42.29653],[14.13957,42.29616],[14.14007,42.29533],[14.14055,42.29455],[14.14102,42.29382],[14.14218,42.29213],[14.14422,42.28987],[14.14504,42.28939],[14.14662,42.28887],[14.14896,42.28841],[14.15037,42.28824],[14.15391,42.28403],[14.15393,42.28178],[14.1543,42.28156],[14.15649,42.28012],[14.15719,42.2794],[14.15793,42.27844],[14.15927,42.2765],[14.15986,42.27561],[14.16208,42.2718],[14.16302,42.26926],[14.16321,42.26874],[14.16319,42.26844],[14.16318,42.2684],[14.16412,42.26828],[14.1648,42.26837],[14.16518,42.26841],[14.17024,42.2691],[14.17413,42.27047],[14.17599,42.27175],[14.18171,42.27298],[14.18377,42.27316],[14.19017,42.27303],[14.19123,42.27291],[14.19199,42.27274],[14.19261,42.2724],[14.19305,42.27206],[14.19336,42.27182],[14.19587,42.27363],[14.20478,42.283],[14.20719,42.28646],[14.21074,42.29017],[14.21251,42.28854],[14.2174,42.28556],[14.22141,42.28272],[14.22292,42.28125],[14.22723,42.27556],[14.22606,42.27296],[14.22447,42.27248],[14.22431,42.27074],[14.22485,42.26939],[14.22819,42.26396],[14.22871,42.26345],[14.22948,42.26294],[14.23043,42.26246],[14.23832,42.26092],[14.24144,42.26261],[14.24142,42.2632],[14.24142,42.26325],[14.24265,42.26647],[14.24527,42.27156],[14.24587,42.27256],[14.2459,42.27261],[14.24692,42.27414],[14.24251,42.28367],[14.23787,42.28814],[14.23839,42.28958],[14.24582,42.29768],[14.25235,42.30296],[14.25265,42.30291],[14.25288,42.30308],[14.25295,42.30312],[14.25379,42.30412],[14.25348,42.30565],[14.25347,42.30572],[14.25307,42.30628],[14.25194,42.30721],[14.2574,42.31257],[14.24886,42.31144]]]]}}]}