{"type":"FeatureCollection","_provenance":{"authority":"ISTAT (comune geometry, openpolis/geojson-italy) / MASAF disciplinari (comune membership)","licence":"CC BY 4.0","method":"comune-union: ISTAT comuni dissolved per disciplinare comune lists (comune-level approximation; interior rings dropped, 5dp). Partial-territory comuni are included whole.","reviewed_at":"2026-09-07"},"features":[{"type":"Feature","properties":{"name":"aglianico-del-vulture","comuni_count":15},"geometry":{"type":"MultiPolygon","coordinates":[[[[15.53491,40.91974],[15.53717,40.91874],[15.53734,40.91858],[15.53772,40.91819],[15.53808,40.91736],[15.53818,40.91625],[15.53821,40.91587],[15.5382,40.91551],[15.53811,40.91524],[15.53802,40.91507],[15.53792,40.91491],[15.53662,40.91318],[15.53561,40.91195],[15.5354,40.90976],[15.53634,40.90631],[15.54625,40.89388],[15.55321,40.88751],[15.55759,40.88367],[15.55927,40.88125],[15.55933,40.88114],[15.55941,40.88101],[15.55952,40.88083],[15.55922,40.88035],[15.55788,40.87928],[15.55503,40.87765],[15.55323,40.87666],[15.55899,40.86886],[15.57719,40.85969],[15.57832,40.86044],[15.57894,40.86095],[15.57944,40.86148],[15.58201,40.86437],[15.58229,40.86473],[15.58234,40.86479],[15.58413,40.86731],[15.59342,40.87316],[15.59597,40.8728],[15.59843,40.8733],[15.60157,40.87403],[15.60206,40.87377],[15.60259,40.8737],[15.60517,40.87386],[15.60648,40.87426],[15.61081,40.87561],[15.61133,40.87581],[15.61216,40.87624],[15.61254,40.87658],[15.61285,40.8769],[15.61323,40.87733],[15.61355,40.87774],[15.61382,40.87808],[15.61414,40.87833],[15.61443,40.87841],[15.61601,40.87743],[15.61639,40.87499],[15.61613,40.87283],[15.61456,40.86646],[15.61393,40.86434],[15.61012,40.85826],[15.60992,40.858],[15.60956,40.85777],[15.60913,40.85752],[15.60906,40.85748],[15.60872,40.85731],[15.60596,40.85492],[15.60367,40.85112],[15.60202,40.84714],[15.60165,40.84493],[15.602,40.83945],[15.60206,40.839],[15.60223,40.83849],[15.60339,40.83673],[15.60925,40.83202],[15.61261,40.83061],[15.61267,40.83061],[15.61304,40.83057],[15.61354,40.83076],[15.62286,40.83654],[15.62805,40.84411],[15.63627,40.8455],[15.64133,40.84095],[15.64179,40.84079],[15.64308,40.8404],[15.64586,40.83962],[15.64799,40.83975],[15.65169,40.84022],[15.65241,40.84033],[15.6529,40.84042],[15.65336,40.84053],[15.65383,40.84067],[15.65425,40.84094],[15.65457,40.84119],[15.65482,40.84152],[15.6549,40.84175],[15.65473,40.84191],[15.6548,40.84263],[15.65517,40.84357],[15.65558,40.84426],[15.65585,40.84453],[15.65617,40.84478],[15.6567,40.84489],[15.66084,40.84489],[15.66343,40.84486],[15.66583,40.84212],[15.66627,40.8415],[15.6665,40.84115],[15.66659,40.84034],[15.66662,40.84001],[15.66489,40.83914],[15.66411,40.83919],[15.66298,40.83946],[15.66243,40.83762],[15.66217,40.83603],[15.66191,40.83408],[15.66194,40.83328],[15.66208,40.83294],[15.66241,40.8327],[15.66768,40.8306],[15.67159,40.82955],[15.68003,40.83336],[15.68154,40.83312],[15.68092,40.83761],[15.68142,40.84546],[15.68296,40.8549],[15.68468,40.85818],[15.68631,40.86008],[15.68948,40.86338],[15.69188,40.86547],[15.70095,40.87565],[15.70366,40.88],[15.71047,40.88298],[15.71513,40.88395],[15.71779,40.88412],[15.72022,40.87494],[15.72367,40.87043],[15.73049,40.86696],[15.73779,40.86487],[15.73816,40.86481],[15.73874,40.86472],[15.73922,40.86468],[15.73976,40.8647],[15.74031,40.86473],[15.7407,40.86483],[15.74108,40.86495],[15.74142,40.86505],[15.74286,40.86521],[15.74336,40.86518],[15.74387,40.86512],[15.74706,40.86419],[15.74751,40.86404],[15.752,40.86216],[15.75424,40.86101],[15.75451,40.86083],[15.75627,40.85912],[15.75839,40.85643],[15.75994,40.8545],[15.761,40.85335],[15.76598,40.84802],[15.76955,40.84423],[15.77006,40.84376],[15.77054,40.84344],[15.77257,40.84231],[15.77304,40.84205],[15.7734,40.84191],[15.77374,40.84178],[15.77497,40.84137],[15.77545,40.84124],[15.77603,40.84112],[15.77687,40.84118],[15.77715,40.84138],[15.78172,40.84585],[15.78913,40.84811],[15.7902,40.84835],[15.79064,40.84844],[15.79192,40.84871],[15.79257,40.84879],[15.79798,40.84928],[15.80076,40.84896],[15.80361,40.84824],[15.80697,40.84706],[15.80923,40.84618],[15.81204,40.8443],[15.81375,40.84294],[15.81607,40.84102],[15.81758,40.83919],[15.828,40.83375],[15.83333,40.8321],[15.84114,40.82208],[15.8412,40.82171],[15.84169,40.81721],[15.84177,40.8161],[15.84128,40.8149],[15.83971,40.8121],[15.8383,40.81136],[15.83682,40.81061],[15.83546,40.81102],[15.83279,40.81198],[15.83194,40.81241],[15.8312,40.8136],[15.82656,40.81361],[15.82513,40.81297],[15.81743,40.81077],[15.81633,40.81029],[15.81582,40.80963],[15.81574,40.80932],[15.81691,40.80568],[15.81978,40.80071],[15.821,40.7979],[15.82114,40.79741],[15.82109,40.79561],[15.82088,40.79482],[15.82054,40.79414],[15.81953,40.79284],[15.81916,40.7924],[15.81889,40.79209],[15.82479,40.79106],[15.83861,40.79034],[15.85431,40.78709],[15.86539,40.78598],[15.86779,40.78582],[15.8682,40.78588],[15.87334,40.78721],[15.87546,40.78896],[15.88526,40.79191],[15.89084,40.79012],[15.89667,40.78779],[15.90927,40.78066],[15.91657,40.77412],[15.91522,40.77229],[15.90564,40.76814],[15.90521,40.76539],[15.91544,40.75878],[15.91893,40.75711],[15.92097,40.7569],[15.92711,40.75823],[15.93155,40.75878],[15.94282,40.7596],[15.95349,40.75609],[15.9541,40.75589],[15.95467,40.75581],[15.95537,40.75574],[15.95712,40.75572],[15.95751,40.75584],[15.95792,40.75614],[15.96355,40.76063],[15.96383,40.76088],[15.96406,40.76109],[15.96425,40.76182],[15.96434,40.76218],[15.9643,40.76258],[15.9642,40.7629],[15.96405,40.76332],[15.96384,40.76355],[15.96368,40.76373],[15.96335,40.76389],[15.9632,40.76935],[15.96782,40.77709],[15.97332,40.78112],[15.98572,40.78549],[15.99826,40.78712],[15.99874,40.78711],[16.00233,40.78685],[16.00279,40.78679],[16.00392,40.78647],[16.01683,40.78511],[16.03222,40.78616],[16.03578,40.78599],[16.03795,40.78596],[16.04098,40.78638],[16.04868,40.78882],[16.05076,40.7895],[16.05057,40.7882],[16.05055,40.78798],[16.05065,40.78766],[16.05111,40.78753],[16.05156,40.7875],[16.05299,40.78742],[16.05345,40.78744],[16.0539,40.78757],[16.05522,40.78799],[16.05573,40.7882],[16.05606,40.78846],[16.05642,40.78876],[16.05652,40.78904],[16.064,40.78627],[16.07315,40.78032],[16.07543,40.77983],[16.07739,40.77947],[16.09087,40.782],[16.10926,40.76782],[16.10973,40.7675],[16.11033,40.76716],[16.11129,40.76666],[16.11171,40.76656],[16.11178,40.76654],[16.112,40.76659],[16.11237,40.76667],[16.11489,40.76765],[16.1174,40.77177],[16.11947,40.77318],[16.1205,40.77472],[16.12131,40.77603],[16.12164,40.78162],[16.12171,40.78427],[16.12058,40.78856],[16.12034,40.78949],[16.12026,40.79041],[16.12027,40.79096],[16.12037,40.79164],[16.1205,40.79226],[16.12103,40.79459],[16.12143,40.79611],[16.12177,40.7966],[16.12214,40.79699],[16.12285,40.79732],[16.12394,40.79778],[16.13286,40.8012],[16.13395,40.80158],[16.1357,40.80185],[16.14373,40.80286],[16.14846,40.80344],[16.15596,40.80433],[16.1613,40.80487],[16.16716,40.80544],[16.16879,40.80569],[16.17222,40.80701],[16.17736,40.80925],[16.17947,40.81028],[16.18127,40.81156],[16.18261,40.81243],[16.18352,40.81301],[16.1872,40.81479],[16.19692,40.81892],[16.20322,40.82105],[16.21239,40.82836],[16.22303,40.83115],[16.23163,40.83281],[16.2407,40.83601],[16.24405,40.83803],[16.24401,40.83804],[16.24353,40.83812],[16.24303,40.83846],[16.24225,40.83956],[16.24037,40.84542],[16.23323,40.85275],[16.231,40.85687],[16.22563,40.87487],[16.2258,40.87807],[16.226,40.87824],[16.22636,40.87856],[16.22654,40.87919],[16.22661,40.87957],[16.22636,40.88049],[16.22632,40.88061],[16.2262,40.88096],[16.22615,40.88107],[16.22594,40.88153],[16.22592,40.88157],[16.22397,40.88526],[16.22171,40.88784],[16.21927,40.89215],[16.21661,40.89797],[16.21588,40.89965],[16.21433,40.90413],[16.21403,40.90503],[16.20749,40.91233],[16.20246,40.91753],[16.19689,40.91944],[16.19218,40.92006],[16.18432,40.92219],[16.18281,40.92261],[16.18063,40.92322],[16.17943,40.9236],[16.17935,40.92362],[16.17707,40.92464],[16.1741,40.92609],[16.16975,40.92753],[16.16297,40.92858],[16.16242,40.92837],[16.16193,40.92818],[16.1614,40.92742],[16.16137,40.92738],[16.16113,40.92699],[16.16094,40.92666],[16.16028,40.92544],[16.15846,40.92402],[16.15556,40.92269],[16.15392,40.92258],[16.15241,40.92274],[16.15039,40.923],[16.15028,40.92303],[16.1487,40.92352],[16.14454,40.92235],[16.13807,40.91835],[16.13727,40.91769],[16.13658,40.91684],[16.13507,40.91402],[16.13491,40.91321],[16.13465,40.9108],[16.13482,40.90964],[16.13494,40.90818],[16.13498,40.90759],[16.13477,40.90724],[16.13451,40.90684],[16.13432,40.90656],[16.13361,40.90604],[16.12858,40.90314],[16.12624,40.90237],[16.12405,40.90195],[16.12374,40.90189],[16.12362,40.90182],[16.12319,40.90156],[16.12258,40.90104],[16.12236,40.90076],[16.12216,40.90051],[16.1213,40.89924],[16.12107,40.89772],[16.12097,40.89795],[16.12092,40.898],[16.12085,40.89808],[16.12052,40.89843],[16.1187,40.90038],[16.11863,40.90045],[16.1181,40.90087],[16.1179,40.90104],[16.11629,40.90218],[16.11338,40.90376],[16.10573,40.90981],[16.10386,40.91227],[16.10165,40.91488],[16.09945,40.91688],[16.09188,40.92098],[16.08659,40.92275],[16.08443,40.92346],[16.08271,40.92398],[16.08019,40.92466],[16.07801,40.92511],[16.07619,40.92535],[16.07111,40.92595],[16.06651,40.92712],[16.06184,40.92853],[16.05738,40.93073],[16.04895,40.93545],[16.03798,40.93973],[16.02606,40.94353],[16.02431,40.94381],[16.02252,40.94408],[16.01975,40.94449],[16.01859,40.94464],[16.01241,40.94723],[16.00506,40.94959],[15.99976,40.95046],[15.9914,40.95218],[15.98317,40.95446],[15.98042,40.95606],[15.97731,40.95794],[15.97704,40.95813],[15.97663,40.95845],[15.97181,40.97213],[15.96531,40.97322],[15.96156,40.97335],[15.95738,40.97352],[15.95678,40.97355],[15.95461,40.97387],[15.9522,40.9744],[15.95013,40.97497],[15.94931,40.97521],[15.94843,40.97551],[15.94661,40.97613],[15.94153,40.97776],[15.93661,40.97907],[15.93425,40.97964],[15.93131,40.98024],[15.92534,40.98142],[15.9201,40.98245],[15.91046,40.98509],[15.9022,40.98753],[15.89833,40.98908],[15.89091,40.99234],[15.88765,40.9948],[15.89538,41.00374],[15.89763,41.00557],[15.90275,41.00795],[15.91493,41.01322],[15.91518,41.0134],[15.91567,41.01451],[15.91569,41.01491],[15.91567,41.01513],[15.91532,41.01728],[15.91491,41.0186],[15.91547,41.02658],[15.91655,41.02874],[15.91664,41.02902],[15.91673,41.02943],[15.91674,41.02947],[15.9168,41.02991],[15.91697,41.03108],[15.91714,41.03432],[15.91501,41.04023],[15.91303,41.04406],[15.90972,41.04742],[15.90587,41.05115],[15.89798,41.06039],[15.89732,41.06352],[15.89799,41.06445],[15.89817,41.06466],[15.89848,41.06477],[15.9,41.06529],[15.90105,41.06563],[15.90289,41.06604],[15.90358,41.0661],[15.91017,41.06677],[15.93159,41.07391],[15.93067,41.08077],[15.93248,41.08362],[15.9383,41.08606],[15.94492,41.08859],[15.95414,41.09312],[15.95732,41.09604],[15.95739,41.09611],[15.95838,41.09714],[15.95865,41.09746],[15.95901,41.0979],[15.95962,41.09889],[15.95969,41.09913],[15.95996,41.10005],[15.95992,41.10046],[15.95992,41.10056],[15.9598,41.10091],[15.95969,41.10125],[15.95846,41.10372],[15.95817,41.10416],[15.95775,41.10481],[15.95767,41.10492],[15.95753,41.1051],[15.95714,41.1056],[15.95704,41.10574],[15.95415,41.10944],[15.9522,41.11056],[15.94218,41.11262],[15.93755,41.11358],[15.93178,41.10901],[15.9214,41.11154],[15.91263,41.11739],[15.91114,41.11861],[15.91058,41.11905],[15.9103,41.11927],[15.91021,41.11934],[15.91016,41.11938],[15.90652,41.12212],[15.90405,41.12397],[15.90079,41.12641],[15.89436,41.12325],[15.88673,41.13022],[15.8777,41.13772],[15.87696,41.13733],[15.87611,41.13702],[15.87608,41.13701],[15.87596,41.13698],[15.87565,41.13688],[15.87531,41.13678],[15.87493,41.13683],[15.87447,41.13714],[15.87025,41.13992],[15.87024,41.13929],[15.87023,41.13888],[15.86987,41.13756],[15.86958,41.13676],[15.86952,41.13667],[15.8692,41.13617],[15.8665,41.1323],[15.86626,41.13199],[15.86566,41.1314],[15.86502,41.13097],[15.86461,41.13088],[15.86418,41.1308],[15.8589,41.13133],[15.85462,41.13306],[15.84722,41.1297],[15.84727,41.12929],[15.84729,41.12915],[15.84727,41.1288],[15.84726,41.12846],[15.84714,41.12773],[15.8466,41.1256],[15.84612,41.12488],[15.84548,41.12445],[15.84497,41.1243],[15.84297,41.12383],[15.84259,41.12377],[15.84172,41.12378],[15.84073,41.12381],[15.84018,41.12389],[15.84008,41.12395],[15.83959,41.12418],[15.83912,41.12451],[15.83906,41.12483],[15.83902,41.12503],[15.83901,41.12515],[15.83898,41.12579],[15.83917,41.12694],[15.83943,41.12751],[15.8396,41.12789],[15.83969,41.12809],[15.83976,41.12846],[15.8398,41.12867],[15.8397,41.12917],[15.83952,41.12964],[15.83864,41.1301],[15.83785,41.13038],[15.83698,41.13039],[15.83513,41.1303],[15.83443,41.13026],[15.83361,41.13005],[15.83272,41.12961],[15.83206,41.12929],[15.83174,41.12913],[15.83064,41.12816],[15.83017,41.1277],[15.8299,41.12707],[15.82956,41.12579],[15.82953,41.12474],[15.82952,41.12391],[15.82957,41.12327],[15.82508,41.11838],[15.82148,41.11953],[15.81672,41.11809],[15.81175,41.1161],[15.80811,41.11369],[15.80357,41.11089],[15.8016,41.10442],[15.80252,41.10166],[15.80163,41.09842],[15.80048,41.09579],[15.79888,41.09229],[15.79873,41.09198],[15.79845,41.09159],[15.79776,41.09102],[15.79623,41.09018],[15.79568,41.08993],[15.79111,41.088],[15.79055,41.08784],[15.78881,41.08776],[15.78851,41.08784],[15.78831,41.08813],[15.78814,41.08838],[15.78846,41.08874],[15.78859,41.08916],[15.78864,41.08968],[15.78847,41.09024],[15.78818,41.0907],[15.78736,41.09074],[15.7867,41.09069],[15.78287,41.08972],[15.77611,41.08687],[15.77145,41.08447],[15.77087,41.08417],[15.77061,41.08403],[15.76898,41.08339],[15.7684,41.08319],[15.76801,41.08325],[15.76774,41.08339],[15.76723,41.08381],[15.767,41.08403],[15.76652,41.08453],[15.76621,41.085],[15.7625,41.08744],[15.75326,41.09481],[15.75328,41.09552],[15.75311,41.09686],[15.7526,41.09734],[15.75194,41.0976],[15.75119,41.0979],[15.75034,41.09807],[15.74887,41.09833],[15.74171,41.09934],[15.73937,41.09941],[15.73582,41.09938],[15.7322,41.09892],[15.73012,41.09799],[15.7263,41.09581],[15.72585,41.09539],[15.72584,41.09533],[15.72575,41.09474],[15.72576,41.09446],[15.72587,41.09408],[15.72613,41.09338],[15.72032,41.09009],[15.69522,41.08784],[15.68405,41.08675],[15.67941,41.0868],[15.67569,41.0894],[15.65613,41.0912],[15.65582,41.0909],[15.65574,41.09083],[15.65525,41.09046],[15.65457,41.09],[15.65309,41.08919],[15.65267,41.08914],[15.65229,41.08909],[15.65153,41.08909],[15.65142,41.08909],[15.64733,41.08962],[15.63592,41.09246],[15.6308,41.09669],[15.62252,41.0981],[15.6133,41.09823],[15.60422,41.09661],[15.59073,41.09761],[15.58755,41.09838],[15.58652,41.09835],[15.58574,41.09826],[15.57981,41.09684],[15.5766,41.09562],[15.57434,41.09408],[15.57247,41.09278],[15.56634,41.08984],[15.56399,41.0894],[15.56322,41.08949],[15.56232,41.08928],[15.56167,41.08909],[15.56029,41.0885],[15.55972,41.0882],[15.55919,41.08776],[15.55891,41.08739],[15.55682,41.08379],[15.55568,41.0803],[15.55538,41.07983],[15.55374,41.07787],[15.55342,41.07754],[15.54986,41.07458],[15.54659,41.0738],[15.54646,41.07381],[15.5457,41.07389],[15.54484,41.07386],[15.54389,41.07371],[15.54183,41.073],[15.54099,41.07259],[15.54037,41.07229],[15.54024,41.07223],[15.54012,41.07207],[15.53968,41.07143],[15.5396,41.0712],[15.5393,41.07038],[15.53949,41.06965],[15.53961,41.06933],[15.5397,41.06909],[15.53987,41.06868],[15.54027,41.06808],[15.5406,41.06771],[15.54098,41.06748],[15.54142,41.06727],[15.54205,41.06713],[15.54227,41.06708],[15.54354,41.05899],[15.54287,41.05586],[15.54631,41.0529],[15.54826,41.05262],[15.54916,41.0506],[15.55316,41.03791],[15.55732,41.03543],[15.56299,41.03123],[15.56309,41.03111],[15.56315,41.03102],[15.56324,41.03075],[15.56328,41.03045],[15.56323,41.03019],[15.56284,41.02961],[15.55923,41.02444],[15.55876,41.02158],[15.55961,41.01788],[15.56248,41.01554],[15.56631,41.01146],[15.56958,41.00197],[15.57028,40.99355],[15.56914,40.98202],[15.56827,40.97565],[15.56713,40.97059],[15.56701,40.97007],[15.56693,40.96979],[15.56686,40.96953],[15.56661,40.96878],[15.56646,40.96852],[15.56625,40.96823],[15.56556,40.96733],[15.56538,40.96714],[15.56383,40.96606],[15.56172,40.96373],[15.55423,40.95774],[15.54955,40.95423],[15.54374,40.94766],[15.54174,40.93962],[15.54003,40.93386],[15.53929,40.93183],[15.53793,40.92952],[15.53473,40.92456],[15.53491,40.91974]]],[[[15.70488,40.76875],[15.70411,40.77098],[15.70255,40.77356],[15.70017,40.77646],[15.69955,40.77687],[15.69806,40.77778],[15.69769,40.77797],[15.69042,40.78044],[15.68322,40.78135],[15.68296,40.78141],[15.68266,40.78149],[15.68217,40.78196],[15.68187,40.78286],[15.68126,40.78497],[15.67959,40.79095],[15.67898,40.79323],[15.67897,40.79392],[15.678,40.79729],[15.67543,40.80387],[15.67364,40.80384],[15.6609,40.80316],[15.66051,40.80267],[15.66031,40.80197],[15.66016,40.80139],[15.66005,40.80072],[15.66007,40.80012],[15.66146,40.79448],[15.66289,40.79145],[15.66464,40.78923],[15.66606,40.78682],[15.6663,40.78639],[15.66658,40.78583],[15.6667,40.78503],[15.66674,40.78463],[15.66675,40.78411],[15.66671,40.78375],[15.66658,40.78328],[15.67101,40.78022],[15.67178,40.77919],[15.67232,40.7786],[15.67342,40.77773],[15.67401,40.77728],[15.68011,40.77319],[15.68555,40.77004],[15.68649,40.76965],[15.68905,40.76908],[15.69002,40.76886],[15.69069,40.76874],[15.69118,40.76866],[15.69215,40.76868],[15.7012,40.76872],[15.70511,40.76852],[15.70488,40.76875]]],[[[15.67049,40.8182],[15.67316,40.81927],[15.67427,40.82006],[15.67453,40.82179],[15.67455,40.82204],[15.6744,40.82242],[15.67413,40.82252],[15.67371,40.82251],[15.67323,40.82249],[15.67179,40.8223],[15.67041,40.82184],[15.6701,40.82173],[15.66983,40.82159],[15.66965,40.82149],[15.66955,40.82131],[15.66957,40.82108],[15.67004,40.8183],[15.67022,40.81813],[15.67049,40.8182]]],[[[15.6621,40.83874],[15.66215,40.83922],[15.66185,40.84365],[15.66161,40.84374],[15.66126,40.8436],[15.66092,40.84339],[15.65843,40.84119],[15.65495,40.839],[15.65459,40.83891],[15.65267,40.83789],[15.65316,40.83708],[15.65402,40.83628],[15.65496,40.83639],[15.6613,40.83738],[15.66161,40.83764],[15.66184,40.83812],[15.6621,40.83874]]],[[[15.59385,40.85738],[15.59836,40.85715],[15.60014,40.86204],[15.59544,40.86062],[15.59385,40.85738]]]]}}]}