{"type":"Feature","properties":{"reg_name":"Basilicata","slug":"basilicata","_provenance":{"authority":"ISTAT (openpolis/geojson-italy limits_IT_regions)","licence":"CC BY 4.0","method":"mapshaper 6% simplify, interior rings dropped, 5dp"}},"geometry":{"type":"MultiPolygon","coordinates":[[[[15.46575,40.63359],[15.44947,40.6091],[15.47536,40.59245],[15.51013,40.58575],[15.54474,40.53004],[15.55047,40.50925],[15.53886,40.48805],[15.57793,40.46948],[15.59477,40.44084],[15.71012,40.3773],[15.70452,40.34402],[15.72688,40.31545],[15.74916,40.29874],[15.79229,40.28978],[15.80577,40.27453],[15.80537,40.25141],[15.77408,40.21734],[15.71253,40.17844],[15.70174,40.16147],[15.70583,40.11773],[15.66859,40.07325],[15.67616,40.0549],[15.66446,40.03958],[15.68113,40.00616],[15.73193,39.96408],[15.7426,39.93438],[15.76585,39.9306],[15.77119,39.9556],[15.79512,39.97166],[15.82005,40.00187],[15.85023,40.00603],[15.86766,39.99013],[15.89802,39.98168],[15.92802,40.00107],[15.96852,39.99173],[15.9792,39.9824],[16.03051,39.99344],[16.00688,39.95694],[16.01666,39.9271],[16.0535,39.89814],[16.08305,39.89661],[16.10332,39.90692],[16.13797,39.90141],[16.15895,39.9194],[16.21469,39.89598],[16.21653,39.92783],[16.238,39.92547],[16.26843,39.93596],[16.31393,39.93104],[16.34323,39.90243],[16.35966,39.9196],[16.3378,39.93618],[16.39843,40.01897],[16.39439,40.04994],[16.41424,40.08068],[16.40895,40.12096],[16.45198,40.1348],[16.53001,40.11809],[16.58722,40.13312],[16.62777,40.12973],[16.64526,40.11813],[16.68408,40.14422],[16.73127,40.20271],[16.74948,40.24579],[16.78636,40.30274],[16.84989,40.37355],[16.86689,40.39735],[16.83582,40.41043],[16.80938,40.43307],[16.79261,40.46195],[16.73559,40.46792],[16.71959,40.48141],[16.73707,40.50383],[16.71582,40.52425],[16.70569,40.55019],[16.72397,40.60245],[16.70976,40.63283],[16.72566,40.6776],[16.69662,40.70208],[16.72491,40.71383],[16.63282,40.75357],[16.60794,40.75183],[16.57461,40.76305],[16.56697,40.75446],[16.52255,40.74645],[16.49608,40.75829],[16.47968,40.7368],[16.43051,40.70475],[16.40015,40.70741],[16.38039,40.7364],[16.35008,40.7489],[16.31623,40.78311],[16.27823,40.80161],[16.2312,40.85489],[16.2238,40.88659],[16.20246,40.91753],[16.16297,40.92858],[16.13807,40.91835],[16.1213,40.89924],[16.09364,40.92027],[15.97663,40.95845],[16.00285,40.97021],[16.03198,40.99838],[16.02793,41.02408],[16.04054,41.03637],[16.00725,41.05911],[15.97625,41.09417],[15.95338,41.11081],[15.92097,41.11115],[15.88066,41.13684],[15.80537,41.11089],[15.79873,41.09198],[15.7684,41.08319],[15.7526,41.09734],[15.67941,41.0868],[15.61742,41.09926],[15.58755,41.09838],[15.55891,41.08739],[15.543,41.06696],[15.55103,41.03942],[15.57204,40.99888],[15.56662,40.96878],[15.54229,40.9464],[15.52673,40.90759],[15.46763,40.8896],[15.47314,40.87494],[15.40273,40.88161],[15.37836,40.86767],[15.37833,40.84075],[15.33497,40.83488],[15.38556,40.79153],[15.38902,40.76763],[15.37906,40.75093],[15.38148,40.72415],[15.40258,40.71633],[15.43017,40.69208],[15.50359,40.66294],[15.49209,40.64749],[15.46575,40.63359]]]]}}