{"type":"FeatureCollection","_provenance":{"authority":"ISTAT (comune geometry, openpolis/geojson-italy) / MASAF disciplinari (comune membership)","licence":"CC BY 4.0","method":"comune-union: ISTAT comuni dissolved per disciplinare comune lists (comune-level approximation; interior rings dropped, 5dp). Partial-territory comuni are included whole.","reviewed_at":"2026-09-07"},"features":[{"type":"Feature","properties":{"name":"ciro","comuni_count":4},"geometry":{"type":"MultiPolygon","coordinates":[[[[17.05526,39.33673],[17.05171,39.33809],[17.0494,39.33897],[17.04884,39.33917],[17.04792,39.3395],[17.04741,39.33967],[17.04717,39.33972],[17.0468,39.33978],[17.0466,39.33979],[17.04624,39.33979],[17.04548,39.33972],[17.04495,39.3396],[17.04428,39.33927],[17.02708,39.33122],[17.01525,39.32928],[17.01297,39.32853],[17.00461,39.32527],[17.00383,39.32449],[17.00291,39.32357],[17.00247,39.32288],[17.00175,39.3213],[17.00175,39.32092],[17.00175,39.3209],[17.00198,39.32054],[17.00263,39.32002],[17.00273,39.31996],[17.00299,39.31979],[17.00221,39.31252],[16.99971,39.3025],[16.99797,39.30141],[16.99449,39.30051],[16.993,39.30017],[16.99159,39.30026],[16.98048,39.29774],[16.97326,39.29608],[16.96779,39.29572],[16.97002,39.29337],[16.9853,39.28278],[16.99354,39.27906],[16.99798,39.27614],[16.99969,39.27438],[17.00727,39.26848],[17.01233,39.26779],[17.01292,39.26772],[17.01406,39.26788],[17.01452,39.26804],[17.01639,39.26954],[17.01646,39.26962],[17.01662,39.2698],[17.01676,39.27014],[17.0166,39.27047],[17.01625,39.27096],[17.01589,39.2713],[17.0155,39.27154],[17.01513,39.27175],[17.01471,39.27199],[17.01408,39.27446],[17.01471,39.2774],[17.01556,39.28],[17.02038,39.28276],[17.02098,39.28304],[17.02154,39.28322],[17.0217,39.28327],[17.02249,39.2834],[17.02296,39.28344],[17.02559,39.28341],[17.02717,39.28274],[17.0305,39.28167],[17.04065,39.28225],[17.04503,39.2837],[17.05201,39.28524],[17.05708,39.28512],[17.05847,39.28465],[17.06104,39.28401],[17.06168,39.28386],[17.06222,39.28375],[17.06271,39.28373],[17.06328,39.28371],[17.06355,39.28371],[17.06422,39.28376],[17.06482,39.28384],[17.06633,39.28414],[17.07173,39.2854],[17.07233,39.28558],[17.07261,39.28571],[17.07373,39.28629],[17.07412,39.2865],[17.07454,39.28692],[17.07492,39.28777],[17.07495,39.28801],[17.08137,39.29003],[17.0914,39.29099],[17.0957,39.29104],[17.09624,39.29104],[17.09676,39.29101],[17.09869,39.29071],[17.09963,39.29042],[17.10046,39.29013],[17.10145,39.28981],[17.10219,39.28968],[17.1048,39.28935],[17.10617,39.28925],[17.10955,39.28955],[17.10991,39.28962],[17.1106,39.28978],[17.11093,39.29029],[17.11004,39.29431],[17.1098,39.30862],[17.11065,39.31337],[17.1107,39.31363],[17.11074,39.31378],[17.11111,39.31509],[17.11149,39.31643],[17.11192,39.3179],[17.11232,39.31897],[17.11286,39.3203],[17.11336,39.32129],[17.11421,39.32253],[17.11841,39.32992],[17.12688,39.34621],[17.13285,39.35953],[17.13356,39.36138],[17.13541,39.36782],[17.13599,39.37048],[17.13503,39.36849],[17.13446,39.36818],[17.13422,39.36814],[17.13363,39.36819],[17.1335,39.36831],[17.13359,39.36866],[17.13369,39.36891],[17.1357,39.37415],[17.13621,39.37538],[17.13696,39.37632],[17.13737,39.37682],[17.13795,39.37746],[17.14124,39.38056],[17.14488,39.38414],[17.14708,39.38668],[17.15322,39.39398],[17.15464,39.39605],[17.15711,39.40072],[17.15716,39.401],[17.15692,39.40136],[17.15639,39.40165],[17.15584,39.40181],[17.15511,39.4019],[17.15422,39.40195],[17.14409,39.40172],[17.1436,39.40171],[17.14243,39.4017],[17.14238,39.40169],[17.14188,39.4017],[17.14154,39.40172],[17.139,39.40198],[17.13756,39.40216],[17.13609,39.40237],[17.13557,39.40246],[17.12156,39.40497],[17.12085,39.4051],[17.12081,39.40511],[17.12047,39.40519],[17.11927,39.40546],[17.11864,39.40561],[17.11583,39.40639],[17.11575,39.40642],[17.1155,39.40653],[17.11537,39.40658],[17.11414,39.40734],[17.11412,39.40739],[17.11406,39.40753],[17.11404,39.40756],[17.11104,39.40954],[17.10861,39.41106],[17.10652,39.41178],[17.10025,39.41393],[17.09964,39.41414],[17.09815,39.41459],[17.09448,39.41571],[17.09143,39.41678],[17.09087,39.41698],[17.08965,39.41744],[17.08348,39.42047],[17.08055,39.42201],[17.08028,39.4222],[17.06568,39.4316],[17.05937,39.43517],[17.05805,39.43592],[17.05658,39.43678],[17.05449,39.43807],[17.05338,39.43881],[17.05278,39.43924],[17.05269,39.43944],[17.05251,39.43942],[17.05227,39.43939],[17.05217,39.43946],[17.05156,39.43988],[17.05118,39.44016],[17.04966,39.44126],[17.0489,39.44189],[17.04691,39.44364],[17.0463,39.44428],[17.04604,39.44459],[17.04011,39.45217],[17.03945,39.45311],[17.03716,39.45687],[17.03672,39.45777],[17.03635,39.45886],[17.03576,39.46078],[17.03195,39.47082],[17.03124,39.47268],[17.03039,39.47453],[17.02918,39.47697],[17.029,39.47732],[17.02894,39.47745],[17.02883,39.47764],[17.02874,39.4778],[17.02869,39.47788],[17.02863,39.47796],[17.02726,39.47994],[17.02706,39.48023],[17.02686,39.48043],[17.02636,39.48084],[17.02593,39.48117],[17.02374,39.48239],[17.02167,39.48011],[17.02077,39.47915],[17.01929,39.47774],[17.01903,39.47754],[17.01882,39.47738],[17.01778,39.47669],[17.01631,39.47601],[17.00707,39.4694],[17.00546,39.46722],[17.00379,39.46511],[17.00351,39.46481],[17.00342,39.46471],[17.00323,39.4645],[17.0031,39.46438],[17.00247,39.46378],[17.00145,39.46281],[17.00148,39.46271],[17.00094,39.46226],[16.99988,39.46139],[16.99785,39.4599],[16.99644,39.45914],[16.99463,39.45827],[16.99375,39.45788],[16.99293,39.45755],[16.99095,39.45687],[16.9894,39.45641],[16.98852,39.45624],[16.98755,39.45599],[16.98592,39.45554],[16.98574,39.45548],[16.98514,39.45529],[16.98061,39.45367],[16.97909,39.45312],[16.97826,39.45271],[16.97539,39.45061],[16.97396,39.44944],[16.9719,39.44744],[16.97157,39.44712],[16.97142,39.44697],[16.9714,39.44695],[16.96345,39.43932],[16.95721,39.43703],[16.95763,39.43594],[16.95781,39.43507],[16.95784,39.43484],[16.95786,39.43461],[16.95788,39.43408],[16.95764,39.43366],[16.95761,39.4336],[16.95715,39.43327],[16.95665,39.43295],[16.95612,39.43266],[16.95587,39.43254],[16.95558,39.43246],[16.95536,39.43259],[16.95434,39.43164],[16.95334,39.42915],[16.95326,39.42872],[16.95348,39.42717],[16.95372,39.42606],[16.95627,39.41485],[16.95496,39.4028],[16.95657,39.39722],[16.95702,39.39697],[16.95721,39.39687],[16.95769,39.39671],[16.95944,39.39621],[16.95991,39.39611],[16.96429,39.39595],[16.96815,39.39608],[16.9707,39.3955],[16.97398,39.39359],[16.97641,39.39211],[16.97814,39.38941],[16.97708,39.38783],[16.97652,39.38692],[16.97638,39.38668],[16.97632,39.38658],[16.97614,39.38603],[16.97594,39.38507],[16.97595,39.38503],[16.97597,39.38459],[16.97608,39.38416],[16.97613,39.38394],[16.97631,39.3833],[16.97702,39.38174],[16.97744,39.38091],[16.97778,39.38026],[16.98478,39.36707],[16.98414,39.36666],[16.98328,39.36573],[16.98303,39.36543],[16.98205,39.36423],[16.98217,39.3641],[16.98222,39.36405],[16.98286,39.3636],[16.9847,39.36289],[16.9851,39.36276],[16.98552,39.36265],[16.98675,39.36233],[16.99065,39.36139],[16.99415,39.36102],[16.99876,39.35322],[17.00389,39.34973],[17.00451,39.35136],[17.00519,39.35297],[17.00532,39.35319],[17.00545,39.35338],[17.00583,39.35362],[17.00616,39.35373],[17.01552,39.35547],[17.01585,39.35545],[17.01624,39.35541],[17.02208,39.35432],[17.02237,39.35418],[17.02382,39.35243],[17.0378,39.34385],[17.0394,39.34047],[17.04075,39.34089],[17.04455,39.34215],[17.04496,39.34231],[17.04996,39.34525],[17.05222,39.34553],[17.05569,39.34409],[17.05718,39.33862],[17.05722,39.33832],[17.05713,39.33809],[17.05691,39.33786],[17.05678,39.33774],[17.05655,39.33753],[17.05622,39.33726],[17.05565,39.33693],[17.05551,39.33686],[17.05526,39.33673]]]]}},{"type":"Feature","properties":{"name":"greco-di-bianco","comuni_count":2},"geometry":{"type":"MultiPolygon","coordinates":[[[[16.15967,38.11383],[16.16128,38.12805],[16.15658,38.12824],[16.14652,38.12862],[16.14549,38.12832],[16.13999,38.12646],[16.13666,38.12523],[16.13517,38.12482],[16.13459,38.12466],[16.12835,38.12545],[16.12733,38.12567],[16.12694,38.12579],[16.12658,38.12594],[16.12624,38.12614],[16.12536,38.12666],[16.12531,38.1267],[16.12509,38.12687],[16.12488,38.12707],[16.12479,38.12735],[16.12055,38.12674],[16.11242,38.12929],[16.10368,38.1326],[16.10342,38.13286],[16.10306,38.1332],[16.10298,38.13325],[16.10267,38.13341],[16.10236,38.13351],[16.10034,38.13397],[16.09893,38.13427],[16.09685,38.13466],[16.0918,38.13544],[16.08952,38.13556],[16.08669,38.13559],[16.08409,38.13551],[16.08155,38.13543],[16.07867,38.13511],[16.07668,38.13488],[16.07634,38.13477],[16.07623,38.13474],[16.07278,38.13267],[16.07252,38.13247],[16.0724,38.13238],[16.07226,38.13226],[16.07205,38.13209],[16.07161,38.13172],[16.07138,38.13147],[16.07132,38.13141],[16.07113,38.13115],[16.07088,38.13077],[16.07069,38.13026],[16.0704,38.12936],[16.06358,38.1195],[16.05359,38.11052],[16.05084,38.10829],[16.04769,38.10719],[16.05008,38.10493],[16.05035,38.10479],[16.05141,38.10467],[16.05177,38.10476],[16.05216,38.10486],[16.0535,38.10538],[16.05449,38.10618],[16.05535,38.10653],[16.05657,38.10681],[16.05942,38.10733],[16.05984,38.10735],[16.06597,38.10723],[16.06832,38.10699],[16.06875,38.1069],[16.0692,38.10672],[16.06952,38.10658],[16.06985,38.10638],[16.07002,38.10622],[16.07023,38.10602],[16.07036,38.1059],[16.07148,38.10458],[16.07166,38.1043],[16.07169,38.10418],[16.07174,38.10398],[16.07181,38.10359],[16.07912,38.10114],[16.08298,38.10028],[16.08599,38.09823],[16.08631,38.09803],[16.08816,38.09701],[16.08861,38.09681],[16.08899,38.09666],[16.08936,38.09658],[16.08967,38.09653],[16.091,38.09631],[16.09893,38.09507],[16.10223,38.09393],[16.10499,38.09154],[16.11064,38.08583],[16.11068,38.08574],[16.11079,38.08549],[16.11087,38.08515],[16.11093,38.0848],[16.11094,38.08459],[16.11094,38.08452],[16.1109,38.08288],[16.11034,38.06562],[16.10976,38.06251],[16.11299,38.0546],[16.1172,38.04587],[16.11863,38.03826],[16.11153,38.03771],[16.11302,38.03283],[16.11352,38.03],[16.11349,38.02956],[16.11348,38.02949],[16.11305,38.02733],[16.11229,38.02468],[16.11622,38.02379],[16.12322,38.0239],[16.12798,38.02489],[16.13286,38.0263],[16.13388,38.02671],[16.13443,38.02676],[16.1349,38.02676],[16.13705,38.02621],[16.1397,38.02541],[16.14059,38.02508],[16.14152,38.02638],[16.14344,38.02918],[16.14354,38.02943],[16.1441,38.03092],[16.14432,38.03164],[16.14403,38.03768],[16.14315,38.04114],[16.14289,38.04365],[16.13771,38.04153],[16.13756,38.04133],[16.13649,38.04105],[16.13539,38.04086],[16.13399,38.04076],[16.13366,38.04078],[16.13143,38.04095],[16.13061,38.04138],[16.12672,38.04366],[16.12539,38.04509],[16.12523,38.04537],[16.12515,38.04566],[16.12701,38.04736],[16.12842,38.05272],[16.12966,38.05463],[16.13936,38.05849],[16.13974,38.05863],[16.14025,38.05859],[16.14308,38.05834],[16.14459,38.05803],[16.14464,38.05802],[16.14846,38.05694],[16.14981,38.06522],[16.15082,38.0723],[16.15111,38.07388],[16.15135,38.07503],[16.15153,38.07583],[16.15173,38.07665],[16.15231,38.07866],[16.15718,38.09538],[16.15881,38.10545],[16.15967,38.11383]]]]}}]}