{"type":"Feature","properties":{"reg_name":"Calabria","slug":"calabria","_provenance":{"authority":"ISTAT (openpolis/geojson-italy limits_IT_regions)","licence":"CC BY 4.0","method":"mapshaper 6% simplify, interior rings dropped, 5dp"}},"geometry":{"type":"MultiPolygon","coordinates":[[[[15.97395,39.46742],[15.99354,39.44537],[16.03669,39.3484],[16.05112,39.29792],[16.06222,39.19502],[16.06687,39.13347],[16.07631,39.11291],[16.10184,39.02525],[16.13158,38.99847],[16.15367,38.95429],[16.21833,38.92035],[16.22111,38.86632],[16.21366,38.81162],[16.18221,38.74768],[16.14687,38.72426],[16.10443,38.71181],[16.03159,38.72788],[15.98602,38.72302],[15.94757,38.69095],[15.87207,38.67323],[15.84816,38.65921],[15.82671,38.62297],[15.86651,38.59264],[15.89275,38.57782],[15.90116,38.56443],[15.92827,38.55034],[15.93065,38.53729],[15.91079,38.47834],[15.89837,38.4515],[15.86523,38.40202],[15.85813,38.38021],[15.83298,38.35595],[15.82962,38.32481],[15.81709,38.30072],[15.79422,38.28027],[15.74919,38.25711],[15.67906,38.24716],[15.6365,38.23218],[15.6327,38.19396],[15.64055,38.16885],[15.65506,38.15249],[15.64796,38.1143],[15.63062,38.10192],[15.63466,38.07578],[15.6494,38.06822],[15.65406,38.03103],[15.63356,38.0184],[15.64593,37.99138],[15.67769,37.95436],[15.69701,37.94888],[15.73266,37.92539],[15.76425,37.91607],[15.8398,37.91918],[15.92016,37.9297],[15.95739,37.91935],[15.99801,37.91578],[16.01907,37.9225],[16.06446,37.92563],[16.09695,37.95659],[16.11623,37.98173],[16.14419,38.03125],[16.14312,38.04365],[16.16633,38.13731],[16.1925,38.1579],[16.32962,38.29733],[16.42164,38.32579],[16.47332,38.34406],[16.50295,38.36482],[16.57078,38.42673],[16.58189,38.45197],[16.57932,38.50285],[16.57188,38.53502],[16.57311,38.56392],[16.55644,38.65499],[16.55863,38.67953],[16.53571,38.70371],[16.54256,38.72699],[16.56781,38.75379],[16.56671,38.76518],[16.60304,38.80906],[16.70133,38.86004],[16.77028,38.89313],[16.83643,38.91532],[16.87644,38.92508],[16.95372,38.93807],[16.97788,38.93846],[16.99754,38.93004],[17.01015,38.91173],[17.04738,38.91929],[17.09344,38.90559],[17.12989,38.92596],[17.17013,38.95681],[17.1595,38.98118],[17.17114,39.004],[17.19594,39.02694],[17.14675,39.04648],[17.13042,39.07531],[17.1098,39.09841],[17.11029,39.12423],[17.12293,39.15762],[17.14842,39.2061],[17.11072,39.24529],[17.1048,39.26637],[17.1092,39.30719],[17.15331,39.40189],[17.12085,39.4051],[17.08089,39.42184],[17.04679,39.44391],[17.0245,39.48385],[16.97992,39.49109],[16.94378,39.50184],[16.90181,39.52492],[16.86659,39.53862],[16.82669,39.56817],[16.81765,39.58808],[16.7704,39.62079],[16.73562,39.61639],[16.68855,39.62153],[16.63032,39.6203],[16.60717,39.6246],[16.56316,39.64277],[16.52923,39.66649],[16.52559,39.6799],[16.5294,39.72444],[16.49974,39.74149],[16.48618,39.78249],[16.49675,39.81778],[16.5549,39.88838],[16.60454,39.931],[16.62888,39.96738],[16.61847,39.97643],[16.60616,40.02621],[16.59899,40.03739],[16.60359,40.07381],[16.62071,40.09777],[16.64507,40.11803],[16.62777,40.12973],[16.58722,40.13312],[16.53001,40.11809],[16.51797,40.12878],[16.49467,40.12508],[16.45198,40.1348],[16.40895,40.12096],[16.41424,40.08068],[16.39439,40.04994],[16.39843,40.01897],[16.39101,40.00331],[16.36027,39.96804],[16.35809,39.9541],[16.3378,39.93618],[16.35966,39.9196],[16.34323,39.90243],[16.31393,39.93104],[16.26843,39.93596],[16.238,39.92547],[16.21653,39.92783],[16.21469,39.89598],[16.15895,39.9194],[16.13797,39.90141],[16.10332,39.90692],[16.08305,39.89661],[16.0535,39.89814],[16.03767,39.91617],[16.01666,39.9271],[16.00688,39.95694],[16.03051,39.99344],[15.9792,39.9824],[15.96852,39.99173],[15.92802,40.00107],[15.89802,39.98168],[15.89031,39.99451],[15.86766,39.99013],[15.85023,40.00603],[15.82005,40.00187],[15.79512,39.97166],[15.77119,39.9556],[15.75592,39.92356],[15.77898,39.89367],[15.79107,39.8648],[15.77948,39.84729],[15.79484,39.77348],[15.80837,39.73057],[15.81738,39.6774],[15.83184,39.66777],[15.87395,39.5539],[15.88171,39.54386],[15.9252,39.52653],[15.95862,39.47832],[15.97395,39.46742]]]]}}