{"type":"Feature","properties":{"reg_name":"Campania","slug":"campania","_provenance":{"authority":"ISTAT (openpolis/geojson-italy limits_IT_regions)","licence":"CC BY 4.0","method":"mapshaper 6% simplify, interior rings dropped, 5dp"}},"geometry":{"type":"MultiPolygon","coordinates":[[[[14.36008,40.78568],[14.39551,40.75939],[14.41348,40.75231],[14.44714,40.75468],[14.46624,40.73601],[14.4818,40.70054],[14.43901,40.68184],[14.42962,40.66565],[14.3997,40.63798],[14.36454,40.62774],[14.35179,40.6345],[14.32044,40.58781],[14.32452,40.56904],[14.35231,40.58208],[14.40803,40.59958],[14.41891,40.61029],[14.49542,40.62704],[14.52959,40.60722],[14.57691,40.61827],[14.61989,40.64607],[14.6421,40.64727],[14.67853,40.63294],[14.69167,40.6343],[14.71384,40.66255],[14.74737,40.67773],[14.78895,40.6653],[14.82168,40.64164],[14.85847,40.60777],[14.90675,40.5469],[14.93926,40.48639],[14.9802,40.42927],[15.00134,40.37762],[14.99356,40.35361],[14.96967,40.3411],[14.94564,40.33688],[14.93931,40.31933],[14.94699,40.29525],[14.94288,40.27485],[14.90648,40.25395],[14.90902,40.24329],[14.93526,40.22859],[14.95867,40.23037],[14.99089,40.21895],[15.03626,40.17246],[15.06585,40.1644],[15.08538,40.17366],[15.11789,40.17725],[15.14633,40.16001],[15.17884,40.12728],[15.20914,40.12117],[15.23935,40.09332],[15.26285,40.0827],[15.27617,40.06677],[15.29169,40.02353],[15.31486,40.03188],[15.3421,40.00521],[15.3805,40.00083],[15.41857,39.9906],[15.4601,40.0337],[15.48441,40.03836],[15.50329,40.06405],[15.53067,40.07383],[15.57177,40.07833],[15.63251,40.0674],[15.62684,40.05625],[15.64326,40.04373],[15.67616,40.0549],[15.66859,40.07325],[15.70583,40.11773],[15.70174,40.16147],[15.71253,40.17844],[15.72975,40.18633],[15.77408,40.21734],[15.79718,40.22485],[15.78735,40.23663],[15.80537,40.25141],[15.80577,40.27453],[15.79229,40.28978],[15.74916,40.29874],[15.72688,40.31545],[15.70452,40.34402],[15.71012,40.3773],[15.65045,40.40825],[15.62632,40.42622],[15.59477,40.44084],[15.57793,40.46948],[15.53886,40.48805],[15.55047,40.50925],[15.54474,40.53004],[15.51013,40.58575],[15.47536,40.59245],[15.44947,40.6091],[15.46777,40.63924],[15.49209,40.64749],[15.50359,40.66294],[15.47,40.67317],[15.43017,40.69208],[15.40258,40.71633],[15.38148,40.72415],[15.37906,40.75093],[15.38902,40.76763],[15.38556,40.79153],[15.36611,40.80049],[15.36646,40.81214],[15.33497,40.83488],[15.37833,40.84075],[15.37836,40.86767],[15.40273,40.88161],[15.47314,40.87494],[15.46763,40.8896],[15.52673,40.90759],[15.54229,40.9464],[15.56662,40.96878],[15.57204,40.99888],[15.54669,41.05277],[15.48949,41.07003],[15.47835,41.07866],[15.4461,41.07801],[15.42749,41.09282],[15.39638,41.10682],[15.36745,41.08488],[15.35162,41.09477],[15.31436,41.10389],[15.29173,41.09354],[15.26719,41.10664],[15.23566,41.13988],[15.21079,41.14867],[15.20935,41.16769],[15.2275,41.18493],[15.25738,41.1974],[15.24618,41.23611],[15.27984,41.24079],[15.24705,41.27136],[15.21628,41.27524],[15.201,41.28627],[15.1502,41.28274],[15.12677,41.30295],[15.13056,41.31719],[15.07219,41.33246],[15.05847,41.37213],[15.08155,41.38773],[15.09878,41.43377],[15.07625,41.43278],[15.03244,41.45268],[15.02389,41.47695],[15.00762,41.48639],[14.98227,41.46907],[14.94641,41.45597],[14.88442,41.44478],[14.8677,41.42782],[14.84312,41.42661],[14.79018,41.45255],[14.77396,41.44553],[14.7647,41.41737],[14.71728,41.40083],[14.69962,41.41084],[14.67144,41.40664],[14.63378,41.38743],[14.60304,41.36396],[14.56633,41.39213],[14.55152,41.37939],[14.48861,41.39071],[14.47799,41.41017],[14.45397,41.42791],[14.42761,41.42911],[14.34218,41.45408],[14.32716,41.45344],[14.27756,41.48585],[14.24942,41.48455],[14.24163,41.49666],[14.20485,41.49993],[14.1673,41.49442],[14.15164,41.48266],[14.12527,41.50737],[14.07837,41.44708],[14.10749,41.41643],[14.08477,41.40003],[14.04239,41.39278],[14.01769,41.42342],[14.00502,41.425],[14.00578,41.45283],[13.96078,41.4636],[13.91086,41.42868],[13.87514,41.42642],[13.8618,41.41809],[13.88632,41.38444],[13.87362,41.37472],[13.87368,41.33562],[13.89474,41.31054],[13.88234,41.29094],[13.85106,41.28957],[13.82757,41.27746],[13.83981,41.26338],[13.81685,41.24367],[13.77375,41.24266],[13.76211,41.2226],[13.81388,41.18449],[13.83573,41.1628],[13.89061,41.09612],[13.92248,41.02654],[13.97804,40.9766],[13.99675,40.95627],[14.03257,40.89899],[14.04482,40.86484],[14.048,40.83564],[14.04171,40.79114],[14.0772,40.78744],[14.08476,40.7934],[14.07753,40.82547],[14.10769,40.83158],[14.12079,40.82057],[14.15605,40.8181],[14.15921,40.80804],[14.18729,40.79226],[14.22149,40.82546],[14.22062,40.82639],[14.27393,40.84469],[14.3164,40.82511],[14.36025,40.78489],[14.36012,40.78541],[14.36008,40.78568]]],[[[14.23107,40.54169],[14.24048,40.55575],[14.19817,40.55937],[14.19794,40.53681],[14.23107,40.54169]]],[[[13.95416,40.70728],[13.96529,40.7127],[13.95507,40.74045],[13.92413,40.74993],[13.87707,40.75686],[13.85857,40.73806],[13.86121,40.7174],[13.87366,40.69691],[13.91009,40.70121],[13.92347,40.6974],[13.95416,40.70728]]]]}}