{"type":"FeatureCollection","_provenance":{"authority":"ISTAT (comune geometry, openpolis/geojson-italy) / MASAF disciplinari (comune membership)","licence":"CC BY 4.0","method":"comune-union: ISTAT comuni dissolved per disciplinare comune lists (comune-level approximation; 5dp). Partial-territory comuni are included whole. Interior rings are kept where a comune the disciplinare excludes is surrounded by comuni it includes; rounding slivers below 1e-6 square degrees are dropped.","reviewed_at":"2026-09-12"},"features":[{"type":"Feature","properties":{"name":"taurasi","comuni_count":17},"geometry":{"type":"MultiPolygon","coordinates":[[[[14.94517,41.08025],[14.9354,41.08402],[14.93377,41.08469],[14.93316,41.0848],[14.9329,41.08478],[14.93257,41.08475],[14.93045,41.08449],[14.92865,41.08425],[14.92807,41.08416],[14.92704,41.08402],[14.92342,41.08175],[14.92208,41.08015],[14.91916,41.07627],[14.9069,41.07022],[14.90153,41.0678],[14.89467,41.06655],[14.89053,41.06545],[14.88926,41.06507],[14.88848,41.0648],[14.88187,41.06168],[14.87395,41.05895],[14.87271,41.05879],[14.87201,41.05885],[14.87195,41.05886],[14.8715,41.05889],[14.87142,41.05889],[14.87111,41.05888],[14.87065,41.05887],[14.86976,41.05844],[14.86889,41.0577],[14.86831,41.05706],[14.86716,41.05572],[14.86659,41.05486],[14.86619,41.05399],[14.86531,41.05175],[14.86351,41.04855],[14.86287,41.0479],[14.85982,41.04615],[14.85725,41.04563],[14.85991,41.04381],[14.86579,41.04164],[14.86976,41.04192],[14.87231,41.04223],[14.87437,41.04709],[14.8771,41.04599],[14.88059,41.04365],[14.88108,41.04324],[14.8814,41.04264],[14.88159,41.04202],[14.88167,41.04142],[14.88116,41.03904],[14.88086,41.03862],[14.88052,41.03839],[14.88142,41.0342],[14.88359,41.03338],[14.88523,41.03238],[14.88822,41.03011],[14.88846,41.029],[14.8861,41.02915],[14.88273,41.02626],[14.88095,41.02296],[14.87671,41.01797],[14.87428,41.01555],[14.86894,41.01024],[14.86832,41.0083],[14.86409,41.00326],[14.86042,41.00219],[14.86233,40.99845],[14.86265,40.99893],[14.86296,40.99934],[14.86342,40.99987],[14.86392,41.00031],[14.86451,41.00069],[14.86602,41.00124],[14.86658,41.00141],[14.86754,41.00155],[14.87023,41.00166],[14.87143,41.00148],[14.87281,41.00106],[14.87618,40.99523],[14.88083,40.99114],[14.88211,40.98853],[14.88211,40.98844],[14.88215,40.98804],[14.88177,40.98773],[14.8789,40.98556],[14.87686,40.98411],[14.87098,40.98157],[14.87026,40.98146],[14.87003,40.98143],[14.8665,40.98128],[14.86587,40.9814],[14.8617,40.98062],[14.85751,40.97837],[14.85588,40.97688],[14.85547,40.97624],[14.85552,40.97571],[14.85747,40.97394],[14.85988,40.9684],[14.8604,40.9653],[14.8666,40.96033],[14.87843,40.95208],[14.88689,40.94776],[14.89135,40.94717],[14.89538,40.9468],[14.89564,40.94688],[14.8959,40.94697],[14.89964,40.94392],[14.90103,40.94476],[14.91168,40.95294],[14.91774,40.95785],[14.91839,40.95828],[14.91875,40.95853],[14.92119,40.95961],[14.92456,40.96059],[14.93045,40.95996],[14.93457,40.95905],[14.93759,40.95924],[14.93922,40.96158],[14.93903,40.95985],[14.93903,40.9596],[14.93923,40.9586],[14.93984,40.95722],[14.9408,40.95587],[14.94174,40.95479],[14.94279,40.95372],[14.94328,40.95344],[14.94439,40.95358],[14.95166,40.94773],[14.95352,40.94034],[14.95794,40.93752],[14.96622,40.93273],[14.97153,40.92622],[14.97236,40.92384],[14.97068,40.92099],[14.97012,40.92055],[14.96989,40.92042],[14.9696,40.92024],[14.96844,40.91998],[14.96818,40.92004],[14.96765,40.92016],[14.96009,40.92211],[14.95719,40.92301],[14.95659,40.92356],[14.95601,40.92422],[14.95564,40.92496],[14.95568,40.92552],[14.95588,40.92624],[14.95557,40.92707],[14.9542,40.92853],[14.9496,40.93092],[14.94952,40.93064],[14.94944,40.93027],[14.94869,40.92556],[14.94828,40.9222],[14.94822,40.92108],[14.94822,40.92053],[14.94821,40.91991],[14.94709,40.90795],[14.94593,40.90338],[14.94536,40.90085],[14.94556,40.89591],[14.94714,40.8944],[14.9522,40.89407],[14.95443,40.89495],[14.95603,40.8957],[14.95645,40.89715],[14.9565,40.89889],[14.95648,40.89961],[14.95471,40.90001],[14.95416,40.90016],[14.95426,40.90098],[14.95431,40.90138],[14.95587,40.90235],[14.95626,40.90259],[14.95745,40.9029],[14.96148,40.90203],[14.96637,40.90059],[14.9644,40.89577],[14.96263,40.89002],[14.96255,40.88894],[14.96236,40.88632],[14.96283,40.88358],[14.96335,40.88281],[14.96755,40.87875],[14.96894,40.87781],[14.96996,40.87726],[14.97059,40.87699],[14.97147,40.87669],[14.97523,40.87727],[14.97958,40.87734],[14.98086,40.87728],[14.98199,40.87748],[14.98225,40.87752],[14.98381,40.87809],[14.98392,40.87813],[14.98742,40.87985],[14.99153,40.88234],[14.99359,40.8844],[14.99806,40.88615],[15.00152,40.88836],[15.01205,40.89222],[15.01935,40.89286],[15.02269,40.89073],[15.02317,40.89048],[15.02385,40.89034],[15.02689,40.88977],[15.02721,40.8898],[15.02789,40.88985],[15.02835,40.88989],[15.02839,40.8899],[15.02904,40.88999],[15.03331,40.89106],[15.03622,40.89223],[15.03731,40.89333],[15.04131,40.89912],[15.04204,40.89722],[15.04241,40.89709],[15.04248,40.89706],[15.04341,40.89753],[15.04611,40.89897],[15.04884,40.90044],[15.04908,40.90061],[15.0496,40.90099],[15.04972,40.90108],[15.05009,40.90137],[15.0559,40.90497],[15.05675,40.90528],[15.05729,40.90541],[15.0574,40.90543],[15.05803,40.90555],[15.05987,40.90573],[15.06434,40.90616],[15.06512,40.90622],[15.06865,40.9061],[15.06947,40.90593],[15.07065,40.90563],[15.07185,40.90516],[15.07386,40.90472],[15.07695,40.90416],[15.07879,40.90412],[15.07969,40.9044],[15.07985,40.90445],[15.08312,40.90628],[15.08371,40.90669],[15.084,40.90735],[15.08387,40.91332],[15.08038,40.91635],[15.07056,40.92407],[15.0704,40.92419],[15.06973,40.9247],[15.06914,40.92485],[15.06823,40.92509],[15.06694,40.92536],[15.06389,40.92584],[15.06044,40.93173],[15.05822,40.94424],[15.05783,40.94642],[15.05783,40.94713],[15.05794,40.94803],[15.05834,40.95013],[15.05859,40.95096],[15.05884,40.95177],[15.06209,40.95898],[15.06239,40.95926],[15.06421,40.95939],[15.06496,40.9644],[15.06506,40.96705],[15.05954,40.97105],[15.0593,40.9713],[15.05644,40.97429],[15.05008,40.97916],[15.04539,40.98141],[15.03957,40.98404],[15.03463,40.98624],[15.03027,40.98853],[15.0306,40.9899],[15.03489,40.99833],[15.03669,41.0007],[15.04812,41.01847],[15.04753,41.02164],[15.0485,41.02588],[15.05013,41.02915],[15.05561,41.03165],[15.05386,41.0319],[15.04406,41.03477],[15.04209,41.03501],[15.0426,41.03825],[15.03816,41.04668],[15.0312,41.05307],[15.02596,41.05912],[15.02546,41.06359],[15.02592,41.06432],[15.02635,41.06504],[15.02652,41.06538],[15.0267,41.06573],[15.02694,41.06649],[15.02685,41.06728],[15.02666,41.06777],[15.02658,41.06784],[15.02618,41.06813],[15.02518,41.06872],[15.0245,41.06886],[15.01297,41.0697],[15.01489,41.07846],[15.01949,41.08104],[15.01643,41.08544],[15.01408,41.08766],[15.01359,41.0881],[15.01233,41.08871],[15.0112,41.08887],[15.01045,41.08887],[15.00994,41.09267],[15.0169,41.09934],[15.01725,41.10016],[15.01733,41.10053],[15.01782,41.10309],[15.01808,41.10462],[15.01422,41.11536],[15.01085,41.1181],[15.00553,41.11541],[14.99781,41.11016],[14.98824,41.10578],[14.98114,41.10039],[14.9766,41.09545],[14.97263,41.09263],[14.96468,41.08956],[14.95977,41.08959],[14.9512,41.08835],[14.94695,41.08605],[14.94527,41.08202],[14.94517,41.08025]]]]}},{"type":"Feature","properties":{"name":"greco-di-tufo","comuni_count":8},"geometry":{"type":"MultiPolygon","coordinates":[[[[14.80155,40.98031],[14.80484,40.97735],[14.81017,40.97955],[14.811,40.97954],[14.81424,40.97943],[14.83004,40.97244],[14.83809,40.96982],[14.83815,40.97176],[14.83861,40.97347],[14.83914,40.97516],[14.83933,40.97562],[14.84172,40.98076],[14.8458,40.98863],[14.84625,40.98937],[14.84659,40.98967],[14.84849,40.99134],[14.85027,40.99205],[14.85373,40.99295],[14.85874,40.99447],[14.86181,40.99758],[14.86233,40.99845],[14.86042,41.00219],[14.86409,41.00326],[14.86832,41.0083],[14.86894,41.01024],[14.87428,41.01555],[14.87671,41.01797],[14.88095,41.02296],[14.88273,41.02626],[14.8861,41.02915],[14.88846,41.029],[14.88822,41.03011],[14.88523,41.03238],[14.88359,41.03338],[14.88142,41.0342],[14.88052,41.03839],[14.88086,41.03862],[14.88116,41.03904],[14.88167,41.04142],[14.88159,41.04202],[14.8814,41.04264],[14.88108,41.04324],[14.88059,41.04365],[14.8771,41.04599],[14.87437,41.04709],[14.87231,41.04223],[14.86976,41.04192],[14.86579,41.04164],[14.85991,41.04381],[14.85725,41.04563],[14.84777,41.0477],[14.84759,41.04687],[14.84746,41.04653],[14.84719,41.04584],[14.84686,41.04539],[14.84677,41.04527],[14.84609,41.04485],[14.84317,41.0433],[14.83265,41.03466],[14.82929,41.03506],[14.82626,41.03647],[14.82591,41.03662],[14.82506,41.03699],[14.81712,41.0389],[14.81607,41.03914],[14.8145,41.03951],[14.81139,41.03943],[14.8106,41.03919],[14.8073,41.04057],[14.80627,41.04084],[14.80575,41.04405],[14.80569,41.04464],[14.8058,41.0454],[14.80594,41.04641],[14.80603,41.04657],[14.80652,41.04745],[14.80712,41.04843],[14.80666,41.05456],[14.80659,41.05541],[14.806,41.05881],[14.79681,41.06032],[14.79414,41.05816],[14.79574,41.05768],[14.79604,41.05084],[14.79584,41.05032],[14.79556,41.04991],[14.7945,41.04928],[14.79152,41.04824],[14.79086,41.04831],[14.77755,41.05365],[14.77474,41.05461],[14.77453,41.05382],[14.77425,41.05274],[14.77418,41.05127],[14.77447,41.0446],[14.77514,41.04419],[14.77584,41.04377],[14.77649,41.04266],[14.77652,41.04241],[14.7766,41.0417],[14.77654,41.04083],[14.7744,41.03402],[14.77087,41.02464],[14.77033,41.02323],[14.76886,41.02208],[14.76956,41.01909],[14.77269,41.01706],[14.77575,41.01486],[14.77599,41.01446],[14.7759,41.01435],[14.77574,41.01413],[14.77528,41.01379],[14.77193,41.0119],[14.77081,41.01138],[14.76981,41.01102],[14.76554,41.00992],[14.76379,41.00967],[14.76034,41.00938],[14.7598,41.00802],[14.75869,41.00416],[14.75872,41.00242],[14.76028,41.00111],[14.76331,40.99744],[14.76422,40.99558],[14.76449,40.99374],[14.7645,40.99313],[14.76657,40.99014],[14.77371,40.98747],[14.78186,40.9838],[14.79654,40.97939],[14.80155,40.98031]]]]}},{"type":"Feature","properties":{"name":"fiano-di-avellino","comuni_count":26},"geometry":{"type":"MultiPolygon","coordinates":[[[[14.91522,40.97972],[14.91413,40.98021],[14.90044,40.98177],[14.89323,40.98391],[14.88681,40.98888],[14.88358,40.99054],[14.88083,40.99114],[14.87618,40.99523],[14.87281,41.00106],[14.87143,41.00148],[14.87023,41.00166],[14.86754,41.00155],[14.86658,41.00141],[14.86602,41.00124],[14.86451,41.00069],[14.86392,41.00031],[14.86342,40.99987],[14.86296,40.99934],[14.86265,40.99893],[14.86233,40.99845],[14.86181,40.99758],[14.85874,40.99447],[14.85373,40.99295],[14.85027,40.99205],[14.84849,40.99134],[14.84659,40.98967],[14.84625,40.98937],[14.8458,40.98863],[14.84172,40.98076],[14.83933,40.97562],[14.83914,40.97516],[14.83861,40.97347],[14.83815,40.97176],[14.83809,40.96982],[14.83004,40.97244],[14.81424,40.97943],[14.811,40.97954],[14.81017,40.97955],[14.80484,40.97735],[14.80155,40.98031],[14.79654,40.97939],[14.78186,40.9838],[14.77371,40.98747],[14.76657,40.99014],[14.7645,40.99313],[14.76348,40.9926],[14.74595,40.98505],[14.74088,40.98318],[14.73665,40.983],[14.73448,40.98286],[14.73347,40.98278],[14.7279,40.98117],[14.71558,40.97333],[14.70934,40.96858],[14.69361,40.97514],[14.69081,40.97602],[14.6824,40.96726],[14.68488,40.96393],[14.68926,40.96201],[14.69382,40.95855],[14.70218,40.95477],[14.70841,40.95325],[14.70395,40.94798],[14.70119,40.94545],[14.70013,40.9439],[14.69648,40.93793],[14.6897,40.92726],[14.6896,40.92712],[14.68932,40.92668],[14.68826,40.92518],[14.68491,40.92664],[14.67294,40.92923],[14.66648,40.93173],[14.66131,40.9325],[14.66051,40.93237],[14.65972,40.93223],[14.65906,40.93208],[14.65739,40.93158],[14.65429,40.93024],[14.65406,40.92996],[14.65713,40.92349],[14.66008,40.91973],[14.66452,40.91521],[14.66966,40.90495],[14.67253,40.90087],[14.67931,40.89244],[14.68032,40.89183],[14.68119,40.89113],[14.68203,40.89038],[14.68234,40.89008],[14.68271,40.88963],[14.68306,40.88903],[14.68319,40.88858],[14.68328,40.88805],[14.68326,40.88771],[14.68322,40.88744],[14.68673,40.8876],[14.69289,40.88502],[14.69818,40.88023],[14.70243,40.87544],[14.70454,40.87225],[14.70615,40.86496],[14.70462,40.86293],[14.7034,40.86188],[14.70275,40.86259],[14.70058,40.86],[14.69884,40.85719],[14.70133,40.85469],[14.70218,40.85364],[14.70268,40.85258],[14.70342,40.85076],[14.70359,40.85021],[14.70344,40.84953],[14.70473,40.84394],[14.70684,40.83853],[14.70952,40.83847],[14.71086,40.83844],[14.72303,40.83856],[14.72985,40.84094],[14.73422,40.83952],[14.73583,40.83627],[14.74069,40.83802],[14.76048,40.84433],[14.76419,40.84577],[14.77008,40.84914],[14.7712,40.85151],[14.76942,40.85398],[14.77535,40.85127],[14.7832,40.85587],[14.78729,40.85891],[14.79022,40.86001],[14.80238,40.85928],[14.80945,40.85787],[14.81259,40.85712],[14.81469,40.85856],[14.82066,40.85764],[14.82616,40.86646],[14.82727,40.8671],[14.82757,40.86948],[14.83669,40.87028],[14.84293,40.86903],[14.84604,40.86865],[14.86117,40.86911],[14.86057,40.871],[14.86038,40.87158],[14.86188,40.87129],[14.86285,40.87097],[14.86444,40.87039],[14.86512,40.87009],[14.86796,40.86755],[14.87901,40.86485],[14.89403,40.87301],[14.89617,40.8742],[14.89762,40.875],[14.89931,40.87602],[14.90036,40.87708],[14.9019,40.87641],[14.90312,40.87664],[14.90432,40.87707],[14.90535,40.87746],[14.90651,40.87793],[14.90718,40.87834],[14.90755,40.87885],[14.90813,40.87985],[14.90835,40.88032],[14.90837,40.88045],[14.90853,40.88128],[14.90863,40.88205],[14.90858,40.88251],[14.9082,40.88426],[14.90704,40.88428],[14.90364,40.88474],[14.90282,40.88494],[14.90024,40.88556],[14.89735,40.88666],[14.89812,40.88829],[14.89897,40.88927],[14.90052,40.89009],[14.9043,40.88868],[14.91101,40.88877],[14.92046,40.88918],[14.92253,40.89075],[14.92269,40.89338],[14.9199,40.89523],[14.91741,40.89673],[14.91504,40.89737],[14.91987,40.9043],[14.91763,40.90742],[14.91198,40.91633],[14.91085,40.91758],[14.90608,40.92227],[14.90405,40.92311],[14.90141,40.92441],[14.8994,40.92609],[14.89877,40.93153],[14.89946,40.93608],[14.90056,40.93968],[14.90046,40.94262],[14.89964,40.94392],[14.90103,40.94476],[14.91168,40.95294],[14.91774,40.95785],[14.91839,40.95828],[14.91875,40.95853],[14.92119,40.95961],[14.92456,40.96059],[14.93045,40.95996],[14.93457,40.95905],[14.93759,40.95924],[14.93922,40.96158],[14.94134,40.96593],[14.94294,40.96914],[14.9452,40.9727],[14.94552,40.97313],[14.94593,40.9732],[14.94634,40.97326],[14.9486,40.97307],[14.95157,40.97133],[14.95257,40.97072],[14.95325,40.97018],[14.95413,40.9697],[14.95606,40.96917],[14.95749,40.96897],[14.95804,40.96902],[14.96291,40.97125],[14.96391,40.97175],[14.96539,40.97396],[14.96814,40.9772],[14.96026,40.98812],[14.96164,40.98974],[14.95984,40.99367],[14.95699,40.99723],[14.95333,41.00083],[14.94731,41.00471],[14.94455,41.00069],[14.93198,40.99321],[14.92711,40.99109],[14.92499,40.99044],[14.91975,40.99035],[14.91877,40.99029],[14.91779,40.99007],[14.91748,40.98969],[14.91728,40.98945],[14.91456,40.98571],[14.9148,40.98394],[14.91522,40.97972]]]]}},{"type":"Feature","properties":{"name":"aglianico-del-taburno","comuni_count":13},"geometry":{"type":"MultiPolygon","coordinates":[[[[14.7421,41.09838],[14.74855,41.09911],[14.76137,41.09958],[14.76783,41.09939],[14.77005,41.09811],[14.76934,41.09488],[14.7687,41.0919],[14.76928,41.09167],[14.77105,41.09102],[14.77156,41.09084],[14.77214,41.09065],[14.77249,41.09055],[14.77319,41.09057],[14.77558,41.09088],[14.77648,41.09109],[14.77654,41.0911],[14.77742,41.09146],[14.77785,41.09187],[14.77804,41.09205],[14.77861,41.09274],[14.77861,41.0928],[14.77854,41.09334],[14.77848,41.09359],[14.7784,41.0939],[14.77865,41.09417],[14.77948,41.09456],[14.7832,41.09535],[14.78598,41.09536],[14.78706,41.09535],[14.78849,41.09531],[14.78876,41.09262],[14.79306,41.09138],[14.79573,41.09068],[14.8027,41.09016],[14.8034,41.09024],[14.80353,41.09061],[14.8036,41.09082],[14.80375,41.09196],[14.80332,41.09279],[14.80255,41.0937],[14.80172,41.09454],[14.80112,41.09522],[14.80106,41.09541],[14.80111,41.09563],[14.80175,41.0968],[14.80237,41.09757],[14.80396,41.09903],[14.80878,41.10161],[14.80907,41.10173],[14.81111,41.10182],[14.81139,41.10175],[14.81179,41.10133],[14.81175,41.1003],[14.81415,41.09738],[14.81624,41.09592],[14.81682,41.09556],[14.82718,41.09116],[14.82893,41.09104],[14.8292,41.09122],[14.82939,41.09135],[14.832,41.09497],[14.83308,41.097],[14.83364,41.09839],[14.83299,41.09949],[14.83286,41.09983],[14.83275,41.10028],[14.83273,41.1007],[14.83282,41.10093],[14.83372,41.10289],[14.83391,41.10311],[14.83492,41.1041],[14.83506,41.10419],[14.8488,41.10974],[14.854,41.11133],[14.86447,41.11725],[14.86508,41.11772],[14.86538,41.11799],[14.86628,41.11956],[14.86662,41.12054],[14.86883,41.12687],[14.86883,41.12788],[14.86808,41.12867],[14.86804,41.1287],[14.86724,41.12947],[14.86872,41.13333],[14.86969,41.13437],[14.86945,41.13516],[14.86923,41.13589],[14.86876,41.13739],[14.864,41.1379],[14.86204,41.13959],[14.85957,41.14628],[14.85079,41.14577],[14.84383,41.14693],[14.84263,41.15028],[14.84512,41.15517],[14.84599,41.1567],[14.85491,41.16043],[14.85505,41.16048],[14.85567,41.16076],[14.85587,41.16089],[14.85454,41.16237],[14.85397,41.1629],[14.85309,41.16362],[14.85256,41.164],[14.85246,41.16407],[14.85191,41.16425],[14.85186,41.16425],[14.8505,41.16423],[14.84782,41.16344],[14.84581,41.16322],[14.84462,41.16322],[14.84359,41.16327],[14.84249,41.16354],[14.84157,41.16406],[14.84138,41.16478],[14.8413,41.16606],[14.84127,41.16663],[14.84136,41.17278],[14.83825,41.17684],[14.83274,41.18304],[14.83024,41.18715],[14.82387,41.1889],[14.81846,41.1871],[14.81577,41.18915],[14.81371,41.19319],[14.80776,41.19439],[14.80475,41.19641],[14.79915,41.1982],[14.7957,41.20222],[14.79505,41.20854],[14.79314,41.21293],[14.79056,41.21519],[14.78561,41.21606],[14.77547,41.21876],[14.76779,41.22106],[14.76008,41.22421],[14.75623,41.22599],[14.7553,41.22618],[14.75513,41.22622],[14.75456,41.22623],[14.75141,41.22626],[14.74729,41.22597],[14.74455,41.22554],[14.74334,41.22525],[14.73393,41.22108],[14.73355,41.2209],[14.73317,41.22072],[14.73241,41.22036],[14.73165,41.21991],[14.73055,41.21897],[14.72984,41.21801],[14.7297,41.21729],[14.72879,41.21571],[14.72785,41.21519],[14.72524,41.21376],[14.7246,41.21366],[14.72077,41.22205],[14.71865,41.22682],[14.71809,41.23481],[14.71853,41.23807],[14.71507,41.23764],[14.71222,41.23767],[14.70561,41.23822],[14.6914,41.23671],[14.68858,41.23556],[14.68734,41.23517],[14.68147,41.2353],[14.67088,41.23609],[14.66243,41.2389],[14.65535,41.24048],[14.65473,41.24058],[14.65403,41.24061],[14.6538,41.24062],[14.64973,41.22766],[14.64509,41.21839],[14.64299,41.21904],[14.63985,41.21939],[14.63181,41.2123],[14.62663,41.21167],[14.6229,41.2101],[14.62141,41.20954],[14.61995,41.20956],[14.61864,41.21019],[14.61755,41.2112],[14.61538,41.21406],[14.61475,41.21531],[14.6145,41.21588],[14.61412,41.21673],[14.61411,41.21676],[14.61398,41.21709],[14.61361,41.21802],[14.61331,41.21897],[14.61321,41.2193],[14.61314,41.21954],[14.61283,41.22067],[14.61224,41.2218],[14.61193,41.22204],[14.61127,41.22257],[14.61101,41.22278],[14.61074,41.22298],[14.61006,41.22292],[14.60918,41.22271],[14.60892,41.22264],[14.6082,41.22244],[14.60719,41.22213],[14.60446,41.2155],[14.60366,41.21422],[14.60296,41.21317],[14.60216,41.21203],[14.60105,41.21095],[14.6009,41.2108],[14.59779,41.20845],[14.59745,41.20824],[14.59828,41.20473],[14.59849,41.20328],[14.59862,41.20212],[14.59857,41.20116],[14.59717,41.19565],[14.59683,41.19448],[14.59634,41.19398],[14.59534,41.19404],[14.59404,41.1939],[14.59245,41.1926],[14.59208,41.1923],[14.59162,41.19177],[14.59125,41.1911],[14.59133,41.19013],[14.59259,41.18416],[14.58961,41.17817],[14.57762,41.17574],[14.56954,41.17273],[14.56647,41.16664],[14.56481,41.16417],[14.56304,41.15765],[14.56322,41.15513],[14.5643,41.15284],[14.57056,41.15145],[14.57214,41.15119],[14.57393,41.15094],[14.57499,41.15122],[14.57652,41.15168],[14.57717,41.15174],[14.57822,41.15169],[14.57881,41.15146],[14.57877,41.15122],[14.57813,41.14868],[14.57678,41.14449],[14.57654,41.14411],[14.57596,41.14231],[14.57579,41.14202],[14.57574,41.14192],[14.57479,41.14252],[14.57449,41.14271],[14.57221,41.14422],[14.5664,41.14037],[14.56586,41.13899],[14.56464,41.13828],[14.56296,41.13859],[14.55923,41.13951],[14.55835,41.13539],[14.55844,41.13431],[14.55884,41.13326],[14.55921,41.1325],[14.56164,41.13095],[14.56331,41.13073],[14.56493,41.13037],[14.56499,41.13035],[14.567,41.12908],[14.56755,41.12872],[14.56802,41.12841],[14.57131,41.1262],[14.57382,41.12446],[14.5741,41.12414],[14.57571,41.12168],[14.57827,41.11512],[14.57764,41.11402],[14.57475,41.11058],[14.57428,41.1102],[14.57405,41.11001],[14.57571,41.10861],[14.57578,41.10624],[14.57476,41.10462],[14.58173,41.09947],[14.58913,41.09762],[14.59954,41.09747],[14.5995,41.09637],[14.59723,41.09103],[14.59633,41.08304],[14.59683,41.08165],[14.59579,41.07838],[14.59544,41.07745],[14.59228,41.07357],[14.59138,41.07251],[14.59265,41.07062],[14.59637,41.06531],[14.59687,41.06481],[14.59711,41.06429],[14.59734,41.06354],[14.59758,41.06202],[14.59754,41.06118],[14.59741,41.06054],[14.59738,41.06043],[14.59736,41.06031],[14.5969,41.05927],[14.59664,41.05883],[14.60127,41.05794],[14.60177,41.05749],[14.60203,41.05725],[14.60258,41.05648],[14.60314,41.05561],[14.60326,41.05515],[14.60343,41.05452],[14.60418,41.05161],[14.60433,41.05128],[14.60442,41.05106],[14.60445,41.05099],[14.60498,41.05115],[14.60566,41.05134],[14.61081,41.05283],[14.6172,41.05054],[14.61886,41.04914],[14.62939,41.0469],[14.63747,41.04506],[14.63792,41.04492],[14.63839,41.0447],[14.63883,41.04418],[14.64015,41.04254],[14.64262,41.04306],[14.64433,41.04357],[14.64991,41.04559],[14.65962,41.0503],[14.65972,41.05113],[14.65985,41.05144],[14.66023,41.0524],[14.66141,41.05452],[14.66214,41.05564],[14.66228,41.05573],[14.66298,41.05616],[14.66327,41.05633],[14.66424,41.05679],[14.66644,41.05773],[14.66665,41.05781],[14.66724,41.05803],[14.66868,41.05796],[14.6699,41.05748],[14.67173,41.05649],[14.67658,41.05478],[14.68138,41.05473],[14.69024,41.05491],[14.69188,41.05515],[14.69359,41.05539],[14.69463,41.05552],[14.69562,41.05563],[14.69601,41.05567],[14.69732,41.05566],[14.69905,41.0556],[14.69985,41.05555],[14.70012,41.05554],[14.70138,41.05543],[14.70582,41.05901],[14.709,41.06143],[14.70911,41.06345],[14.71003,41.06774],[14.71088,41.07096],[14.71481,41.07869],[14.71516,41.07898],[14.71582,41.07952],[14.71643,41.08003],[14.71962,41.08077],[14.72152,41.08114],[14.7372,41.08362],[14.74082,41.08349],[14.74114,41.08356],[14.74118,41.08357],[14.74134,41.08364],[14.74154,41.08373],[14.74187,41.08402],[14.74266,41.08485],[14.74337,41.0861],[14.74369,41.08763],[14.74379,41.08833],[14.74387,41.08906],[14.74391,41.0894],[14.74371,41.09063],[14.7421,41.09838]]]]}},{"type":"Feature","properties":{"name":"vesuvio","comuni_count":16},"geometry":{"type":"MultiPolygon","coordinates":[[[[14.41819,40.75203],[14.4089,40.75423],[14.40027,40.75763],[14.39327,40.76155],[14.38791,40.76718],[14.3846,40.77018],[14.36756,40.78241],[14.35979,40.788],[14.35698,40.79146],[14.35582,40.79143],[14.35372,40.79152],[14.35185,40.79264],[14.35139,40.79368],[14.34964,40.7955],[14.34817,40.79701],[14.34559,40.79955],[14.34324,40.80158],[14.34056,40.80372],[14.33985,40.80414],[14.33842,40.80442],[14.33793,40.80458],[14.33702,40.80496],[14.33556,40.80588],[14.33518,40.80625],[14.33355,40.80899],[14.33352,40.80941],[14.33509,40.80872],[14.33539,40.80861],[14.33549,40.8086],[14.33567,40.80863],[14.33591,40.809],[14.33592,40.80902],[14.33594,40.80906],[14.33594,40.80923],[14.33593,40.80926],[14.3359,40.80941],[14.33559,40.80997],[14.33554,40.81005],[14.3321,40.81373],[14.32939,40.81585],[14.3268,40.81766],[14.32419,40.81943],[14.32232,40.82056],[14.32033,40.82076],[14.3232,40.82313],[14.3266,40.82467],[14.32834,40.82539],[14.33055,40.82571],[14.33224,40.82572],[14.33445,40.82543],[14.34963,40.82758],[14.35098,40.82804],[14.35179,40.83001],[14.35022,40.8306],[14.35007,40.83093],[14.34956,40.8325],[14.34948,40.83277],[14.34946,40.83293],[14.35522,40.83704],[14.35615,40.83833],[14.34708,40.84719],[14.34908,40.84798],[14.34888,40.84969],[14.35328,40.85743],[14.35319,40.85818],[14.3517,40.8609],[14.35035,40.86322],[14.34975,40.86414],[14.34842,40.86547],[14.3479,40.86598],[14.34647,40.86689],[14.34743,40.86808],[14.34943,40.8695],[14.35592,40.87398],[14.35603,40.87405],[14.3565,40.87429],[14.35685,40.87447],[14.35794,40.87497],[14.35948,40.87565],[14.36262,40.87694],[14.35819,40.88622],[14.36543,40.88594],[14.36491,40.89285],[14.36883,40.89453],[14.37887,40.89816],[14.37883,40.89811],[14.38067,40.89321],[14.38507,40.89414],[14.38548,40.89784],[14.39865,40.8958],[14.40847,40.89551],[14.41347,40.89349],[14.41491,40.89823],[14.41686,40.89643],[14.4172,40.89624],[14.41759,40.89604],[14.41889,40.89787],[14.41895,40.89906],[14.41905,40.90106],[14.42217,40.90311],[14.423,40.90309],[14.42527,40.90403],[14.42555,40.90669],[14.42603,40.90961],[14.42665,40.91062],[14.42953,40.90998],[14.42948,40.90968],[14.42892,40.90746],[14.42891,40.9074],[14.42891,40.90729],[14.42907,40.90639],[14.43034,40.90624],[14.43179,40.90672],[14.43536,40.90628],[14.44332,40.90374],[14.4494,40.90145],[14.45665,40.90036],[14.45894,40.90159],[14.46085,40.90148],[14.46179,40.90137],[14.46553,40.89955],[14.47294,40.8854],[14.47333,40.88331],[14.47346,40.88305],[14.47367,40.8826],[14.47425,40.88164],[14.47481,40.8812],[14.47573,40.88078],[14.4763,40.88056],[14.48598,40.87689],[14.48815,40.87623],[14.48752,40.87528],[14.48233,40.87345],[14.47859,40.86966],[14.47538,40.86449],[14.4762,40.86375],[14.48107,40.8653],[14.4851,40.86637],[14.48943,40.86642],[14.49105,40.86619],[14.4925,40.86566],[14.49423,40.86448],[14.49845,40.86221],[14.5055,40.85897],[14.50656,40.85858],[14.50667,40.85854],[14.51036,40.85737],[14.51105,40.8575],[14.5115,40.85763],[14.51161,40.85766],[14.51213,40.85783],[14.51247,40.85794],[14.51417,40.85783],[14.52737,40.84675],[14.52951,40.84438],[14.52985,40.84325],[14.53,40.84251],[14.5301,40.84178],[14.53031,40.83724],[14.53201,40.8319],[14.5319,40.83168],[14.53214,40.82999],[14.53181,40.8271],[14.53147,40.82478],[14.53036,40.82023],[14.52997,40.81882],[14.52969,40.81788],[14.52958,40.81754],[14.5319,40.80881],[14.53181,40.80848],[14.53169,40.80817],[14.53161,40.80799],[14.53112,40.80685],[14.53106,40.80672],[14.53056,40.80584],[14.53046,40.80571],[14.5301,40.80521],[14.52986,40.80514],[14.52896,40.80486],[14.52848,40.80488],[14.52744,40.80492],[14.52469,40.80538],[14.52439,40.80549],[14.5207,40.79886],[14.52228,40.79795],[14.52238,40.79789],[14.52247,40.79783],[14.52265,40.79773],[14.52646,40.79502],[14.52725,40.79439],[14.52797,40.79369],[14.52804,40.79363],[14.52805,40.79349],[14.52811,40.79275],[14.53713,40.7907],[14.54819,40.79016],[14.5508,40.78947],[14.55052,40.78894],[14.54862,40.78533],[14.54815,40.78442],[14.54485,40.77815],[14.54408,40.7784],[14.54401,40.77842],[14.53526,40.77911],[14.52208,40.77779],[14.51745,40.77639],[14.50702,40.77297],[14.50684,40.77073],[14.50727,40.76925],[14.50184,40.76994],[14.49523,40.76961],[14.49487,40.76954],[14.49426,40.76937],[14.49362,40.76918],[14.49356,40.76917],[14.49308,40.76902],[14.49304,40.769],[14.49194,40.76862],[14.49117,40.76835],[14.49044,40.76809],[14.48767,40.76706],[14.48607,40.76631],[14.48347,40.76506],[14.48291,40.7647],[14.48229,40.7643],[14.4821,40.76418],[14.48111,40.76316],[14.48095,40.76299],[14.47655,40.75882],[14.4734,40.75648],[14.47408,40.75575],[14.4745,40.75494],[14.47454,40.75486],[14.4746,40.75476],[14.47576,40.75209],[14.47833,40.74404],[14.47921,40.7418],[14.47712,40.73813],[14.47672,40.73084],[14.47654,40.73052],[14.47641,40.7303],[14.47632,40.73019],[14.47577,40.72959],[14.47522,40.72916],[14.47518,40.72913],[14.47261,40.72887],[14.47256,40.72887],[14.47121,40.72884],[14.47052,40.72884],[14.46766,40.73349],[14.46596,40.7363],[14.46361,40.73936],[14.46178,40.7417],[14.46147,40.74205],[14.46109,40.74248],[14.46097,40.74261],[14.45919,40.74447],[14.44864,40.75291],[14.44311,40.752],[14.43134,40.75312],[14.42551,40.75142],[14.41819,40.75203]],[[14.39327,40.89177],[14.39261,40.89227],[14.39254,40.89233],[14.39249,40.89237],[14.39208,40.89227],[14.38864,40.88917],[14.3886,40.88909],[14.38854,40.88896],[14.38848,40.88883],[14.38893,40.88787],[14.38955,40.88701],[14.39036,40.88703],[14.39084,40.88704],[14.39258,40.88722],[14.39492,40.88749],[14.39493,40.88801],[14.39491,40.88806],[14.39476,40.88868],[14.39431,40.88984],[14.39429,40.88988],[14.39388,40.89099],[14.39372,40.89136],[14.39371,40.8914],[14.39327,40.89177]]],[[[14.46414,40.7294],[14.46379,40.72898],[14.4637,40.72889],[14.4636,40.72884],[14.46321,40.729],[14.46269,40.72933],[14.46259,40.7294],[14.46258,40.72944],[14.46299,40.72984],[14.46389,40.72986],[14.46407,40.72977],[14.46425,40.72966],[14.46424,40.72952],[14.46414,40.7294]]],[[[14.49801,40.86512],[14.4978,40.86469],[14.49747,40.86402],[14.49598,40.86416],[14.49664,40.86596],[14.49672,40.86616],[14.49833,40.86576],[14.49821,40.8655],[14.49801,40.86512]]],[[[14.49633,40.87307],[14.49524,40.8734],[14.49594,40.87484],[14.49713,40.87452],[14.49633,40.87307]]]]}}]}
