{"type":"Feature","properties":{"reg_name":"Emilia-Romagna","slug":"emilia-romagna","_provenance":{"authority":"ISTAT (openpolis/geojson-italy limits_IT_regions)","licence":"CC BY 4.0","method":"mapshaper 6% simplify, interior rings dropped, 5dp"}},"geometry":{"type":"MultiPolygon","coordinates":[[[[9.33258,44.73504],[9.30848,44.70563],[9.32464,44.69002],[9.29851,44.68102],[9.25759,44.68122],[9.24048,44.68831],[9.19939,44.6786],[9.20042,44.61533],[9.2455,44.61965],[9.27223,44.59592],[9.30041,44.60778],[9.34015,44.57867],[9.38937,44.59022],[9.42131,44.5926],[9.42308,44.57461],[9.4407,44.56672],[9.47654,44.5652],[9.50461,44.52996],[9.4968,44.48273],[9.47024,44.47327],[9.4582,44.4422],[9.47903,44.40926],[9.4939,44.4239],[9.55123,44.42808],[9.55918,44.43814],[9.59817,44.43674],[9.63604,44.4139],[9.65529,44.41166],[9.67498,44.36471],[9.7169,44.38317],[9.73207,44.37938],[9.82772,44.46828],[9.92205,44.47229],[9.97071,44.46444],[9.98067,44.44504],[10.00694,44.43173],[9.98928,44.40433],[10.0217,44.38293],[10.05318,44.37303],[10.09899,44.34617],[10.14203,44.35387],[10.16791,44.32991],[10.22918,44.29673],[10.25386,44.26858],[10.29662,44.28546],[10.34276,44.26963],[10.37159,44.26938],[10.4074,44.24931],[10.43026,44.22743],[10.46494,44.23114],[10.4929,44.217],[10.48521,44.2045],[10.52294,44.17484],[10.53226,44.15504],[10.57751,44.1319],[10.5931,44.11542],[10.62406,44.12037],[10.62375,44.14121],[10.64121,44.15984],[10.66168,44.15385],[10.74393,44.15624],[10.84866,44.09806],[10.87871,44.09862],[10.9028,44.08609],[10.89914,44.06648],[10.91825,44.06301],[10.99496,44.1308],[11.00201,44.11089],[11.02911,44.09581],[11.09322,44.09446],[11.12764,44.10968],[11.1592,44.11242],[11.21458,44.09888],[11.24804,44.09757],[11.26023,44.11584],[11.21836,44.1294],[11.19585,44.14354],[11.23464,44.15841],[11.28071,44.15534],[11.32262,44.18224],[11.34281,44.20582],[11.38055,44.2],[11.39833,44.22268],[11.42611,44.23505],[11.4513,44.22057],[11.44763,44.19949],[11.48016,44.18379],[11.50598,44.16347],[11.54482,44.15261],[11.55245,44.16534],[11.61536,44.15825],[11.61776,44.14623],[11.59729,44.12515],[11.65382,44.10254],[11.67802,44.12218],[11.7203,44.12071],[11.74418,44.12607],[11.74888,44.10414],[11.70943,44.0666],[11.69491,44.03534],[11.64564,43.98938],[11.65493,43.9747],[11.68879,43.95902],[11.68238,43.93827],[11.71703,43.92182],[11.71017,43.87745],[11.73248,43.86317],[11.78446,43.84758],[11.82455,43.81549],[11.85606,43.8159],[11.89643,43.80778],[11.91879,43.79369],[11.94706,43.79087],[11.95338,43.77609],[11.98651,43.76193],[12.00639,43.76652],[12.053,43.75697],[12.07706,43.74065],[12.10855,43.75306],[12.12358,43.74915],[12.16405,43.76226],[12.19463,43.73192],[12.20931,43.75707],[12.28276,43.76628],[12.28485,43.79479],[12.31589,43.80564],[12.34979,43.7996],[12.39854,43.82636],[12.39095,43.845],[12.40061,43.87277],[12.44569,43.87081],[12.46239,43.89377],[12.44369,43.90498],[12.41768,43.89905],[12.41472,43.92875],[12.40361,43.95108],[12.43687,43.95662],[12.45295,43.96939],[12.50947,43.9912],[12.50656,43.97093],[12.51567,43.94153],[12.49442,43.9208],[12.48742,43.88551],[12.49934,43.8736],[12.54169,43.86403],[12.5844,43.8841],[12.60256,43.86343],[12.601,43.85051],[12.62327,43.82115],[12.68132,43.82807],[12.6823,43.8528],[12.72363,43.86124],[12.73483,43.89602],[12.72791,43.92418],[12.75564,43.96195],[12.71371,43.97433],[12.6557,44.00817],[12.62054,44.03497],[12.57547,44.07851],[12.5609,44.07636],[12.51476,44.10629],[12.42975,44.17885],[12.38352,44.22449],[12.3514,44.28643],[12.32988,44.34623],[12.31654,44.40291],[12.29212,44.45427],[12.27959,44.52162],[12.28178,44.59373],[12.2752,44.61959],[12.2411,44.68669],[12.24831,44.76277],[12.27247,44.80026],[12.25893,44.81563],[12.28478,44.84073],[12.3086,44.84231],[12.35328,44.81703],[12.33632,44.85224],[12.30384,44.85539],[12.28665,44.87031],[12.28219,44.91151],[12.29475,44.92537],[12.28087,44.94177],[12.25618,44.94253],[12.22497,44.92298],[12.19417,44.92535],[12.16914,44.94209],[12.14242,44.9279],[12.11618,44.95767],[12.09156,44.97021],[12.05689,44.9706],[11.96268,44.98683],[11.92638,44.97479],[11.89956,44.9778],[11.83832,44.97279],[11.80472,44.97696],[11.78383,44.96419],[11.74704,44.9581],[11.74475,44.93713],[11.67284,44.91517],[11.62481,44.88922],[11.59208,44.89204],[11.58643,44.91134],[11.53413,44.93625],[11.4696,44.93637],[11.43408,44.9294],[11.42631,44.9521],[11.37819,44.95793],[11.35716,44.95008],[11.30158,44.96236],[11.26669,44.94399],[11.24143,44.94592],[11.14867,44.93423],[11.12433,44.95137],[11.07303,44.96261],[11.05957,44.94925],[10.99401,44.95386],[10.94137,44.92191],[10.87663,44.91706],[10.81975,44.93672],[10.74372,44.94908],[10.73867,44.98574],[10.68668,44.98659],[10.66388,44.96859],[10.63051,44.92892],[10.59883,44.91474],[10.56607,44.90847],[10.51985,44.91273],[10.50432,44.92243],[10.43184,44.94707],[10.41677,44.97765],[10.38337,44.97911],[10.36529,44.9661],[10.27447,44.99793],[10.26003,45.01423],[10.21107,45.03403],[10.19396,45.02816],[10.15772,45.04408],[10.10619,45.02213],[10.05735,45.04145],[10.04351,45.06308],[10.02132,45.07718],[10.02923,45.0949],[9.99273,45.12976],[9.97834,45.13374],[9.93647,45.10482],[9.91551,45.13899],[9.88103,45.127],[9.87939,45.11185],[9.90063,45.09544],[9.88284,45.07451],[9.86344,45.09247],[9.844,45.09681],[9.83551,45.07188],[9.77896,45.08958],[9.7531,45.0866],[9.73006,45.06358],[9.71254,45.05877],[9.65954,45.08209],[9.63142,45.0878],[9.63831,45.1243],[9.61841,45.13302],[9.60188,45.10414],[9.53744,45.11488],[9.55061,45.09523],[9.53203,45.07843],[9.50147,45.10357],[9.43901,45.09345],[9.37082,45.04815],[9.3662,45.00361],[9.34746,44.99741],[9.31453,44.93682],[9.28761,44.93424],[9.29011,44.88221],[9.34168,44.86981],[9.35842,44.81495],[9.32987,44.79999],[9.31676,44.78395],[9.28697,44.7725],[9.2859,44.75943],[9.33258,44.73504]]]]}}