{"type":"FeatureCollection","_provenance":{"authority":"ISTAT (comune geometry, openpolis/geojson-italy) / MASAF disciplinari (comune membership)","licence":"CC BY 4.0","method":"comune-union: ISTAT comuni dissolved per disciplinare comune lists (comune-level approximation; interior rings dropped, 5dp). Partial-territory comuni are included whole.","reviewed_at":"2026-09-07"},"features":[{"type":"Feature","properties":{"name":"romagna-albana","comuni_count":22},"geometry":{"type":"MultiPolygon","coordinates":[[[[11.98557,44.1599],[11.98588,44.15915],[11.98618,44.15843],[11.98627,44.15826],[11.98671,44.15738],[11.98689,44.15702],[11.9882,44.15652],[11.98946,44.15621],[11.99356,44.15592],[12.00251,44.15299],[12.00124,44.15002],[12.00096,44.14522],[12.00595,44.14068],[12.00414,44.13205],[11.99982,44.12972],[12.00026,44.12692],[11.99706,44.1225],[11.99711,44.12223],[11.99718,44.1218],[11.99757,44.11975],[11.99774,44.11913],[11.99801,44.11834],[11.99805,44.11821],[11.99821,44.11799],[11.99873,44.11726],[11.99889,44.11705],[11.99925,44.1166],[11.9997,44.11628],[12.00011,44.116],[12.00096,44.11542],[12.00168,44.11499],[12.00186,44.11493],[12.00241,44.11473],[12.00451,44.11399],[12.00715,44.11298],[12.01101,44.11101],[12.01165,44.11063],[12.01184,44.11043],[12.01207,44.11017],[12.01236,44.10955],[12.01241,44.10932],[12.0125,44.10892],[12.0125,44.10809],[12.01228,44.10733],[12.01203,44.10675],[12.01,44.10277],[12.00296,44.08977],[11.99868,44.08507],[11.99658,44.08281],[11.99719,44.07984],[12.00047,44.07686],[12.00622,44.0736],[12.01323,44.07315],[12.01798,44.07255],[12.02409,44.0713],[12.02437,44.06797],[12.02788,44.06498],[12.0439,44.06136],[12.05244,44.06007],[12.05348,44.061],[12.05848,44.06627],[12.05906,44.06691],[12.05797,44.06811],[12.06889,44.06833],[12.08194,44.06786],[12.0858,44.07052],[12.0905,44.0677],[12.0857,44.06152],[12.08744,44.05656],[12.09118,44.04675],[12.09245,44.03936],[12.09238,44.03907],[12.09237,44.03885],[12.09237,44.03842],[12.09248,44.03804],[12.09262,44.03755],[12.09307,44.03682],[12.09533,44.03489],[12.09612,44.03452],[12.09957,44.03425],[12.09455,44.02422],[12.09897,44.02071],[12.1039,44.02094],[12.11688,44.02265],[12.12059,44.02849],[12.12831,44.02847],[12.13295,44.02789],[12.14791,44.02963],[12.14949,44.03153],[12.14997,44.03205],[12.15239,44.03398],[12.15613,44.03616],[12.15833,44.03536],[12.1621,44.03763],[12.16532,44.04291],[12.16788,44.04611],[12.17899,44.0525],[12.18416,44.0519],[12.18466,44.05172],[12.18553,44.05139],[12.18592,44.05124],[12.18606,44.05118],[12.18836,44.04784],[12.18814,44.03879],[12.19299,44.03422],[12.19373,44.03409],[12.19512,44.0335],[12.1958,44.03312],[12.19733,44.03215],[12.19805,44.03143],[12.19898,44.03021],[12.19963,44.02894],[12.19827,44.02834],[12.19447,44.02284],[12.19425,44.02214],[12.19416,44.02156],[12.19441,44.02116],[12.19696,44.01892],[12.19773,44.01843],[12.19787,44.01838],[12.19837,44.01818],[12.19921,44.0181],[12.20074,44.018],[12.20823,44.0181],[12.21899,44.01529],[12.23412,44.01397],[12.24285,44.01052],[12.24415,44.0097],[12.24421,44.00968],[12.24515,44.00935],[12.25055,44.00956],[12.25334,44.00994],[12.25733,44.01385],[12.26864,44.02323],[12.27959,44.03151],[12.28249,44.03005],[12.29147,44.02417],[12.3016,44.02095],[12.30397,44.02078],[12.30757,44.0219],[12.30828,44.02214],[12.30893,44.02265],[12.30953,44.02315],[12.31387,44.02717],[12.32419,44.03098],[12.32697,44.0322],[12.33058,44.03455],[12.33959,44.04141],[12.35523,44.05268],[12.35811,44.05432],[12.35906,44.05423],[12.36189,44.05629],[12.36394,44.058],[12.36955,44.06507],[12.37047,44.06603],[12.3747,44.06661],[12.38041,44.06539],[12.38223,44.06479],[12.38376,44.06436],[12.38608,44.06405],[12.38731,44.06388],[12.38879,44.06377],[12.39212,44.0638],[12.39542,44.06475],[12.40051,44.06631],[12.40231,44.06894],[12.40349,44.07148],[12.40616,44.07462],[12.40779,44.07654],[12.4079,44.07666],[12.40803,44.07682],[12.40839,44.07703],[12.40863,44.07717],[12.41278,44.07921],[12.41671,44.08083],[12.42226,44.08514],[12.42531,44.0885],[12.42481,44.09097],[12.42351,44.09417],[12.41816,44.09806],[12.41395,44.09991],[12.411,44.09913],[12.406,44.10594],[12.40579,44.10645],[12.4057,44.10675],[12.40559,44.10736],[12.40564,44.10876],[12.40747,44.11211],[12.41227,44.12062],[12.41633,44.12753],[12.42341,44.14047],[12.42667,44.14644],[12.43005,44.15219],[12.4371,44.1594],[12.44401,44.1661],[12.44515,44.16696],[12.44295,44.16856],[12.44019,44.16703],[12.43227,44.16501],[12.41149,44.14801],[12.40823,44.14406],[12.406,44.13972],[12.40493,44.1365],[12.40165,44.12528],[12.39851,44.11849],[12.39195,44.10634],[12.38257,44.10207],[12.37337,44.10014],[12.37038,44.10423],[12.37015,44.10428],[12.36849,44.10465],[12.36534,44.1055],[12.35765,44.1076],[12.3518,44.10922],[12.34658,44.10939],[12.342,44.10738],[12.33605,44.10427],[12.33525,44.10452],[12.33521,44.10453],[12.3349,44.10463],[12.33478,44.10466],[12.33434,44.10482],[12.33373,44.10503],[12.33348,44.10512],[12.33297,44.1053],[12.33148,44.1061],[12.33151,44.10621],[12.33188,44.10755],[12.33256,44.11004],[12.33177,44.11078],[12.32551,44.11305],[12.32234,44.11643],[12.32321,44.11824],[12.32392,44.11969],[12.32583,44.1231],[12.32628,44.12353],[12.33302,44.12578],[12.34974,44.13137],[12.36218,44.13294],[12.36213,44.1384],[12.36204,44.14642],[12.36184,44.14801],[12.35015,44.14747],[12.34414,44.14603],[12.33977,44.14494],[12.33967,44.14489],[12.33951,44.14487],[12.3373,44.14482],[12.33666,44.14482],[12.33577,44.14674],[12.33608,44.14723],[12.33733,44.14841],[12.33809,44.14901],[12.33818,44.14905],[12.33825,44.14908],[12.34238,44.15064],[12.34711,44.15229],[12.34684,44.15651],[12.34146,44.15596],[12.33648,44.15587],[12.33518,44.15666],[12.33338,44.17365],[12.3332,44.17537],[12.33311,44.17629],[12.33305,44.17685],[12.33292,44.1782],[12.33298,44.1788],[12.33394,44.17933],[12.33481,44.17926],[12.33865,44.18138],[12.34069,44.18276],[12.34245,44.18472],[12.34305,44.18539],[12.3437,44.18733],[12.34364,44.18937],[12.34665,44.19057],[12.34934,44.19073],[12.30695,44.21676],[12.28743,44.22875],[12.28551,44.22994],[12.28366,44.23109],[12.28088,44.2328],[12.28045,44.23306],[12.28024,44.23319],[12.25628,44.23134],[12.24713,44.2308],[12.24637,44.22998],[12.23939,44.22093],[12.23761,44.21754],[12.23211,44.21664],[12.23113,44.21665],[12.23008,44.21672],[12.22992,44.21707],[12.22986,44.21721],[12.22926,44.21711],[12.22883,44.21703],[12.2283,44.21692],[12.22765,44.2166],[12.22724,44.2163],[12.2267,44.21586],[12.22662,44.21579],[12.22646,44.21557],[12.22614,44.215],[12.22616,44.21467],[12.22625,44.21412],[12.22627,44.21398],[12.22644,44.21357],[12.21593,44.21701],[12.21594,44.2177],[12.21592,44.2191],[12.2159,44.22],[12.21588,44.22062],[12.21579,44.22063],[12.21396,44.22078],[12.21315,44.22084],[12.21184,44.21983],[12.21143,44.21951],[12.21063,44.21941],[12.20991,44.21942],[12.20754,44.22034],[12.20727,44.22047],[12.20095,44.22817],[12.20083,44.23012],[12.20456,44.23296],[12.20797,44.23563],[12.20921,44.23678],[12.20969,44.2375],[12.20998,44.23802],[12.21108,44.24901],[12.20952,44.25402],[12.20897,44.2553],[12.20882,44.25561],[12.20508,44.25614],[12.20443,44.25614],[12.19591,44.25502],[12.19006,44.25345],[12.18541,44.25177],[12.17701,44.2464],[12.17654,44.24511],[12.17589,44.24335],[12.17557,44.24253],[12.17482,44.24265],[12.17403,44.24279],[12.17103,44.24335],[12.16811,44.24562],[12.16634,44.24769],[12.15344,44.25247],[12.14092,44.25659],[12.12624,44.26261],[12.11366,44.26767],[12.11141,44.26858],[12.10325,44.27198],[12.10324,44.27215],[12.10328,44.27265],[12.10347,44.27478],[12.1037,44.27567],[12.10456,44.27736],[12.1059,44.28009],[12.10598,44.28031],[12.10663,44.28222],[12.10705,44.28375],[12.10797,44.28842],[12.09678,44.2961],[12.09581,44.29657],[12.09442,44.29721],[12.08694,44.30052],[12.08543,44.30052],[12.08391,44.30048],[12.08255,44.30035],[12.07722,44.29931],[12.07674,44.29917],[12.07618,44.29874],[12.07364,44.29909],[12.07274,44.29922],[12.07068,44.29977],[12.06859,44.30033],[12.0611,44.30307],[12.0499,44.31153],[12.04728,44.31681],[12.0483,44.32047],[12.04206,44.32843],[12.03559,44.33081],[12.02918,44.32811],[12.02601,44.33041],[12.02057,44.33476],[12.01742,44.33749],[12.01713,44.3398],[12.01688,44.34325],[12.01858,44.34428],[12.02016,44.3452],[12.02504,44.34818],[12.02629,44.34908],[12.02756,44.35011],[12.02888,44.35122],[12.03051,44.35279],[12.03061,44.35297],[12.02998,44.35344],[12.02494,44.35651],[12.02154,44.35593],[12.01909,44.35545],[12.01621,44.35405],[12.01477,44.35286],[12.0146,44.35228],[12.01434,44.35149],[12.01197,44.3526],[12.00594,44.35627],[12.00552,44.35653],[12.00522,44.35672],[12.00518,44.35675],[12.00231,44.36225],[11.99928,44.3669],[11.99461,44.37276],[11.99397,44.37338],[11.99014,44.37632],[11.98769,44.37799],[11.98379,44.37784],[11.98348,44.37672],[11.98332,44.37624],[11.98295,44.3758],[11.98247,44.3753],[11.97788,44.37068],[11.96795,44.37038],[11.96366,44.37069],[11.95803,44.37458],[11.94915,44.37815],[11.93948,44.37929],[11.92856,44.37379],[11.92656,44.37471],[11.92623,44.3748],[11.92569,44.37459],[11.92198,44.36999],[11.91988,44.36723],[11.90948,44.35352],[11.90743,44.35081],[11.90626,44.34896],[11.90406,44.34605],[11.90276,44.3444],[11.88192,44.35269],[11.87537,44.3553],[11.87053,44.35386],[11.86997,44.35358],[11.86936,44.35306],[11.86883,44.35257],[11.86866,44.3523],[11.86716,44.34974],[11.85933,44.33705],[11.8545,44.33028],[11.84929,44.3276],[11.8481,44.32555],[11.84446,44.32532],[11.84252,44.32605],[11.83942,44.32837],[11.82431,44.33891],[11.82144,44.3402],[11.81939,44.34111],[11.80686,44.34598],[11.80152,44.34805],[11.79763,44.3526],[11.79879,44.36078],[11.79377,44.36471],[11.79454,44.36657],[11.79879,44.36695],[11.80068,44.36908],[11.80142,44.37324],[11.80641,44.37792],[11.80928,44.38102],[11.80994,44.38322],[11.80539,44.38337],[11.79274,44.3877],[11.76081,44.40016],[11.75522,44.40248],[11.75814,44.40648],[11.766,44.41671],[11.78094,44.43612],[11.78134,44.43627],[11.7826,44.43816],[11.79052,44.44909],[11.79437,44.45432],[11.79773,44.45898],[11.79824,44.45969],[11.79837,44.45987],[11.79891,44.46077],[11.79887,44.46078],[11.79865,44.46088],[11.79823,44.46107],[11.79764,44.46133],[11.79257,44.46305],[11.79094,44.46295],[11.78649,44.46476],[11.78107,44.46699],[11.78065,44.46759],[11.78167,44.47074],[11.78186,44.47095],[11.78236,44.47154],[11.78411,44.47355],[11.78758,44.47745],[11.78968,44.47973],[11.79001,44.48008],[11.79069,44.48072],[11.79092,44.48092],[11.79289,44.48259],[11.79528,44.48456],[11.79022,44.4874],[11.7798,44.49072],[11.77189,44.49308],[11.7638,44.4947],[11.7618,44.4951],[11.75938,44.49559],[11.75174,44.49714],[11.75115,44.49727],[11.75019,44.49747],[11.74977,44.49757],[11.75587,44.50386],[11.76311,44.51036],[11.77499,44.50516],[11.77869,44.50352],[11.77913,44.50818],[11.78061,44.52256],[11.78081,44.52329],[11.78486,44.53874],[11.7862,44.54363],[11.78913,44.55433],[11.78919,44.55434],[11.79168,44.56348],[11.78956,44.5658],[11.78415,44.56828],[11.78123,44.56852],[11.78097,44.56854],[11.78082,44.56855],[11.7807,44.56856],[11.78061,44.56856],[11.77418,44.56632],[11.77347,44.56393],[11.77358,44.5637],[11.77519,44.56276],[11.77429,44.56009],[11.77353,44.55798],[11.77206,44.55412],[11.77112,44.55165],[11.77029,44.54946],[11.77019,44.54917],[11.77015,44.54907],[11.76931,44.54674],[11.76887,44.54548],[11.76782,44.54233],[11.76482,44.53284],[11.76463,44.53219],[11.76453,44.53187],[11.76446,44.5316],[11.76447,44.53131],[11.76473,44.52962],[11.76494,44.52802],[11.76529,44.52406],[11.7653,44.52352],[11.7653,44.52335],[11.76529,44.52325],[11.76527,44.52295],[11.76425,44.51955],[11.76162,44.51474],[11.76131,44.51423],[11.76115,44.51402],[11.75923,44.51171],[11.75913,44.51161],[11.74921,44.50214],[11.74069,44.4953],[11.73566,44.49179],[11.73393,44.49031],[11.73377,44.49018],[11.73352,44.48991],[11.73334,44.48968],[11.7332,44.48947],[11.73315,44.48936],[11.7323,44.4867],[11.73169,44.48523],[11.73054,44.4825],[11.72995,44.48126],[11.72805,44.47768],[11.72604,44.47423],[11.72474,44.47221],[11.72388,44.47089],[11.71848,44.46264],[11.70877,44.44798],[11.70653,44.44461],[11.70448,44.44155],[11.70396,44.4408],[11.70379,44.44056],[11.70371,44.44048],[11.69196,44.43129],[11.68859,44.42883],[11.68407,44.42562],[11.67772,44.42117],[11.67652,44.42045],[11.66855,44.42256],[11.6591,44.425],[11.65167,44.42684],[11.64346,44.42406],[11.63918,44.42175],[11.63887,44.42171],[11.63865,44.42171],[11.63844,44.42175],[11.63782,44.422],[11.62348,44.42773],[11.60945,44.43127],[11.60535,44.43371],[11.60558,44.43823],[11.60769,44.44107],[11.61021,44.44353],[11.61387,44.44759],[11.61605,44.45173],[11.6181,44.45591],[11.62181,44.46178],[11.62193,44.46199],[11.61467,44.465],[11.6141,44.46523],[11.61272,44.46573],[11.61159,44.46614],[11.6115,44.46613],[11.61145,44.46609],[11.61132,44.46593],[11.60996,44.46418],[11.59244,44.4688],[11.59244,44.46885],[11.59198,44.46911],[11.59039,44.46998],[11.5893,44.47048],[11.58912,44.47056],[11.58842,44.47082],[11.5883,44.47087],[11.5866,44.47121],[11.58586,44.47135],[11.58421,44.47158],[11.57533,44.47169],[11.57447,44.47012],[11.57216,44.4707],[11.57111,44.47097],[11.56472,44.47262],[11.56454,44.47313],[11.56541,44.4742],[11.5664,44.4755],[11.56518,44.47591],[11.55835,44.47825],[11.55747,44.47855],[11.55579,44.4791],[11.554,44.47968],[11.55057,44.4781],[11.55135,44.47997],[11.54666,44.48418],[11.54367,44.48561],[11.53847,44.48773],[11.53113,44.49079],[11.52929,44.49],[11.52468,44.48765],[11.52462,44.48761],[11.52305,44.4864],[11.52067,44.48392],[11.52022,44.48339],[11.52018,44.48333],[11.51586,44.48388],[11.51032,44.48482],[11.50579,44.48684],[11.50319,44.48985],[11.4985,44.49419],[11.49321,44.49324],[11.49152,44.49138],[11.49391,44.49094],[11.49369,44.49022],[11.4925,44.48832],[11.49114,44.48671],[11.48408,44.48135],[11.47968,44.47848],[11.46986,44.478],[11.47314,44.47634],[11.48258,44.4718],[11.48449,44.47121],[11.48625,44.47064],[11.4861,44.47039],[11.486,44.47024],[11.48589,44.4701],[11.48552,44.46962],[11.48514,44.46914],[11.48447,44.46831],[11.48438,44.46819],[11.4843,44.46811],[11.48417,44.46805],[11.48214,44.46709],[11.47817,44.46551],[11.47466,44.46516],[11.46066,44.45668],[11.45842,44.45218],[11.46133,44.44546],[11.45563,44.43708],[11.45598,44.43409],[11.45559,44.43282],[11.45534,44.43224],[11.45366,44.42878],[11.44789,44.42235],[11.44493,44.41899],[11.44291,44.41397],[11.4416,44.4119],[11.43331,44.40661],[11.42924,44.40575],[11.42865,44.40583],[11.42801,44.40599],[11.42698,44.40625],[11.42628,44.40644],[11.4252,44.40676],[11.42623,44.40281],[11.41373,44.39826],[11.41315,44.3947],[11.41266,44.39005],[11.41265,44.38351],[11.41171,44.37866],[11.40787,44.37861],[11.4076,44.37855],[11.40745,44.37847],[11.40687,44.37804],[11.40566,44.37715],[11.40529,44.37639],[11.40419,44.37268],[11.4043,44.36907],[11.40468,44.36477],[11.41013,44.36177],[11.41068,44.3621],[11.42232,44.36066],[11.42321,44.36003],[11.42392,44.35959],[11.42443,44.35939],[11.42765,44.35885],[11.42832,44.35874],[11.42926,44.35869],[11.43349,44.35878],[11.4359,44.35912],[11.4451,44.36497],[11.44712,44.36685],[11.44736,44.36864],[11.45287,44.37687],[11.45583,44.37916],[11.45725,44.37728],[11.45777,44.37368],[11.45692,44.36944],[11.45624,44.36687],[11.45566,44.365],[11.46345,44.35843],[11.48543,44.34816],[11.48839,44.34605],[11.48917,44.34476],[11.48929,44.34439],[11.48936,44.34414],[11.48907,44.33957],[11.48906,44.33948],[11.48869,44.33855],[11.4886,44.33834],[11.48629,44.3359],[11.48518,44.33484],[11.4842,44.33371],[11.48325,44.3321],[11.48284,44.33124],[11.48278,44.33088],[11.4826,44.32945],[11.4826,44.32917],[11.48404,44.32257],[11.48477,44.31713],[11.48353,44.31548],[11.48131,44.31082],[11.48073,44.30905],[11.48072,44.30883],[11.4812,44.30659],[11.48187,44.30132],[11.48226,44.29576],[11.48201,44.29264],[11.47659,44.28226],[11.46816,44.27461],[11.46284,44.27092],[11.45239,44.26397],[11.44568,44.25945],[11.4444,44.25774],[11.44433,44.25766],[11.44365,44.2571],[11.4386,44.25365],[11.43541,44.25198],[11.43228,44.25084],[11.43085,44.25052],[11.43061,44.2493],[11.43059,44.24906],[11.43076,44.24849],[11.43084,44.24836],[11.43096,44.24827],[11.435,44.24537],[11.43695,44.24424],[11.43833,44.24354],[11.43988,44.24323],[11.44766,44.24248],[11.45942,44.24136],[11.46164,44.24116],[11.46601,44.24097],[11.46613,44.24099],[11.46655,44.24138],[11.46661,44.24145],[11.46673,44.24178],[11.46676,44.24221],[11.46681,44.24298],[11.46702,44.24423],[11.46711,44.24422],[11.47505,44.2425],[11.47651,44.24216],[11.48033,44.24063],[11.48282,44.23959],[11.4829,44.23953],[11.48671,44.23497],[11.49328,44.23011],[11.49337,44.23026],[11.4935,44.23043],[11.495,44.23152],[11.49511,44.23159],[11.49525,44.23166],[11.49534,44.23169],[11.49543,44.2317],[11.49593,44.23162],[11.49985,44.2309],[11.50284,44.23029],[11.51544,44.22731],[11.51841,44.22642],[11.52386,44.22366],[11.53753,44.22161],[11.54121,44.22147],[11.54258,44.21796],[11.54456,44.21823],[11.54926,44.21749],[11.55032,44.21727],[11.55093,44.21678],[11.55281,44.21512],[11.55173,44.20904],[11.55096,44.20855],[11.54924,44.20628],[11.54904,44.20569],[11.54913,44.20503],[11.55547,44.19492],[11.56018,44.19013],[11.5613,44.18964],[11.5617,44.1892],[11.56225,44.18802],[11.56238,44.18766],[11.56221,44.18692],[11.56168,44.18549],[11.56084,44.18516],[11.55741,44.1846],[11.55665,44.18451],[11.55182,44.18606],[11.54937,44.18823],[11.54758,44.18901],[11.5468,44.1892],[11.54576,44.18945],[11.53958,44.19062],[11.53637,44.19044],[11.53563,44.19039],[11.53567,44.18643],[11.53628,44.18507],[11.53586,44.18175],[11.53539,44.17913],[11.53325,44.1764],[11.5294,44.17166],[11.52822,44.1644],[11.52737,44.16216],[11.52576,44.15887],[11.52548,44.1583],[11.52518,44.15792],[11.52495,44.15766],[11.52956,44.15795],[11.53856,44.15385],[11.53933,44.15353],[11.53937,44.15352],[11.54023,44.15323],[11.54057,44.15315],[11.54137,44.15295],[11.5423,44.15277],[11.54442,44.15253],[11.54482,44.15261],[11.55192,44.15846],[11.55205,44.1586],[11.55267,44.15927],[11.55348,44.16064],[11.55351,44.16069],[11.55353,44.16094],[11.55364,44.16206],[11.55305,44.16357],[11.55264,44.16464],[11.55254,44.16502],[11.55245,44.16534],[11.55262,44.16547],[11.55298,44.16574],[11.56407,44.16747],[11.56848,44.16673],[11.57071,44.1649],[11.57751,44.16136],[11.59282,44.16097],[11.60415,44.15844],[11.61029,44.16041],[11.61536,44.15825],[11.61519,44.15814],[11.61484,44.15793],[11.61419,44.1566],[11.61416,44.15507],[11.61453,44.15446],[11.61593,44.15243],[11.61725,44.1498],[11.61776,44.14623],[11.61778,44.14609],[11.61783,44.14571],[11.6178,44.14553],[11.61774,44.14516],[11.61709,44.14398],[11.61685,44.14361],[11.61671,44.14338],[11.61665,44.14331],[11.61635,44.1429],[11.61592,44.14251],[11.61459,44.14169],[11.61429,44.14164],[11.61317,44.14171],[11.61232,44.14172],[11.61172,44.14172],[11.61134,44.14172],[11.61099,44.14171],[11.61085,44.14164],[11.61071,44.14158],[11.61036,44.14141],[11.60528,44.13865],[11.60361,44.13721],[11.60192,44.13247],[11.59972,44.12515],[11.59177,44.12465],[11.59058,44.12451],[11.59029,44.12447],[11.58963,44.12438],[11.58863,44.12424],[11.58783,44.1237],[11.58416,44.11682],[11.58399,44.11646],[11.58389,44.11625],[11.58376,44.11542],[11.58379,44.11525],[11.5839,44.11458],[11.58393,44.11442],[11.58427,44.11274],[11.58457,44.11221],[11.58505,44.11229],[11.58647,44.11256],[11.59073,44.11358],[11.59576,44.11592],[11.59804,44.11754],[11.60083,44.11861],[11.61161,44.11954],[11.6141,44.11923],[11.62141,44.11715],[11.63875,44.11152],[11.64351,44.10632],[11.65257,44.10086],[11.66639,44.10998],[11.6732,44.11344],[11.67665,44.11865],[11.6783,44.12134],[11.68174,44.1227],[11.68735,44.12245],[11.69647,44.12149],[11.69668,44.12147],[11.6973,44.12139],[11.69741,44.12138],[11.70055,44.12065],[11.7107,44.12184],[11.71589,44.12255],[11.718,44.12864],[11.72107,44.13765],[11.72187,44.14813],[11.72134,44.14887],[11.72109,44.14954],[11.72107,44.14958],[11.72075,44.15064],[11.72036,44.15242],[11.71971,44.1564],[11.71967,44.15723],[11.7199,44.15803],[11.72023,44.15869],[11.72057,44.15922],[11.72109,44.15968],[11.72185,44.15994],[11.72756,44.1689],[11.73742,44.17608],[11.74517,44.18258],[11.74702,44.18754],[11.75248,44.19296],[11.75383,44.19381],[11.75551,44.19452],[11.7567,44.1949],[11.77003,44.19855],[11.77139,44.19887],[11.77179,44.19823],[11.772,44.1975],[11.77375,44.19036],[11.7735,44.18858],[11.7738,44.18684],[11.77601,44.18208],[11.77608,44.18203],[11.7766,44.18163],[11.77731,44.18124],[11.77809,44.18094],[11.78076,44.18047],[11.78269,44.18179],[11.78698,44.18551],[11.79123,44.18935],[11.79587,44.19293],[11.8012,44.19664],[11.80669,44.19944],[11.80874,44.19938],[11.81638,44.19904],[11.81667,44.19873],[11.82688,44.19779],[11.83225,44.19744],[11.84174,44.19274],[11.84611,44.19017],[11.85274,44.18603],[11.85784,44.1833],[11.86429,44.18007],[11.87763,44.17461],[11.88608,44.17153],[11.88861,44.17066],[11.88879,44.17051],[11.89036,44.16864],[11.89467,44.16462],[11.89867,44.16253],[11.90141,44.16138],[11.90619,44.15887],[11.90818,44.15705],[11.91111,44.15212],[11.91223,44.14916],[11.9123,44.14884],[11.91206,44.14863],[11.9106,44.14785],[11.90961,44.14738],[11.90821,44.1469],[11.90764,44.14666],[11.90632,44.14576],[11.90596,44.14529],[11.90591,44.14494],[11.90706,44.14015],[11.9075,44.13936],[11.9083,44.13809],[11.90901,44.13746],[11.90916,44.13734],[11.90991,44.13666],[11.91096,44.13562],[11.911,44.13554],[11.91139,44.13475],[11.91122,44.1318],[11.91091,44.13041],[11.91628,44.13046],[11.91702,44.1305],[11.91772,44.13054],[11.91896,44.13069],[11.91936,44.13074],[11.92136,44.13101],[11.92224,44.13114],[11.92265,44.1312],[11.92411,44.13162],[11.92516,44.132],[11.92593,44.13232],[11.9261,44.13239],[11.92951,44.1341],[11.93048,44.13584],[11.93102,44.1394],[11.93534,44.14147],[11.93725,44.14055],[11.9378,44.14056],[11.94337,44.14102],[11.94669,44.14225],[11.95204,44.14553],[11.95284,44.14606],[11.95491,44.1478],[11.96135,44.1527],[11.96903,44.1579],[11.97061,44.15826],[11.97145,44.15845],[11.97274,44.15869],[11.97573,44.15877],[11.97771,44.15885],[11.98208,44.15939],[11.98557,44.1599]]]]}},{"type":"Feature","properties":{"name":"lambrusco-di-sorbara","comuni_count":12},"geometry":{"type":"MultiPolygon","coordinates":[[[[11.11699,44.71044],[11.11834,44.7191],[11.1195,44.72779],[11.12114,44.73998],[11.1219,44.74556],[11.12238,44.74859],[11.12266,44.74971],[11.12279,44.74998],[11.12512,44.76011],[11.12837,44.77562],[11.12989,44.78292],[11.13197,44.78444],[11.13494,44.78644],[11.13987,44.78581],[11.14977,44.78622],[11.1729,44.79127],[11.17414,44.79141],[11.17509,44.79165],[11.17597,44.79187],[11.17679,44.79218],[11.17737,44.79247],[11.17778,44.7929],[11.17814,44.79356],[11.17827,44.79418],[11.17819,44.79619],[11.17988,44.79765],[11.19994,44.80442],[11.2104,44.80772],[11.21653,44.80933],[11.22176,44.81119],[11.22192,44.81125],[11.22201,44.81128],[11.22218,44.81153],[11.2222,44.81165],[11.22221,44.81171],[11.22223,44.81184],[11.22216,44.81229],[11.22146,44.81393],[11.22109,44.81473],[11.22067,44.81552],[11.21528,44.82468],[11.2145,44.82591],[11.21425,44.82629],[11.20445,44.82361],[11.19581,44.8212],[11.19495,44.82095],[11.19417,44.82071],[11.19349,44.82045],[11.20009,44.81265],[11.20186,44.81042],[11.20093,44.8102],[11.19958,44.80994],[11.18594,44.808],[11.16349,44.80462],[11.159,44.80407],[11.15502,44.80394],[11.13786,44.80547],[11.13159,44.81345],[11.12787,44.81639],[11.11612,44.82193],[11.10594,44.82647],[11.10488,44.82455],[11.10164,44.82418],[11.09934,44.82259],[11.09472,44.81677],[11.09142,44.81253],[11.08845,44.80883],[11.08666,44.80679],[11.07967,44.80801],[11.07709,44.80827],[11.07354,44.80861],[11.07178,44.80904],[11.07131,44.80917],[11.07042,44.80943],[11.0694,44.80987],[11.06306,44.81273],[11.04775,44.81981],[11.04365,44.82211],[11.04185,44.82312],[11.04117,44.82345],[11.04071,44.82368],[11.04011,44.82396],[11.03998,44.82402],[11.03775,44.82302],[11.03757,44.82291],[11.03367,44.82062],[11.03012,44.82159],[11.02264,44.81459],[11.0122,44.81356],[11.00437,44.8157],[10.9996,44.81791],[10.98519,44.826],[10.97564,44.82622],[10.97522,44.82578],[10.97413,44.82539],[10.9735,44.82518],[10.97285,44.82516],[10.97209,44.82516],[10.97092,44.82543],[10.97032,44.82562],[10.96689,44.82676],[10.96329,44.82433],[10.96217,44.8218],[10.96129,44.81959],[10.96123,44.81942],[10.95928,44.81323],[10.95985,44.81301],[10.95891,44.81042],[10.95145,44.7986],[10.94861,44.79948],[10.94107,44.80208],[10.93635,44.80382],[10.93591,44.80425],[10.93592,44.80462],[10.93611,44.80621],[10.93675,44.80992],[10.93697,44.81833],[10.93594,44.82106],[10.92925,44.82371],[10.92616,44.82575],[10.921,44.8297],[10.91702,44.83438],[10.91655,44.8374],[10.91667,44.83883],[10.9171,44.84329],[10.91732,44.84508],[10.91909,44.86172],[10.92294,44.86677],[10.92622,44.86905],[10.92862,44.87072],[10.92866,44.87077],[10.93036,44.87341],[10.93078,44.87406],[10.93168,44.87548],[10.93183,44.87571],[10.93203,44.87602],[10.93206,44.87607],[10.93686,44.88677],[10.93755,44.88969],[10.9373,44.88991],[10.93331,44.8904],[10.93107,44.88593],[10.92449,44.88279],[10.92435,44.88283],[10.92011,44.88286],[10.91955,44.88269],[10.91947,44.88266],[10.91941,44.88263],[10.91903,44.88245],[10.91857,44.88222],[10.91784,44.88186],[10.91413,44.87998],[10.91063,44.87797],[10.90734,44.87592],[10.88057,44.86767],[10.879,44.86772],[10.87831,44.86775],[10.87813,44.86752],[10.87734,44.867],[10.87651,44.86656],[10.87401,44.86603],[10.87291,44.86584],[10.87226,44.86579],[10.8713,44.86571],[10.86517,44.86531],[10.86365,44.86521],[10.8611,44.86508],[10.86019,44.86505],[10.85644,44.86519],[10.85595,44.86526],[10.85415,44.86554],[10.85348,44.8657],[10.85007,44.86652],[10.84679,44.86006],[10.84643,44.85917],[10.84538,44.85712],[10.84403,44.85463],[10.84381,44.85442],[10.84261,44.85374],[10.8423,44.85364],[10.83871,44.85214],[10.83629,44.84841],[10.83725,44.84484],[10.83735,44.84457],[10.83737,44.84431],[10.83161,44.83457],[10.81734,44.81119],[10.81499,44.80723],[10.81637,44.80582],[10.8184,44.80413],[10.82969,44.80028],[10.8368,44.79779],[10.8398,44.79316],[10.83821,44.783],[10.83817,44.78282],[10.83798,44.7825],[10.8338,44.77552],[10.82752,44.76583],[10.82591,44.76387],[10.82539,44.76339],[10.82496,44.763],[10.82451,44.76277],[10.82418,44.76265],[10.82387,44.76254],[10.82199,44.76189],[10.82056,44.76131],[10.81956,44.76087],[10.81806,44.7602],[10.8174,44.75958],[10.81619,44.75742],[10.81605,44.75693],[10.81551,44.75506],[10.81545,44.7548],[10.81546,44.75463],[10.81556,44.75422],[10.8159,44.75299],[10.81611,44.75225],[10.81652,44.75158],[10.81679,44.75108],[10.81725,44.74998],[10.81761,44.74909],[10.81767,44.74872],[10.81766,44.74834],[10.81762,44.747],[10.81745,44.74633],[10.81542,44.74162],[10.81814,44.73839],[10.81977,44.72968],[10.81569,44.71621],[10.81336,44.71029],[10.81114,44.70581],[10.80968,44.70334],[10.80895,44.70314],[10.80748,44.70135],[10.8071,44.70025],[10.80615,44.69753],[10.80616,44.69702],[10.8067,44.69666],[10.80674,44.69663],[10.8173,44.69183],[10.81614,44.68202],[10.81439,44.67093],[10.81342,44.66225],[10.81295,44.6617],[10.81285,44.66122],[10.81369,44.65951],[10.81471,44.6576],[10.81529,44.65653],[10.80649,44.65555],[10.80573,44.65543],[10.80463,44.65524],[10.80301,44.65478],[10.80214,44.65452],[10.80082,44.65413],[10.80005,44.65388],[10.79785,44.65309],[10.79691,44.65273],[10.79639,44.65249],[10.79545,44.65127],[10.79503,44.65037],[10.79491,44.65012],[10.79471,44.64913],[10.79463,44.64872],[10.79447,44.64587],[10.79444,44.64455],[10.79442,44.64333],[10.79415,44.64148],[10.7937,44.63974],[10.79316,44.63874],[10.79259,44.63792],[10.79198,44.63718],[10.79114,44.63624],[10.79032,44.63545],[10.78965,44.63485],[10.78905,44.63434],[10.78794,44.6339],[10.78706,44.63356],[10.78572,44.63281],[10.78462,44.63209],[10.78434,44.6319],[10.78323,44.63094],[10.78252,44.62997],[10.78212,44.62902],[10.78202,44.62843],[10.78195,44.6281],[10.78197,44.62777],[10.78443,44.62482],[10.78579,44.62445],[10.78595,44.62441],[10.7878,44.62402],[10.79288,44.62445],[10.79719,44.62564],[10.80087,44.62414],[10.79941,44.62114],[10.80569,44.61817],[10.80792,44.61766],[10.808,44.61764],[10.80834,44.61836],[10.80868,44.61922],[10.80901,44.62003],[10.81736,44.61944],[10.82387,44.61871],[10.82642,44.61712],[10.82462,44.61202],[10.8245,44.61104],[10.82459,44.61044],[10.82498,44.61019],[10.83364,44.60552],[10.83516,44.60227],[10.8328,44.60198],[10.83127,44.60124],[10.83096,44.60075],[10.83052,44.60005],[10.83031,44.59959],[10.83065,44.59939],[10.83242,44.59908],[10.83626,44.59852],[10.84335,44.59817],[10.85543,44.60198],[10.86847,44.59986],[10.8752,44.59854],[10.87516,44.59684],[10.87581,44.59659],[10.87676,44.59622],[10.87951,44.59528],[10.88136,44.59468],[10.88613,44.59417],[10.894,44.59355],[10.89422,44.59385],[10.89624,44.5939],[10.89729,44.59381],[10.8993,44.59297],[10.89979,44.59275],[10.8992,44.59199],[10.90319,44.58536],[10.91297,44.57811],[10.92304,44.5728],[10.92785,44.56944],[10.92697,44.56807],[10.92708,44.56611],[10.92942,44.56527],[10.93159,44.5645],[10.9322,44.56428],[10.93463,44.56348],[10.93572,44.56368],[10.94331,44.56825],[10.9495,44.573],[10.95537,44.57889],[10.95795,44.57993],[10.96549,44.58244],[10.96481,44.57916],[10.96515,44.57879],[10.97037,44.57825],[10.97088,44.57866],[10.97128,44.5792],[10.97131,44.57958],[10.97143,44.58019],[10.97179,44.58007],[10.97235,44.57981],[10.97246,44.57976],[10.9735,44.57924],[10.97425,44.57867],[10.97715,44.57478],[10.97821,44.57319],[10.97883,44.57217],[10.98479,44.56935],[10.98903,44.57101],[10.99569,44.56972],[10.99785,44.56914],[10.99977,44.56825],[11.00188,44.56699],[11.00375,44.5657],[11.00403,44.56548],[11.00566,44.56415],[11.00693,44.56308],[11.0075,44.5626],[11.00854,44.5614],[11.01875,44.55443],[11.02145,44.55366],[11.02455,44.55248],[11.02645,44.55175],[11.0274,44.55133],[11.02991,44.55012],[11.03081,44.54961],[11.03188,44.54875],[11.03249,44.5482],[11.03369,44.5466],[11.03388,44.54592],[11.03395,44.54507],[11.03399,44.54427],[11.03391,44.54347],[11.03382,44.54271],[11.03344,44.54116],[11.03313,44.54015],[11.03233,44.53779],[11.03141,44.53553],[11.03074,44.53424],[11.03059,44.53375],[11.03056,44.53364],[11.03042,44.53316],[11.0302,44.532],[11.03012,44.5308],[11.0306,44.52801],[11.03089,44.52756],[11.03301,44.52784],[11.0357,44.52818],[11.04256,44.52813],[11.04791,44.52779],[11.04854,44.52772],[11.05024,44.5274],[11.05038,44.52738],[11.05215,44.52703],[11.0543,44.52647],[11.05473,44.52635],[11.05499,44.52628],[11.0556,44.52752],[11.05582,44.52796],[11.05604,44.52849],[11.05562,44.53059],[11.05615,44.53402],[11.05965,44.53178],[11.06342,44.52893],[11.06897,44.52528],[11.0752,44.52818],[11.08332,44.52972],[11.08723,44.5301],[11.09738,44.52784],[11.09742,44.5278],[11.09745,44.52778],[11.09756,44.52769],[11.09764,44.52762],[11.09771,44.52758],[11.0978,44.52751],[11.09786,44.52747],[11.09796,44.5274],[11.09941,44.52641],[11.09948,44.52637],[11.09953,44.52634],[11.09958,44.5263],[11.09967,44.52625],[11.09974,44.5262],[11.09983,44.52615],[11.09995,44.5261],[11.10007,44.52604],[11.10018,44.526],[11.10094,44.52573],[11.10133,44.5256],[11.10207,44.52536],[11.1022,44.52532],[11.10226,44.5253],[11.10231,44.52528],[11.1024,44.52526],[11.1025,44.52524],[11.10262,44.52522],[11.10274,44.5252],[11.10286,44.52518],[11.10814,44.52468],[11.10832,44.52477],[11.10866,44.52519],[11.11092,44.52813],[11.11399,44.53551],[11.11409,44.53616],[11.11228,44.53779],[11.10466,44.5395],[11.10747,44.54354],[11.11396,44.55145],[11.12751,44.56458],[11.13161,44.56742],[11.12771,44.56884],[11.12752,44.56927],[11.12993,44.57279],[11.13274,44.57585],[11.14031,44.58253],[11.14446,44.58493],[11.15085,44.5874],[11.1523,44.58911],[11.14785,44.59245],[11.14386,44.6003],[11.14242,44.60505],[11.13223,44.60912],[11.11829,44.61784],[11.1198,44.62029],[11.12187,44.62362],[11.1236,44.62622],[11.12778,44.63136],[11.11611,44.63496],[11.09557,44.64146],[11.08527,44.64451],[11.08157,44.64572],[11.07988,44.64634],[11.07934,44.64655],[11.07809,44.64703],[11.08469,44.65814],[11.08986,44.66656],[11.10331,44.68789],[11.10536,44.69052],[11.10773,44.69522],[11.11158,44.70079],[11.11484,44.7058],[11.11578,44.7074],[11.11618,44.70828],[11.11656,44.70924],[11.11675,44.70975],[11.11686,44.71006],[11.11695,44.7103],[11.11699,44.71044]]]]}},{"type":"Feature","properties":{"name":"lambrusco-grasparossa-di-castelvetro","comuni_count":14},"geometry":{"type":"MultiPolygon","coordinates":[[[[10.99241,44.66247],[10.9916,44.66319],[10.99144,44.66333],[10.99056,44.6643],[10.99019,44.66536],[10.99037,44.66593],[10.99054,44.66605],[10.99057,44.66607],[10.99072,44.66618],[10.99101,44.66638],[10.99144,44.66668],[10.99436,44.66864],[10.99985,44.67409],[11.00641,44.68182],[11.00875,44.68446],[11.00215,44.68619],[10.99783,44.68721],[10.99631,44.68783],[11.00151,44.69655],[11.00484,44.69865],[11.00606,44.69883],[11.0079,44.69933],[11.00866,44.69973],[11.01021,44.70095],[11.01046,44.70121],[11.01055,44.7014],[11.01063,44.70154],[11.0056,44.70427],[11.00192,44.70135],[11.00104,44.70074],[11.00074,44.70059],[10.99639,44.70064],[10.99455,44.70149],[10.98837,44.70634],[10.98325,44.70731],[10.98169,44.70769],[10.97212,44.71411],[10.96713,44.71794],[10.96593,44.71942],[10.957,44.71368],[10.94806,44.70516],[10.94779,44.70464],[10.94754,44.70458],[10.94651,44.70478],[10.94562,44.70497],[10.92939,44.70858],[10.92806,44.70892],[10.92883,44.71061],[10.92268,44.71353],[10.91792,44.71682],[10.91001,44.71839],[10.90056,44.7212],[10.89662,44.72544],[10.89138,44.72605],[10.89088,44.7255],[10.89068,44.72524],[10.89041,44.7249],[10.89016,44.72456],[10.88893,44.72262],[10.88884,44.72243],[10.88827,44.72114],[10.88763,44.71962],[10.88759,44.71951],[10.88765,44.71947],[10.88834,44.71925],[10.8884,44.71921],[10.88641,44.71591],[10.88502,44.7137],[10.88508,44.71368],[10.8855,44.71353],[10.88572,44.71319],[10.88563,44.71251],[10.88428,44.70871],[10.88359,44.70762],[10.88078,44.70431],[10.87442,44.69781],[10.87332,44.69809],[10.87272,44.69819],[10.87013,44.69479],[10.86684,44.68545],[10.86658,44.67886],[10.86088,44.67607],[10.85143,44.67224],[10.85332,44.66546],[10.85076,44.65859],[10.85056,44.65821],[10.85007,44.65803],[10.84923,44.65785],[10.84821,44.65771],[10.84669,44.65763],[10.84437,44.65779],[10.84354,44.65788],[10.84255,44.6581],[10.8416,44.65845],[10.84071,44.65889],[10.83986,44.65921],[10.83704,44.66],[10.83654,44.66008],[10.83597,44.66018],[10.8346,44.66018],[10.8334,44.66017],[10.83273,44.66016],[10.8324,44.66015],[10.829,44.65996],[10.82762,44.65983],[10.82435,44.65909],[10.82338,44.65887],[10.81529,44.65653],[10.80649,44.65555],[10.80573,44.65543],[10.80463,44.65524],[10.80301,44.65478],[10.80214,44.65452],[10.80082,44.65413],[10.80005,44.65388],[10.79785,44.65309],[10.79691,44.65273],[10.79639,44.65249],[10.79545,44.65127],[10.79503,44.65037],[10.79491,44.65012],[10.79471,44.64913],[10.79463,44.64872],[10.79447,44.64587],[10.79444,44.64455],[10.79442,44.64333],[10.79415,44.64148],[10.7937,44.63974],[10.79316,44.63874],[10.79259,44.63792],[10.79198,44.63718],[10.79114,44.63624],[10.79032,44.63545],[10.78965,44.63485],[10.78905,44.63434],[10.78794,44.6339],[10.78706,44.63356],[10.78572,44.63281],[10.78462,44.63209],[10.78434,44.6319],[10.78323,44.63094],[10.78252,44.62997],[10.78212,44.62902],[10.78202,44.62843],[10.78195,44.6281],[10.78197,44.62777],[10.78443,44.62482],[10.7848,44.62422],[10.78519,44.62357],[10.78599,44.62214],[10.78621,44.62165],[10.78705,44.61473],[10.78706,44.61352],[10.78705,44.61039],[10.787,44.60935],[10.78677,44.6065],[10.78677,44.60597],[10.78633,44.60356],[10.78567,44.60099],[10.78531,44.59983],[10.7841,44.59765],[10.78319,44.59606],[10.78252,44.5949],[10.78075,44.59179],[10.7768,44.57977],[10.77581,44.56725],[10.77554,44.56544],[10.77523,44.56404],[10.76962,44.5488],[10.76792,44.54515],[10.76716,44.5435],[10.76673,44.54268],[10.76647,44.54229],[10.76624,44.54196],[10.76582,44.54143],[10.76496,44.54042],[10.75855,44.53279],[10.75134,44.52324],[10.74267,44.51248],[10.73683,44.50701],[10.72973,44.50087],[10.72636,44.49984],[10.72614,44.49981],[10.72373,44.49934],[10.72287,44.49915],[10.71938,44.4973],[10.7184,44.49672],[10.70867,44.49091],[10.70394,44.48869],[10.70264,44.48803],[10.6988,44.48474],[10.69447,44.47942],[10.69302,44.47755],[10.69197,44.47665],[10.68955,44.47498],[10.68823,44.47415],[10.68721,44.47359],[10.68594,44.47295],[10.68433,44.47234],[10.67829,44.47125],[10.6765,44.47097],[10.67513,44.47064],[10.6736,44.47023],[10.67059,44.46918],[10.6682,44.46778],[10.66702,44.467],[10.66456,44.46491],[10.66099,44.4617],[10.65906,44.45995],[10.65756,44.45836],[10.65676,44.45723],[10.65544,44.45533],[10.6549,44.45418],[10.65454,44.45292],[10.65416,44.45146],[10.65387,44.45034],[10.65362,44.4493],[10.65346,44.4483],[10.65359,44.44602],[10.6537,44.44496],[10.65399,44.44381],[10.65558,44.43955],[10.65069,44.433],[10.6493,44.43265],[10.64807,44.43224],[10.64637,44.43152],[10.64344,44.42997],[10.64038,44.4277],[10.63147,44.42083],[10.62857,44.41573],[10.62403,44.40834],[10.62152,44.40586],[10.62232,44.39798],[10.62796,44.39966],[10.63526,44.40153],[10.65603,44.40535],[10.66604,44.40322],[10.66695,44.39878],[10.66895,44.39584],[10.67245,44.39512],[10.68405,44.39682],[10.68453,44.39722],[10.68595,44.40047],[10.68646,44.40166],[10.68646,44.4019],[10.68646,44.4025],[10.68585,44.40493],[10.68533,44.40625],[10.68492,44.40701],[10.68576,44.40824],[10.68684,44.40963],[10.68808,44.41072],[10.6887,44.41124],[10.69855,44.41861],[10.70658,44.42141],[10.7148,44.42378],[10.72482,44.42639],[10.72533,44.4262],[10.72599,44.4259],[10.7261,44.42585],[10.72659,44.42553],[10.72734,44.42502],[10.72786,44.42455],[10.72821,44.42411],[10.72856,44.42348],[10.73387,44.4142],[10.73643,44.41109],[10.73898,44.40874],[10.74368,44.40993],[10.75286,44.4123],[10.75459,44.41289],[10.75579,44.41332],[10.75996,44.41483],[10.76023,44.41518],[10.7593,44.41704],[10.75912,44.41724],[10.75889,44.41751],[10.75848,44.41794],[10.75628,44.42277],[10.75428,44.42766],[10.75422,44.42788],[10.75412,44.42824],[10.75403,44.42887],[10.75383,44.43219],[10.75381,44.434],[10.75416,44.43969],[10.75732,44.44749],[10.75874,44.45485],[10.7593,44.45673],[10.76422,44.46301],[10.76799,44.46317],[10.76815,44.46316],[10.76942,44.46315],[10.77092,44.46308],[10.77922,44.46267],[10.78039,44.46253],[10.78518,44.46],[10.78563,44.45976],[10.78592,44.45936],[10.78597,44.45889],[10.78599,44.45875],[10.78898,44.4666],[10.79123,44.47937],[10.78846,44.48706],[10.78811,44.4875],[10.78806,44.48837],[10.78839,44.48976],[10.78949,44.4915],[10.78978,44.4919],[10.79032,44.4923],[10.79135,44.49395],[10.80123,44.49433],[10.80674,44.49404],[10.8133,44.49222],[10.81853,44.49215],[10.82428,44.49255],[10.82703,44.49177],[10.82849,44.49168],[10.83163,44.49163],[10.83337,44.49169],[10.8351,44.49161],[10.84123,44.49118],[10.84597,44.4906],[10.84695,44.49016],[10.84716,44.48984],[10.84726,44.48968],[10.84736,44.48953],[10.85048,44.48228],[10.85172,44.47714],[10.85677,44.47132],[10.86344,44.46392],[10.8649,44.46408],[10.86651,44.46413],[10.86802,44.46397],[10.86905,44.46357],[10.8694,44.4631],[10.86959,44.46285],[10.86967,44.46187],[10.86963,44.46113],[10.86951,44.45892],[10.86826,44.45819],[10.86776,44.45782],[10.86758,44.45768],[10.86741,44.45755],[10.86724,44.45728],[10.86708,44.45702],[10.86693,44.45658],[10.86686,44.45638],[10.8665,44.45495],[10.86638,44.45028],[10.86397,44.43925],[10.86751,44.43343],[10.87723,44.4285],[10.88207,44.41795],[10.88362,44.41392],[10.87854,44.40768],[10.87897,44.40728],[10.87995,44.40638],[10.8841,44.40203],[10.88436,44.40169],[10.88439,44.40117],[10.88414,44.39655],[10.88245,44.39296],[10.88183,44.39275],[10.88138,44.39235],[10.88109,44.39184],[10.88093,44.39124],[10.88116,44.39041],[10.88154,44.38964],[10.88187,44.38902],[10.88191,44.38894],[10.88474,44.38557],[10.88477,44.38555],[10.88482,44.38552],[10.88503,44.38538],[10.88557,44.38547],[10.88869,44.38608],[10.89397,44.38768],[10.90889,44.38685],[10.91233,44.38635],[10.91313,44.38617],[10.91373,44.38602],[10.91387,44.38599],[10.91451,44.38579],[10.91469,44.38573],[10.91533,44.38617],[10.91561,44.38637],[10.91724,44.38788],[10.92069,44.3921],[10.92107,44.39263],[10.92157,44.39334],[10.92321,44.39716],[10.92384,44.39948],[10.92381,44.40586],[10.92314,44.41386],[10.92322,44.41496],[10.92412,44.41855],[10.9315,44.43235],[10.93287,44.43425],[10.93788,44.43999],[10.93809,44.44015],[10.93903,44.44083],[10.94255,44.44304],[10.94389,44.4419],[10.94489,44.44162],[10.95199,44.44208],[10.95994,44.44384],[10.9608,44.44381],[10.96556,44.4434],[10.97369,44.44203],[10.98569,44.44105],[10.99023,44.44051],[10.99095,44.44138],[11.00213,44.44364],[11.00817,44.4449],[11.0082,44.44491],[11.00838,44.44495],[11.00845,44.44496],[11.0085,44.44498],[11.00871,44.44503],[11.00881,44.44506],[11.00916,44.44516],[11.00931,44.4452],[11.00935,44.44521],[11.00939,44.44523],[11.00953,44.4453],[11.00958,44.44532],[11.01085,44.44595],[11.01318,44.44711],[11.01329,44.44716],[11.01362,44.44736],[11.01368,44.4474],[11.01388,44.44755],[11.01392,44.44758],[11.01398,44.44762],[11.01402,44.44766],[11.01405,44.44768],[11.01409,44.44771],[11.0142,44.44781],[11.01509,44.44859],[11.01512,44.44862],[11.01515,44.44865],[11.01519,44.44869],[11.01523,44.44873],[11.01548,44.44899],[11.01551,44.44903],[11.01553,44.44906],[11.01565,44.44925],[11.01573,44.4494],[11.01668,44.45048],[11.0263,44.45967],[11.02853,44.46097],[11.03573,44.46334],[11.03691,44.46368],[11.04064,44.46465],[11.04283,44.46521],[11.04415,44.46555],[11.04754,44.46695],[11.05102,44.4714],[11.05116,44.47576],[11.05111,44.47837],[11.05533,44.48749],[11.06167,44.4919],[11.06343,44.49406],[11.06535,44.50033],[11.0651,44.50184],[11.06467,44.50339],[11.06445,44.50369],[11.06399,44.50427],[11.05835,44.51289],[11.05811,44.5206],[11.05829,44.52241],[11.0575,44.52496],[11.05626,44.5259],[11.05499,44.52628],[11.0556,44.52752],[11.05582,44.52796],[11.05604,44.52849],[11.05562,44.53059],[11.05615,44.53402],[11.05965,44.53178],[11.06342,44.52893],[11.06897,44.52528],[11.0752,44.52818],[11.08332,44.52972],[11.08723,44.5301],[11.09738,44.52784],[11.09742,44.5278],[11.09745,44.52778],[11.09756,44.52769],[11.09764,44.52762],[11.09771,44.52758],[11.0978,44.52751],[11.09786,44.52747],[11.09796,44.5274],[11.09941,44.52641],[11.09948,44.52637],[11.09953,44.52634],[11.09958,44.5263],[11.09967,44.52625],[11.09974,44.5262],[11.09983,44.52615],[11.09995,44.5261],[11.10007,44.52604],[11.10018,44.526],[11.10094,44.52573],[11.10133,44.5256],[11.10207,44.52536],[11.1022,44.52532],[11.10226,44.5253],[11.10231,44.52528],[11.1024,44.52526],[11.1025,44.52524],[11.10262,44.52522],[11.10274,44.5252],[11.10286,44.52518],[11.10814,44.52468],[11.10832,44.52477],[11.10866,44.52519],[11.11092,44.52813],[11.11399,44.53551],[11.11409,44.53616],[11.11228,44.53779],[11.10466,44.5395],[11.10747,44.54354],[11.11396,44.55145],[11.12751,44.56458],[11.13161,44.56742],[11.12771,44.56884],[11.12752,44.56927],[11.12993,44.57279],[11.13274,44.57585],[11.14031,44.58253],[11.14446,44.58493],[11.15085,44.5874],[11.1523,44.58911],[11.14785,44.59245],[11.14386,44.6003],[11.14242,44.60505],[11.13223,44.60912],[11.11829,44.61784],[11.1198,44.62029],[11.12187,44.62362],[11.1236,44.62622],[11.12778,44.63136],[11.11611,44.63496],[11.09557,44.64146],[11.08527,44.64451],[11.08157,44.64572],[11.07988,44.64634],[11.07934,44.64655],[11.07809,44.64703],[11.07204,44.64921],[11.06856,44.65047],[11.06545,44.65145],[11.06439,44.65178],[11.05706,44.65391],[11.05357,44.65491],[11.0535,44.65488],[11.05011,44.64944],[11.05004,44.64919],[11.04994,44.64849],[11.04981,44.64695],[11.04981,44.64621],[11.04982,44.64565],[11.04135,44.6449],[11.03489,44.64693],[11.02232,44.65073],[11.0136,44.65294],[11.01203,44.65339],[11.01112,44.65369],[11.00989,44.65412],[11.00764,44.65506],[10.99817,44.65935],[10.99665,44.66013],[10.99594,44.6605],[10.99466,44.6612],[10.99428,44.66141],[10.99241,44.66247]]],[[[10.89123,44.72889],[10.89656,44.73045],[10.89245,44.73501],[10.89037,44.73109],[10.89123,44.72889]]],[[[10.89504,44.74229],[10.8888,44.74126],[10.89074,44.73727],[10.89365,44.73901],[10.89504,44.74229]]]]}},{"type":"Feature","properties":{"name":"colli-bolognesi-pignoletto","comuni_count":6},"geometry":{"type":"MultiPolygon","coordinates":[[[[11.16364,44.37616],[11.16448,44.37788],[11.16457,44.37804],[11.16469,44.3782],[11.16488,44.37844],[11.16525,44.37882],[11.16539,44.37894],[11.16846,44.38077],[11.17516,44.3841],[11.18138,44.38416],[11.19413,44.38006],[11.19967,44.37676],[11.20134,44.37451],[11.20169,44.37405],[11.20226,44.37382],[11.20496,44.37273],[11.20575,44.37246],[11.20772,44.3721],[11.21911,44.37187],[11.22517,44.37288],[11.23431,44.37677],[11.23591,44.37749],[11.23732,44.37821],[11.2377,44.37844],[11.23816,44.37873],[11.23841,44.37894],[11.23859,44.3791],[11.23953,44.37998],[11.23979,44.3803],[11.24135,44.38238],[11.24206,44.38369],[11.24219,44.38388],[11.24396,44.38469],[11.24475,44.38426],[11.2452,44.38399],[11.24574,44.38349],[11.24994,44.37933],[11.25001,44.37926],[11.25023,44.37894],[11.25057,44.37839],[11.25086,44.37791],[11.25095,44.37769],[11.25105,44.37674],[11.25104,44.37665],[11.25492,44.36903],[11.26151,44.35804],[11.26501,44.35026],[11.26997,44.3438],[11.27487,44.33773],[11.27861,44.3354],[11.28213,44.33514],[11.28586,44.33516],[11.28862,44.33565],[11.29102,44.33639],[11.29188,44.33672],[11.29353,44.33757],[11.29617,44.33979],[11.2965,44.34068],[11.29662,44.34206],[11.29761,44.34758],[11.29785,44.34809],[11.2982,44.34849],[11.30128,44.35404],[11.30362,44.35942],[11.29796,44.36564],[11.28897,44.37334],[11.28182,44.37536],[11.27729,44.3765],[11.28526,44.38522],[11.28758,44.39259],[11.29015,44.39595],[11.30943,44.39532],[11.32002,44.39947],[11.31602,44.40534],[11.3187,44.41301],[11.33151,44.41626],[11.33161,44.41629],[11.33234,44.4167],[11.33241,44.41675],[11.33321,44.41756],[11.33324,44.41763],[11.33325,44.41768],[11.33325,44.41775],[11.3332,44.4183],[11.33311,44.41858],[11.33289,44.41906],[11.33172,44.42051],[11.32757,44.42121],[11.3248,44.42269],[11.3169,44.42122],[11.31341,44.42112],[11.31337,44.42114],[11.30384,44.42681],[11.29966,44.43096],[11.29678,44.43275],[11.29632,44.43299],[11.29629,44.43301],[11.29607,44.4331],[11.2957,44.43319],[11.29487,44.43336],[11.29482,44.43337],[11.29468,44.43339],[11.2927,44.43353],[11.2924,44.43343],[11.29221,44.43292],[11.2928,44.43211],[11.29317,44.43146],[11.29364,44.43052],[11.29368,44.42957],[11.2937,44.42888],[11.29364,44.4286],[11.29356,44.42825],[11.2934,44.42768],[11.29335,44.42759],[11.2933,44.42756],[11.29237,44.42705],[11.29189,44.42689],[11.28226,44.42582],[11.28259,44.428],[11.28336,44.43109],[11.28313,44.43903],[11.28194,44.44546],[11.28377,44.45047],[11.2836,44.45094],[11.28373,44.45171],[11.28626,44.45729],[11.28764,44.45928],[11.29032,44.46333],[11.29109,44.47084],[11.29009,44.47207],[11.28935,44.47479],[11.29032,44.47969],[11.29227,44.48211],[11.29234,44.48208],[11.29246,44.48204],[11.29335,44.48183],[11.29446,44.48194],[11.29612,44.48302],[11.29677,44.48359],[11.29666,44.48549],[11.29466,44.48961],[11.26821,44.49008],[11.26818,44.49002],[11.26808,44.49003],[11.2637,44.49099],[11.26275,44.4912],[11.26187,44.4914],[11.26132,44.49154],[11.25513,44.49334],[11.25516,44.4934],[11.25604,44.49486],[11.25622,44.4953],[11.25678,44.49696],[11.25681,44.49704],[11.25691,44.49739],[11.25694,44.49752],[11.25342,44.49726],[11.23698,44.50293],[11.2352,44.50797],[11.2362,44.51208],[11.23915,44.5152],[11.24083,44.51912],[11.24088,44.51923],[11.24116,44.52028],[11.24123,44.52064],[11.24128,44.52095],[11.24128,44.52136],[11.24124,44.52167],[11.24119,44.52186],[11.24114,44.52198],[11.24091,44.52245],[11.24067,44.52282],[11.24055,44.52295],[11.2404,44.5231],[11.24022,44.52325],[11.24007,44.52336],[11.23975,44.52355],[11.23894,44.52384],[11.23845,44.52399],[11.23821,44.52404],[11.23777,44.52411],[11.237,44.5242],[11.23649,44.52423],[11.23626,44.52424],[11.23607,44.52424],[11.23521,44.52424],[11.23494,44.52423],[11.23441,44.52421],[11.23367,44.52419],[11.23291,44.52417],[11.23282,44.52418],[11.23216,44.52435],[11.23208,44.52439],[11.23068,44.52602],[11.22993,44.52736],[11.22964,44.53054],[11.22976,44.53094],[11.22977,44.53097],[11.2298,44.53105],[11.22884,44.53138],[11.22479,44.53171],[11.21551,44.52974],[11.2077,44.52826],[11.20306,44.52843],[11.19877,44.53218],[11.19828,44.5326],[11.1978,44.53283],[11.19577,44.53195],[11.18935,44.52465],[11.18107,44.52595],[11.18063,44.52499],[11.18045,44.52406],[11.18038,44.52308],[11.17912,44.52748],[11.18109,44.54601],[11.18192,44.54906],[11.18213,44.5499],[11.18179,44.55003],[11.15555,44.55919],[11.1494,44.5613],[11.14149,44.56395],[11.13161,44.56742],[11.12751,44.56458],[11.11396,44.55145],[11.10747,44.54354],[11.10466,44.5395],[11.11228,44.53779],[11.11409,44.53616],[11.11399,44.53551],[11.11092,44.52813],[11.10866,44.52519],[11.10832,44.52477],[11.10814,44.52468],[11.10286,44.52518],[11.10274,44.5252],[11.10262,44.52522],[11.1025,44.52524],[11.1024,44.52526],[11.10231,44.52528],[11.10226,44.5253],[11.1022,44.52532],[11.10207,44.52536],[11.10133,44.5256],[11.10094,44.52573],[11.10018,44.526],[11.10007,44.52604],[11.09995,44.5261],[11.09983,44.52615],[11.09974,44.5262],[11.09967,44.52625],[11.09958,44.5263],[11.09953,44.52634],[11.09948,44.52637],[11.09941,44.52641],[11.09796,44.5274],[11.09786,44.52747],[11.0978,44.52751],[11.09771,44.52758],[11.09764,44.52762],[11.09756,44.52769],[11.09745,44.52778],[11.09742,44.5278],[11.09738,44.52784],[11.08723,44.5301],[11.08332,44.52972],[11.0752,44.52818],[11.06897,44.52528],[11.06342,44.52893],[11.05965,44.53178],[11.05615,44.53402],[11.05562,44.53059],[11.05604,44.52849],[11.05582,44.52796],[11.0556,44.52752],[11.05499,44.52628],[11.05473,44.52635],[11.0543,44.52647],[11.05215,44.52703],[11.05038,44.52738],[11.05024,44.5274],[11.04854,44.52772],[11.04791,44.52779],[11.04256,44.52813],[11.0357,44.52818],[11.03301,44.52784],[11.03089,44.52756],[11.03078,44.52731],[11.03075,44.52725],[11.03106,44.52626],[11.03195,44.52458],[11.03352,44.52188],[11.03424,44.52077],[11.0356,44.51876],[11.03593,44.51816],[11.03641,44.51731],[11.03677,44.51663],[11.03707,44.51609],[11.03835,44.51364],[11.039,44.51236],[11.03942,44.51136],[11.03974,44.50985],[11.03971,44.50747],[11.03961,44.50635],[11.03912,44.50475],[11.03844,44.50126],[11.03192,44.48747],[11.03177,44.48674],[11.02933,44.48111],[11.02868,44.47966],[11.02832,44.47891],[11.02804,44.47844],[11.02795,44.47828],[11.02733,44.47762],[11.02658,44.4771],[11.0234,44.4753],[11.02264,44.47505],[11.02245,44.47499],[11.01473,44.47483],[11.01386,44.47499],[11.01287,44.4749],[11.0104,44.47462],[11.00896,44.47439],[11.00768,44.4741],[11.00641,44.4736],[11.00282,44.47163],[11.00157,44.47066],[11.00016,44.46952],[10.99295,44.46314],[10.99072,44.46102],[10.98987,44.46018],[10.98943,44.4597],[10.98917,44.45931],[10.9882,44.45772],[10.98832,44.45763],[10.98795,44.45738],[10.98772,44.45724],[10.98716,44.45691],[10.98636,44.45643],[10.98616,44.45632],[10.9861,44.45629],[10.986,44.45624],[10.98539,44.45597],[10.98521,44.4559],[10.98496,44.45581],[10.98157,44.45461],[10.98152,44.4546],[10.98144,44.45457],[10.97948,44.454],[10.97928,44.45394],[10.97921,44.45392],[10.97915,44.45391],[10.97604,44.45372],[10.95744,44.45153],[10.95702,44.45148],[10.95657,44.45143],[10.95464,44.45112],[10.95458,44.45111],[10.95453,44.4511],[10.95423,44.45104],[10.95382,44.45094],[10.95377,44.45093],[10.95372,44.45092],[10.95368,44.4509],[10.95302,44.45073],[10.95282,44.45068],[10.9525,44.45058],[10.95236,44.45054],[10.95223,44.45049],[10.95216,44.45047],[10.95154,44.45022],[10.95108,44.44999],[10.94406,44.4446],[10.94255,44.44304],[10.94389,44.4419],[10.94489,44.44162],[10.95199,44.44208],[10.95994,44.44384],[10.9608,44.44381],[10.96556,44.4434],[10.97369,44.44203],[10.98569,44.44105],[10.99023,44.44051],[10.99667,44.42954],[11.01101,44.43022],[11.01329,44.43027],[11.01528,44.43023],[11.01774,44.43015],[11.02584,44.42924],[11.03678,44.4266],[11.04012,44.42448],[11.04405,44.42069],[11.0446,44.42014],[11.04714,44.41727],[11.04817,44.41611],[11.0492,44.40824],[11.04437,44.40294],[11.03565,44.39239],[11.03409,44.38924],[11.0314,44.38419],[11.02877,44.38036],[11.02281,44.37381],[11.02266,44.37377],[11.0226,44.37374],[11.02252,44.37367],[11.0224,44.37355],[11.02237,44.37352],[11.02235,44.37332],[11.02235,44.37321],[11.02231,44.37179],[11.02224,44.36567],[11.02222,44.36398],[11.02222,44.36385],[11.02221,44.3623],[11.02222,44.36138],[11.02256,44.35807],[11.02351,44.35542],[11.02414,44.35439],[11.02565,44.35248],[11.02809,44.34992],[11.02875,44.34976],[11.02917,44.34963],[11.02971,44.34936],[11.03486,44.34649],[11.0367,44.34455],[11.0376,44.34259],[11.04199,44.34188],[11.04578,44.34174],[11.04596,44.34174],[11.04698,44.34173],[11.04715,44.34174],[11.0475,44.34196],[11.04759,44.34203],[11.05717,44.34122],[11.07053,44.33622],[11.07502,44.33441],[11.08482,44.32549],[11.10049,44.31528],[11.10478,44.31191],[11.11222,44.31282],[11.11627,44.31487],[11.11933,44.31755],[11.12159,44.3217],[11.12186,44.32282],[11.12087,44.32762],[11.1206,44.32869],[11.12144,44.33077],[11.12162,44.3311],[11.12185,44.33138],[11.12236,44.33198],[11.12269,44.33236],[11.1236,44.3334],[11.12393,44.33367],[11.12428,44.3361],[11.12769,44.34684],[11.13223,44.34784],[11.14521,44.35099],[11.14944,44.35196],[11.15121,44.35135],[11.15648,44.3498],[11.1583,44.34947],[11.16623,44.34838],[11.16671,44.3487],[11.16673,44.35003],[11.16666,44.35064],[11.16654,44.35112],[11.16592,44.353],[11.16521,44.35456],[11.16477,44.35466],[11.16395,44.35474],[11.16372,44.35471],[11.16339,44.35468],[11.16312,44.35474],[11.16254,44.35488],[11.16243,44.35493],[11.16052,44.356],[11.15685,44.35832],[11.15563,44.35954],[11.15401,44.36197],[11.15395,44.36221],[11.15378,44.36291],[11.15374,44.36339],[11.15375,44.36376],[11.15744,44.36606],[11.16259,44.36823],[11.16275,44.36826],[11.1629,44.36831],[11.16302,44.36838],[11.16325,44.36855],[11.16362,44.36884],[11.16373,44.36894],[11.16378,44.36901],[11.16409,44.36965],[11.16439,44.37081],[11.16443,44.37548],[11.16443,44.37557],[11.16441,44.37564],[11.16436,44.3757],[11.16401,44.37598],[11.16387,44.37607],[11.16364,44.37616]]]]}},{"type":"Feature","properties":{"name":"gutturnio","comuni_count":18},"geometry":{"type":"MultiPolygon","coordinates":[[[[9.33755,44.96538],[9.33503,44.96306],[9.32759,44.9591],[9.32459,44.95605],[9.32296,44.94965],[9.32289,44.94904],[9.32236,44.94564],[9.32154,44.94397],[9.31805,44.94017],[9.31526,44.93749],[9.31453,44.93682],[9.31406,44.93667],[9.31105,44.93572],[9.30981,44.93542],[9.30545,44.93455],[9.29058,44.93384],[9.2901,44.93396],[9.28937,44.93407],[9.28888,44.93414],[9.2882,44.93424],[9.28761,44.93424],[9.28683,44.93413],[9.28635,44.93395],[9.28503,44.93177],[9.28501,44.93106],[9.28535,44.93022],[9.28585,44.92941],[9.28726,44.928],[9.28821,44.92709],[9.28935,44.92618],[9.29074,44.92535],[9.29297,44.92046],[9.29041,44.91426],[9.28604,44.90744],[9.28406,44.9035],[9.27741,44.89561],[9.28101,44.89604],[9.28134,44.89598],[9.28227,44.89577],[9.28317,44.89545],[9.28343,44.89535],[9.2843,44.89496],[9.28519,44.89452],[9.2884,44.89288],[9.29283,44.89032],[9.29311,44.8898],[9.29274,44.88871],[9.29236,44.88811],[9.29209,44.88769],[9.29149,44.88673],[9.29093,44.88544],[9.29091,44.88539],[9.29086,44.88525],[9.29048,44.88428],[9.29005,44.88315],[9.28989,44.88239],[9.29011,44.88221],[9.29461,44.88048],[9.30724,44.87614],[9.30869,44.8759],[9.30958,44.87588],[9.31054,44.87605],[9.31158,44.87624],[9.31308,44.87654],[9.31684,44.87772],[9.32066,44.87931],[9.32124,44.87974],[9.3216,44.87991],[9.32239,44.87974],[9.32325,44.87928],[9.32379,44.87881],[9.32413,44.87843],[9.32501,44.87708],[9.32563,44.87574],[9.32622,44.87385],[9.32647,44.87288],[9.33269,44.87076],[9.34238,44.86727],[9.34537,44.85583],[9.34779,44.84412],[9.35033,44.83703],[9.35923,44.82394],[9.3631,44.8224],[9.36561,44.82399],[9.36781,44.82537],[9.36878,44.82572],[9.37062,44.82621],[9.37138,44.82641],[9.37396,44.82673],[9.37578,44.82674],[9.38175,44.82949],[9.38586,44.83482],[9.38629,44.83562],[9.38714,44.8373],[9.38738,44.83909],[9.38752,44.83989],[9.38851,44.84048],[9.3921,44.8426],[9.39723,44.84521],[9.39806,44.84554],[9.39908,44.84568],[9.40223,44.84585],[9.4031,44.84578],[9.40721,44.84519],[9.41135,44.84509],[9.41324,44.84559],[9.41353,44.84573],[9.41362,44.84578],[9.41449,44.84619],[9.41552,44.84685],[9.41756,44.84921],[9.42009,44.85168],[9.42104,44.85213],[9.42914,44.85411],[9.43738,44.85535],[9.44139,44.85525],[9.44537,44.85525],[9.44629,44.85529],[9.44721,44.85546],[9.4475,44.85556],[9.4479,44.8557],[9.44888,44.85728],[9.45391,44.85855],[9.45519,44.86432],[9.4542,44.86552],[9.45336,44.86812],[9.4534,44.86886],[9.45374,44.8693],[9.45905,44.87544],[9.46481,44.87739],[9.47934,44.87985],[9.48741,44.88426],[9.49798,44.88878],[9.50274,44.88922],[9.50212,44.88857],[9.50196,44.88839],[9.50201,44.88778],[9.50228,44.88747],[9.50799,44.88357],[9.50871,44.88308],[9.50911,44.88291],[9.50969,44.88272],[9.51021,44.88268],[9.51043,44.88267],[9.5145,44.88309],[9.515,44.88316],[9.51542,44.88347],[9.51562,44.88382],[9.51625,44.88514],[9.51675,44.89035],[9.51707,44.89513],[9.52008,44.89822],[9.52176,44.89977],[9.5251,44.90126],[9.52596,44.90138],[9.53158,44.90128],[9.5325,44.90187],[9.53374,44.90303],[9.53765,44.90692],[9.53991,44.91001],[9.54447,44.91151],[9.54625,44.91197],[9.55262,44.91334],[9.55774,44.91318],[9.56704,44.91572],[9.58045,44.91972],[9.58437,44.9207],[9.58625,44.92008],[9.58605,44.91974],[9.5859,44.91946],[9.58581,44.91905],[9.58595,44.91856],[9.58728,44.91647],[9.58796,44.9157],[9.58902,44.91453],[9.59026,44.91376],[9.58737,44.90747],[9.58127,44.89613],[9.577,44.88823],[9.5754,44.88814],[9.57359,44.88794],[9.57209,44.88775],[9.56757,44.88652],[9.56634,44.88608],[9.56532,44.88549],[9.56467,44.88495],[9.55928,44.87862],[9.56221,44.87441],[9.56286,44.8744],[9.56385,44.87411],[9.56753,44.8724],[9.56809,44.87203],[9.57172,44.86612],[9.5737,44.86239],[9.5754,44.85899],[9.57836,44.8561],[9.57891,44.85575],[9.57982,44.85044],[9.57644,44.84779],[9.57296,44.84501],[9.56978,44.84235],[9.56795,44.8388],[9.57198,44.83775],[9.58734,44.83367],[9.59389,44.83145],[9.59496,44.83137],[9.59573,44.83139],[9.60298,44.83214],[9.60872,44.83407],[9.61187,44.83534],[9.61438,44.83202],[9.61471,44.83155],[9.61496,44.8312],[9.61634,44.82919],[9.61704,44.82814],[9.61802,44.82658],[9.61834,44.8253],[9.61836,44.82502],[9.61836,44.8249],[9.61911,44.82251],[9.62295,44.82087],[9.62453,44.82041],[9.62797,44.81996],[9.62941,44.8201],[9.63067,44.82033],[9.64664,44.82107],[9.64797,44.82106],[9.64915,44.82125],[9.65901,44.82362],[9.65999,44.82403],[9.66064,44.82441],[9.663,44.82674],[9.66369,44.82764],[9.66377,44.82804],[9.66385,44.82871],[9.66569,44.83111],[9.66868,44.83251],[9.67237,44.83237],[9.68174,44.83074],[9.68374,44.83022],[9.68402,44.82996],[9.68426,44.82973],[9.68444,44.8294],[9.6846,44.82891],[9.68435,44.82808],[9.68404,44.82732],[9.6836,44.82635],[9.68286,44.82505],[9.68216,44.82441],[9.68197,44.82423],[9.68138,44.82366],[9.68098,44.82282],[9.68056,44.82192],[9.68041,44.82097],[9.68035,44.82021],[9.68011,44.8168],[9.68071,44.80918],[9.68068,44.80393],[9.68031,44.80289],[9.67992,44.8018],[9.67962,44.80099],[9.67933,44.80024],[9.67901,44.79958],[9.67861,44.79909],[9.6701,44.79132],[9.66534,44.78732],[9.65991,44.78285],[9.65876,44.78143],[9.65705,44.77888],[9.65295,44.77265],[9.65238,44.77159],[9.65126,44.76708],[9.6508,44.76157],[9.65077,44.76061],[9.65089,44.75931],[9.65122,44.75785],[9.65141,44.75706],[9.65181,44.75667],[9.66049,44.74759],[9.66176,44.74482],[9.66212,44.74425],[9.66281,44.74341],[9.66539,44.74059],[9.66632,44.74001],[9.67007,44.74361],[9.67409,44.74822],[9.67534,44.75034],[9.67554,44.75305],[9.67611,44.75372],[9.67688,44.75454],[9.6811,44.75853],[9.68735,44.76414],[9.68898,44.76873],[9.68984,44.77147],[9.69283,44.77419],[9.69431,44.77537],[9.69617,44.77641],[9.6974,44.77694],[9.69979,44.77591],[9.70743,44.77153],[9.70809,44.77096],[9.70879,44.77045],[9.70968,44.76992],[9.71018,44.76965],[9.71051,44.76946],[9.71122,44.76912],[9.71191,44.76905],[9.71729,44.76879],[9.71792,44.76879],[9.71843,44.76888],[9.71845,44.76913],[9.71844,44.76917],[9.71837,44.76988],[9.71789,44.77408],[9.71467,44.77763],[9.71275,44.77962],[9.71134,44.78199],[9.71549,44.78519],[9.71978,44.78393],[9.72037,44.77988],[9.72171,44.77077],[9.72343,44.76887],[9.72371,44.76863],[9.72693,44.7666],[9.73076,44.76538],[9.75532,44.7689],[9.76056,44.77003],[9.76193,44.77044],[9.76313,44.77088],[9.77197,44.7749],[9.77749,44.77996],[9.77965,44.78319],[9.78154,44.78293],[9.78989,44.78438],[9.79114,44.78504],[9.79209,44.78522],[9.79334,44.78511],[9.79394,44.78488],[9.79467,44.78447],[9.79691,44.78221],[9.79783,44.78085],[9.79822,44.77979],[9.79896,44.77671],[9.79924,44.77527],[9.79926,44.77446],[9.79661,44.76832],[9.79612,44.76771],[9.79596,44.76755],[9.79574,44.76732],[9.79552,44.7671],[9.79267,44.76477],[9.78651,44.76016],[9.78167,44.75717],[9.77234,44.75074],[9.76161,44.7382],[9.75953,44.73519],[9.75943,44.73499],[9.75929,44.73472],[9.75925,44.73441],[9.75934,44.73378],[9.76149,44.72995],[9.76379,44.72351],[9.76759,44.71241],[9.76804,44.71007],[9.7682,44.70994],[9.76913,44.70985],[9.77002,44.70996],[9.77497,44.71116],[9.77604,44.71145],[9.77726,44.71189],[9.78524,44.71647],[9.78807,44.71843],[9.79006,44.72065],[9.79067,44.72144],[9.7982,44.73102],[9.79938,44.73137],[9.80626,44.73395],[9.81482,44.73801],[9.81527,44.73827],[9.8158,44.73875],[9.81626,44.73921],[9.81665,44.73981],[9.81811,44.74274],[9.81832,44.74325],[9.81988,44.74908],[9.82007,44.75092],[9.81885,44.75139],[9.81567,44.75338],[9.81502,44.7539],[9.81456,44.75468],[9.8143,44.75516],[9.81422,44.75548],[9.81414,44.75721],[9.81431,44.7574],[9.81452,44.75761],[9.81954,44.76122],[9.82864,44.76041],[9.82926,44.7603],[9.83357,44.75946],[9.83424,44.75931],[9.83468,44.75916],[9.83492,44.75907],[9.83554,44.75874],[9.83592,44.75853],[9.83624,44.75834],[9.83647,44.75815],[9.84482,44.76226],[9.84926,44.76562],[9.85613,44.76611],[9.85767,44.76428],[9.85815,44.76387],[9.861,44.76268],[9.86212,44.76249],[9.86404,44.7622],[9.86501,44.76211],[9.86691,44.76248],[9.86778,44.76273],[9.86848,44.76298],[9.88017,44.76847],[9.87682,44.77568],[9.87438,44.78535],[9.87815,44.79536],[9.88213,44.80276],[9.88868,44.80394],[9.89039,44.80421],[9.89184,44.80445],[9.89818,44.80671],[9.90033,44.80777],[9.90524,44.81048],[9.91673,44.82062],[9.92437,44.82499],[9.93543,44.8344],[9.94344,44.83747],[9.94849,44.83771],[9.95254,44.83999],[9.95335,44.84026],[9.95416,44.84042],[9.95518,44.84042],[9.95653,44.84028],[9.9577,44.83994],[9.95889,44.83944],[9.95979,44.83876],[9.96066,44.83784],[9.96889,44.83896],[9.97872,44.84402],[9.98668,44.84556],[9.98492,44.85115],[9.98505,44.85846],[9.99399,44.86675],[9.99921,44.87072],[10.00262,44.87239],[10.00326,44.87239],[10.00402,44.87247],[10.00485,44.87259],[10.00549,44.87275],[10.00596,44.87286],[10.00672,44.8731],[10.00824,44.87366],[10.00881,44.87389],[10.00948,44.87422],[10.00998,44.87457],[10.01049,44.8751],[10.0109,44.87564],[10.01102,44.87607],[10.01127,44.88015],[10.01072,44.88331],[10.01145,44.88559],[10.01234,44.8879],[10.01094,44.88895],[10.00976,44.89104],[10.00745,44.89736],[10.00418,44.90175],[9.9989,44.90465],[9.99775,44.90475],[9.99408,44.90753],[9.99391,44.90771],[9.99272,44.91324],[9.99264,44.91379],[9.99262,44.91431],[9.99273,44.91473],[9.995,44.91921],[9.99828,44.92654],[9.999,44.92854],[9.99912,44.92918],[9.99869,44.92956],[9.99333,44.93288],[9.99257,44.93329],[9.99216,44.93351],[9.99179,44.93371],[9.98741,44.93593],[9.98115,44.93659],[9.98026,44.93675],[9.9794,44.93712],[9.97995,44.93876],[9.98032,44.93951],[9.98156,44.94178],[9.9821,44.94249],[9.98492,44.94545],[9.9859,44.95045],[9.9821,44.9489],[9.98119,44.94856],[9.97999,44.94851],[9.97888,44.94874],[9.97825,44.94901],[9.97563,44.95021],[9.97534,44.9473],[9.97501,44.94578],[9.9746,44.94482],[9.97402,44.94365],[9.97316,44.94292],[9.97145,44.94184],[9.97104,44.9416],[9.97013,44.94112],[9.96934,44.94079],[9.96853,44.94072],[9.96786,44.94095],[9.96483,44.93771],[9.96289,44.93325],[9.96018,44.92692],[9.95866,44.92156],[9.9563,44.91581],[9.95587,44.91515],[9.95544,44.91454],[9.95494,44.91398],[9.95382,44.9129],[9.95337,44.91252],[9.95293,44.91221],[9.95131,44.91109],[9.94992,44.91014],[9.94681,44.90803],[9.94618,44.90828],[9.94117,44.90352],[9.93849,44.90029],[9.93261,44.89313],[9.92603,44.89419],[9.92499,44.8945],[9.91831,44.89657],[9.91837,44.89713],[9.91919,44.89853],[9.91954,44.89938],[9.91498,44.90047],[9.90904,44.90102],[9.90567,44.90125],[9.8988,44.90001],[9.89508,44.89935],[9.89242,44.90002],[9.89117,44.90042],[9.8902,44.90075],[9.88627,44.90172],[9.87835,44.90292],[9.87034,44.90434],[9.86517,44.90589],[9.85937,44.90938],[9.85722,44.9094],[9.85613,44.90929],[9.85465,44.90766],[9.85277,44.90465],[9.85212,44.90311],[9.84882,44.90326],[9.8485,44.9034],[9.84647,44.90492],[9.84602,44.90583],[9.84486,44.90894],[9.84533,44.90923],[9.84961,44.9134],[9.85044,44.91426],[9.85048,44.91436],[9.8507,44.9148],[9.85003,44.92014],[9.84942,44.92257],[9.84665,44.92519],[9.84542,44.92726],[9.84528,44.92803],[9.84539,44.92944],[9.84604,44.93226],[9.84726,44.93418],[9.84778,44.93483],[9.84686,44.93492],[9.84643,44.93502],[9.84265,44.93811],[9.84239,44.93854],[9.84234,44.93939],[9.84397,44.94498],[9.84478,44.94735],[9.84606,44.94828],[9.8461,44.94831],[9.84656,44.9487],[9.84686,44.94901],[9.84681,44.94961],[9.8463,44.94998],[9.84558,44.95013],[9.84146,44.95084],[9.8333,44.94957],[9.82495,44.94814],[9.82101,44.94525],[9.81053,44.94474],[9.80941,44.94477],[9.80914,44.94619],[9.80905,44.94681],[9.81287,44.95028],[9.81525,44.95147],[9.81615,44.95171],[9.81767,44.95215],[9.81887,44.95267],[9.82033,44.95333],[9.82153,44.95388],[9.82285,44.95633],[9.81811,44.95892],[9.81688,44.9594],[9.81538,44.95995],[9.81212,44.9609],[9.80896,44.96181],[9.80858,44.9598],[9.808,44.95513],[9.80701,44.95358],[9.80189,44.94783],[9.80225,44.94506],[9.80152,44.94297],[9.79827,44.94253],[9.7958,44.94277],[9.79124,44.9465],[9.79037,44.94979],[9.78266,44.95537],[9.77621,44.96005],[9.77667,44.96258],[9.77682,44.96549],[9.77685,44.96654],[9.77683,44.96686],[9.77636,44.97354],[9.76746,44.97526],[9.75774,44.97714],[9.75376,44.97796],[9.75392,44.97748],[9.75404,44.9771],[9.7542,44.9766],[9.75433,44.97601],[9.75442,44.97538],[9.75438,44.97445],[9.75396,44.97323],[9.75319,44.97203],[9.75239,44.9711],[9.75177,44.97052],[9.74568,44.96651],[9.74032,44.96479],[9.73916,44.96506],[9.73765,44.96514],[9.73661,44.96504],[9.73527,44.96476],[9.73431,44.96454],[9.73337,44.96419],[9.73257,44.96345],[9.73191,44.96258],[9.73167,44.96217],[9.73134,44.9616],[9.72725,44.9542],[9.7261,44.95181],[9.72468,44.94838],[9.72336,44.94523],[9.72139,44.94065],[9.72033,44.93911],[9.71538,44.93426],[9.7132,44.9349],[9.7083,44.93629],[9.70784,44.93604],[9.70668,44.93521],[9.70616,44.93479],[9.70284,44.93169],[9.70062,44.92936],[9.70053,44.92895],[9.70033,44.92861],[9.69997,44.92832],[9.69945,44.92817],[9.69774,44.92808],[9.69675,44.9282],[9.69493,44.92854],[9.69038,44.92959],[9.6885,44.93096],[9.68866,44.93264],[9.68642,44.93496],[9.6805,44.94032],[9.67131,44.94682],[9.67086,44.94709],[9.6703,44.94735],[9.66854,44.94797],[9.66824,44.948],[9.66522,44.9481],[9.65948,44.94648],[9.65852,44.94467],[9.65458,44.94846],[9.65347,44.95166],[9.6516,44.95617],[9.65143,44.95657],[9.6511,44.95732],[9.64762,44.9589],[9.64674,44.95902],[9.6441,44.95971],[9.64353,44.95989],[9.63189,44.96479],[9.63509,44.96963],[9.63123,44.97087],[9.62752,44.97015],[9.62378,44.96754],[9.61966,44.96144],[9.60777,44.95602],[9.59967,44.95687],[9.59415,44.95698],[9.59417,44.96614],[9.59266,44.97781],[9.59193,44.98121],[9.59169,44.98384],[9.59144,44.98665],[9.59137,44.9882],[9.58608,44.98805],[9.58416,44.98799],[9.5795,44.98778],[9.57835,44.98767],[9.57585,44.98733],[9.57487,44.98714],[9.57046,44.98552],[9.5592,44.98026],[9.55972,44.9793],[9.5554,44.97874],[9.55054,44.97896],[9.5485,44.97908],[9.54361,44.97939],[9.53097,44.97991],[9.5302,44.97999],[9.52945,44.98153],[9.52866,44.98392],[9.5281,44.98568],[9.52591,44.98873],[9.51831,44.9948],[9.51258,44.99663],[9.51062,45.0022],[9.51031,45.00472],[9.51089,45.01194],[9.52469,45.01989],[9.53195,45.02475],[9.53473,45.02944],[9.53447,45.02945],[9.53352,45.02955],[9.52986,45.03093],[9.52937,45.03144],[9.52924,45.03218],[9.52923,45.03225],[9.52931,45.03271],[9.52985,45.03432],[9.53134,45.03587],[9.53156,45.03803],[9.52884,45.03882],[9.52279,45.04128],[9.52088,45.04216],[9.51641,45.04362],[9.51342,45.04452],[9.50956,45.04555],[9.508,45.04596],[9.50542,45.04659],[9.50419,45.04686],[9.50356,45.04697],[9.50047,45.04637],[9.5003,45.0463],[9.49967,45.04534],[9.4974,45.04245],[9.49109,45.03697],[9.49069,45.03663],[9.49024,45.03631],[9.48921,45.03573],[9.48878,45.03553],[9.4884,45.03541],[9.48778,45.03528],[9.47035,45.03309],[9.46385,45.03447],[9.46107,45.03928],[9.45839,45.03913],[9.45833,45.03977],[9.45836,45.04323],[9.45851,45.04374],[9.4595,45.04613],[9.46015,45.04737],[9.46028,45.04762],[9.46608,45.05539],[9.46957,45.05882],[9.4748,45.06231],[9.47521,45.06224],[9.47847,45.06247],[9.48264,45.06297],[9.48284,45.06361],[9.48287,45.06369],[9.48369,45.06636],[9.48333,45.06721],[9.48313,45.06767],[9.4828,45.06846],[9.48095,45.07206],[9.4801,45.07639],[9.47983,45.07781],[9.4797,45.07883],[9.47978,45.08557],[9.47995,45.08612],[9.48054,45.08718],[9.48253,45.08757],[9.48437,45.08753],[9.485,45.09123],[9.48293,45.09599],[9.48021,45.09881],[9.47528,45.09658],[9.47267,45.09584],[9.47141,45.0955],[9.46774,45.09488],[9.4659,45.09469],[9.45577,45.09398],[9.45321,45.09383],[9.45289,45.09382],[9.45272,45.09381],[9.44439,45.09368],[9.43901,45.09345],[9.43908,45.09292],[9.4392,45.09043],[9.43914,45.08986],[9.43696,45.08354],[9.43637,45.08257],[9.43622,45.08236],[9.43596,45.0821],[9.4356,45.08183],[9.43484,45.08171],[9.43447,45.08171],[9.43377,45.08171],[9.42746,45.08185],[9.42641,45.08262],[9.42627,45.08313],[9.42191,45.08398],[9.41265,45.08365],[9.41224,45.08355],[9.41078,45.08275],[9.41074,45.08273],[9.41078,45.08245],[9.41256,45.07891],[9.40636,45.07322],[9.39894,45.06938],[9.39236,45.06624],[9.3893,45.06405],[9.38853,45.06314],[9.38456,45.0593],[9.37186,45.04894],[9.37082,45.04815],[9.37265,45.04587],[9.37559,45.04041],[9.37346,45.03702],[9.36994,45.02596],[9.36945,45.02373],[9.37561,45.01992],[9.37365,45.01812],[9.37119,45.01484],[9.36757,45.00631],[9.3662,45.00361],[9.36594,45.00315],[9.36587,45.00304],[9.36542,45.00267],[9.36508,45.00242],[9.3643,45.00191],[9.36137,45.00009],[9.35896,45.00025],[9.3573,45.00074],[9.35351,45.00107],[9.35321,45.00102],[9.35276,45.00078],[9.35085,44.99974],[9.34807,44.99784],[9.34746,44.99741],[9.34736,44.99706],[9.34632,44.99594],[9.34398,44.99292],[9.34374,44.99253],[9.34311,44.99141],[9.33921,44.98063],[9.33812,44.97997],[9.33743,44.97944],[9.33708,44.97894],[9.3368,44.97845],[9.3365,44.97787],[9.33628,44.9773],[9.33546,44.97474],[9.33522,44.97286],[9.33514,44.96996],[9.33515,44.96926],[9.33521,44.96862],[9.33532,44.96809],[9.33562,44.96757],[9.33596,44.96706],[9.33629,44.96657],[9.33658,44.96625],[9.33703,44.96578],[9.33755,44.96538]]]]}}]}