{"type":"FeatureCollection","_provenance":{"source":"ISTAT comune boundaries (openpolis/geojson-italy) dissolved per MASAF disciplinare comune lists","authority":"ISTAT (comune geometry); MASAF disciplinari (membership)","download":"https://github.com/openpolis/geojson-italy (limits_IT_municipalities.geojson)","licence":"CC BY 4.0","attribution":"ISTAT","method":"comune-union (dissolve); interior rings dropped","retrieved":"2026-08-14","note":"Friuli hill zones. Collio=8 comuni (Gorizia); Friuli Colli Orientali=19 comuni (Udine)."},"features":[{"type":"Feature","properties":{"key":"collio","name":"Collio"},"geometry":{"type":"MultiPolygon","coordinates":[[[[13.51199,45.93268],[13.51453,45.92922],[13.51488,45.92873],[13.51511,45.92828],[13.51529,45.92783],[13.51528,45.92771],[13.51525,45.92744],[13.51511,45.92709],[13.51475,45.92688],[13.51026,45.92605],[13.508,45.92571],[13.50771,45.92566],[13.50735,45.9256],[13.50782,45.92263],[13.50794,45.92211],[13.50865,45.92055],[13.50963,45.91911],[13.50044,45.9161],[13.50115,45.91287],[13.50275,45.90901],[13.50556,45.90353],[13.51137,45.89552],[13.51475,45.88979],[13.51981,45.89241],[13.53022,45.8969],[13.53038,45.89693],[13.5317,45.89714],[13.53665,45.89791],[13.5368,45.89793],[13.53819,45.8981],[13.53984,45.8983],[13.54192,45.89848],[13.5532,45.89894],[13.55689,45.90861],[13.56351,45.91111],[13.56441,45.91153],[13.56464,45.91164],[13.56962,45.91395],[13.57311,45.91536],[13.58539,45.91796],[13.58892,45.91858],[13.58919,45.91848],[13.58936,45.91839],[13.58925,45.91831],[13.58868,45.91785],[13.58788,45.91694],[13.58746,45.91643],[13.58543,45.91376],[13.58435,45.91228],[13.58378,45.91143],[13.58398,45.91121],[13.58655,45.9097],[13.58682,45.90965],[13.58756,45.90953],[13.59197,45.90878],[13.59454,45.90843],[13.6098,45.90662],[13.6136,45.90747],[13.6162,45.9114],[13.62757,45.92556],[13.63627,45.93404],[13.63511,45.94313],[13.63457,45.95393],[13.63788,45.96582],[13.64203,45.98234],[13.64201,45.98362],[13.63452,45.98882],[13.6334,45.98948],[13.63313,45.98927],[13.63258,45.98882],[13.62877,45.98718],[13.6204,45.98377],[13.61034,45.98487],[13.60586,45.98554],[13.60421,45.98672],[13.60117,45.98761],[13.59348,45.98949],[13.59156,45.98968],[13.59054,45.98977],[13.58991,45.98967],[13.5851,45.98803],[13.58069,45.98407],[13.57638,45.98012],[13.57365,45.97471],[13.56871,45.96917],[13.56553,45.96895],[13.55625,45.96934],[13.54639,45.96673],[13.54631,45.96658],[13.54596,45.96597],[13.54551,45.96572],[13.54508,45.96548],[13.54407,45.96508],[13.54401,45.96505],[13.54271,45.96475],[13.54248,45.96476],[13.54098,45.96487],[13.53345,45.96596],[13.53058,45.96639],[13.52884,45.96675],[13.52871,45.96679],[13.52811,45.96697],[13.52781,45.96706],[13.5277,45.96715],[13.52768,45.96717],[13.52722,45.96754],[13.52702,45.96789],[13.52681,45.96829],[13.5266,45.96919],[13.52614,45.97202],[13.52298,45.97333],[13.51593,45.9778],[13.50972,45.97991],[13.50029,45.9818],[13.49477,45.98616],[13.49397,45.98829],[13.49333,45.98932],[13.48803,45.99617],[13.48145,46.0018],[13.47871,46.00345],[13.47619,46.00625],[13.47641,46.00675],[13.47987,46.0115],[13.48029,46.0117],[13.48251,46.01234],[13.48647,46.01342],[13.49088,46.01421],[13.49705,46.01771],[13.50258,46.02534],[13.50434,46.02777],[13.50666,46.03225],[13.50843,46.03755],[13.51007,46.0434],[13.51002,46.04597],[13.51002,46.04625],[13.50531,46.04689],[13.50266,46.04718],[13.49927,46.04751],[13.49809,46.04765],[13.49756,46.04794],[13.49659,46.04886],[13.49696,46.05136],[13.49477,46.04931],[13.49356,46.04879],[13.49272,46.04857],[13.49211,46.04841],[13.49199,46.04839],[13.49095,46.04829],[13.49066,46.04826],[13.48897,46.0483],[13.48326,46.04362],[13.47934,46.03767],[13.47395,46.02326],[13.4716,46.01632],[13.47106,46.01251],[13.47011,46.01121],[13.46437,46.00673],[13.46304,46.006],[13.46174,46.00566],[13.46025,46.00545],[13.46074,46.00136],[13.46606,45.99831],[13.46428,45.99014],[13.46484,45.98607],[13.46489,45.98565],[13.46494,45.98482],[13.46448,45.98421],[13.46323,45.98395],[13.46319,45.98395],[13.46203,45.98398],[13.46051,45.98429],[13.45964,45.98464],[13.45864,45.98539],[13.45223,45.98298],[13.44355,45.97669],[13.44225,45.97622],[13.44211,45.97614],[13.4416,45.97583],[13.44103,45.9755],[13.44041,45.97512],[13.43976,45.97471],[13.43801,45.97357],[13.43799,45.97355],[13.43793,45.97349],[13.43695,45.97266],[13.43664,45.97207],[13.43861,45.97009],[13.44264,45.95971],[13.44279,45.95892],[13.44278,45.95793],[13.44231,45.95707],[13.43878,45.95606],[13.43114,45.9547],[13.42822,45.95335],[13.42693,45.9515],[13.4282,45.94742],[13.42468,45.94418],[13.42022,45.94153],[13.42018,45.94088],[13.42016,45.94052],[13.4204,45.93899],[13.42043,45.93878],[13.42078,45.9305],[13.42695,45.92904],[13.44411,45.92918],[13.44554,45.92942],[13.4485,45.92816],[13.4494,45.92758],[13.44987,45.92725],[13.45375,45.92375],[13.45525,45.92227],[13.4559,45.92136],[13.45856,45.92299],[13.4609,45.92362],[13.46839,45.92556],[13.47893,45.92803],[13.48584,45.92916],[13.49358,45.93759],[13.49437,45.93798],[13.49521,45.93817],[13.49615,45.93801],[13.49886,45.9375],[13.50989,45.93527],[13.51031,45.93517],[13.51086,45.93473],[13.51104,45.93458],[13.51152,45.934],[13.51153,45.93398],[13.5118,45.93348],[13.51199,45.93268]]]]}},{"type":"Feature","properties":{"key":"friuli-colli-orientali","name":"Friuli Colli Orientali"},"geometry":{"type":"MultiPolygon","coordinates":[[[[13.3498,46.22683],[13.34373,46.22933],[13.33812,46.23275],[13.33259,46.23413],[13.32357,46.2361],[13.31816,46.24061],[13.30904,46.24757],[13.30099,46.25061],[13.29943,46.25573],[13.29551,46.25866],[13.29326,46.25834],[13.29244,46.2582],[13.29152,46.25801],[13.29077,46.25774],[13.28879,46.25616],[13.28837,46.25563],[13.28799,46.25487],[13.28759,46.25059],[13.28513,46.2488],[13.27479,46.24461],[13.27,46.24345],[13.25771,46.25062],[13.24537,46.2589],[13.23906,46.26128],[13.23561,46.26419],[13.23436,46.26342],[13.23157,46.26072],[13.23139,46.26034],[13.23123,46.25901],[13.23122,46.25865],[13.22741,46.25593],[13.21593,46.2548],[13.20445,46.24743],[13.19679,46.24257],[13.19642,46.2418],[13.19634,46.24149],[13.19617,46.24072],[13.19546,46.23618],[13.19545,46.23519],[13.19566,46.23465],[13.19212,46.23432],[13.18834,46.23541],[13.18693,46.23586],[13.18321,46.23673],[13.17455,46.23853],[13.17216,46.23823],[13.16987,46.2379],[13.1664,46.23372],[13.16185,46.22319],[13.16083,46.21939],[13.16028,46.2185],[13.15789,46.21747],[13.15732,46.21734],[13.17194,46.20565],[13.17318,46.206],[13.17389,46.20605],[13.17551,46.20564],[13.17774,46.20458],[13.17876,46.20385],[13.17899,46.20259],[13.18441,46.19727],[13.18897,46.19362],[13.19021,46.19172],[13.19074,46.19162],[13.19637,46.19114],[13.20178,46.19143],[13.20492,46.19169],[13.20642,46.19163],[13.2132,46.19039],[13.21157,46.18921],[13.20925,46.18677],[13.20926,46.18671],[13.20938,46.18547],[13.20965,46.18428],[13.21057,46.18143],[13.21169,46.17644],[13.20503,46.17055],[13.20287,46.16904],[13.19912,46.16654],[13.19575,46.16484],[13.19138,46.16332],[13.18915,46.16287],[13.1861,46.16288],[13.185,46.16297],[13.18364,46.16334],[13.18244,46.16408],[13.18109,46.16452],[13.17609,46.16517],[13.17307,46.16471],[13.16932,46.16401],[13.16805,46.16336],[13.16544,46.16191],[13.16482,46.16109],[13.16054,46.16048],[13.15878,46.16043],[13.16664,46.15555],[13.17071,46.1545],[13.17715,46.15374],[13.18544,46.14689],[13.19072,46.14181],[13.19916,46.13275],[13.20159,46.13069],[13.21279,46.13461],[13.21324,46.13576],[13.21376,46.13646],[13.21428,46.13699],[13.21463,46.13703],[13.21614,46.13703],[13.21865,46.13679],[13.22127,46.13486],[13.22282,46.13307],[13.22446,46.12968],[13.22636,46.12625],[13.22685,46.12563],[13.22715,46.12602],[13.22788,46.12628],[13.23077,46.12653],[13.23287,46.12647],[13.23723,46.12573],[13.23899,46.12416],[13.2469,46.11701],[13.25017,46.11391],[13.25075,46.11313],[13.25571,46.1133],[13.26356,46.11468],[13.26703,46.11711],[13.26714,46.11677],[13.26732,46.11623],[13.26774,46.11572],[13.27713,46.10713],[13.27739,46.10689],[13.27749,46.10681],[13.27892,46.10554],[13.27959,46.10495],[13.28007,46.10453],[13.28046,46.10418],[13.2806,46.10406],[13.28124,46.10349],[13.28528,46.0998],[13.28592,46.09892],[13.28626,46.09844],[13.2863,46.09838],[13.2888,46.09468],[13.29039,46.09224],[13.29062,46.09178],[13.29052,46.08874],[13.2873,46.08671],[13.28707,46.08536],[13.28952,46.07946],[13.28998,46.07836],[13.29134,46.07601],[13.29308,46.06928],[13.29414,46.06457],[13.29386,46.063],[13.29377,46.06145],[13.29513,46.05715],[13.29819,46.052],[13.29927,46.05028],[13.29975,46.04963],[13.29978,46.04958],[13.29987,46.0495],[13.30085,46.0487],[13.3012,46.04844],[13.3021,46.04778],[13.31452,46.03949],[13.31489,46.0396],[13.31573,46.03986],[13.31591,46.03994],[13.31747,46.04067],[13.31792,46.04091],[13.31967,46.04182],[13.32088,46.04246],[13.33239,46.0403],[13.3322,46.04015],[13.33192,46.03993],[13.33097,46.03943],[13.32457,46.03657],[13.31922,46.03478],[13.31586,46.03321],[13.31294,46.02818],[13.31265,46.0224],[13.31263,46.01933],[13.31255,46.0165],[13.31254,46.01641],[13.31231,46.01522],[13.31184,46.01414],[13.31085,46.01221],[13.31257,46.00801],[13.31434,46.00079],[13.31875,45.99028],[13.32187,45.98667],[13.32707,45.98235],[13.33947,45.97064],[13.34632,45.96256],[13.34805,45.96081],[13.34841,45.96056],[13.35018,45.95932],[13.35067,45.95899],[13.3514,45.95742],[13.35202,45.95601],[13.35216,45.95568],[13.35278,45.95399],[13.35337,45.95318],[13.3539,45.95245],[13.35559,45.95175],[13.35963,45.95024],[13.36037,45.95012],[13.36065,45.95008],[13.37012,45.95197],[13.37605,45.9498],[13.37653,45.94978],[13.37714,45.94976],[13.37932,45.9494],[13.38297,45.94809],[13.38631,45.94639],[13.38603,45.94162],[13.38713,45.93707],[13.38915,45.93248],[13.3955,45.93135],[13.39991,45.93246],[13.40587,45.93546],[13.41667,45.93746],[13.42043,45.93878],[13.4204,45.93899],[13.42016,45.94052],[13.42018,45.94088],[13.42022,45.94153],[13.42468,45.94418],[13.4282,45.94742],[13.42693,45.9515],[13.42822,45.95335],[13.43114,45.9547],[13.43878,45.95606],[13.44231,45.95707],[13.44278,45.95793],[13.44279,45.95892],[13.44264,45.95971],[13.43861,45.97009],[13.43664,45.97207],[13.43695,45.97266],[13.43793,45.97349],[13.43799,45.97355],[13.43801,45.97357],[13.43976,45.97471],[13.44041,45.97512],[13.44103,45.9755],[13.4416,45.97583],[13.44211,45.97614],[13.44225,45.97622],[13.44355,45.97669],[13.45223,45.98298],[13.45864,45.98539],[13.45964,45.98464],[13.46051,45.98429],[13.46203,45.98398],[13.46319,45.98395],[13.46323,45.98395],[13.46448,45.98421],[13.46494,45.98482],[13.46489,45.98565],[13.46484,45.98607],[13.46428,45.99014],[13.46606,45.99831],[13.46074,46.00136],[13.46025,46.00545],[13.46174,46.00566],[13.46304,46.006],[13.46437,46.00673],[13.47011,46.01121],[13.47106,46.01251],[13.4716,46.01632],[13.47395,46.02326],[13.47934,46.03767],[13.48326,46.04362],[13.48897,46.0483],[13.49066,46.04826],[13.49095,46.04829],[13.49199,46.04839],[13.49211,46.04841],[13.49272,46.04857],[13.49356,46.04879],[13.49477,46.04931],[13.49696,46.05136],[13.49678,46.05701],[13.4983,46.05919],[13.50096,46.06166],[13.50215,46.06234],[13.50346,46.06262],[13.50429,46.06259],[13.50789,46.06145],[13.51299,46.0621],[13.51973,46.06432],[13.52995,46.0677],[13.53346,46.07075],[13.53797,46.07524],[13.54334,46.08072],[13.54692,46.08322],[13.55264,46.084],[13.57209,46.08862],[13.57369,46.09017],[13.57569,46.09214],[13.57677,46.094],[13.57771,46.09531],[13.57913,46.0967],[13.58069,46.09821],[13.58297,46.09965],[13.58932,46.10177],[13.59458,46.10371],[13.60002,46.10888],[13.60254,46.11305],[13.601,46.11509],[13.60009,46.11579],[13.59819,46.11639],[13.59631,46.11695],[13.59588,46.11664],[13.59397,46.11473],[13.5847,46.11056],[13.58348,46.11012],[13.58173,46.10961],[13.57706,46.1086],[13.57665,46.10856],[13.57383,46.10835],[13.57363,46.10834],[13.57263,46.10826],[13.5717,46.10831],[13.57062,46.10857],[13.57042,46.10872],[13.56131,46.10369],[13.55242,46.09832],[13.54926,46.09627],[13.54553,46.09372],[13.54463,46.09329],[13.54261,46.09297],[13.54132,46.09305],[13.5401,46.09313],[13.53792,46.09334],[13.53593,46.09476],[13.53471,46.09574],[13.53423,46.09622],[13.5336,46.09712],[13.52267,46.09574],[13.5221,46.09561],[13.52143,46.09545],[13.51833,46.09533],[13.51681,46.09556],[13.5141,46.09699],[13.50987,46.09931],[13.51552,46.10197],[13.51591,46.103],[13.51563,46.10358],[13.50654,46.11279],[13.50571,46.11356],[13.50533,46.11367],[13.50508,46.11374],[13.50488,46.11377],[13.5044,46.11383],[13.5043,46.11385],[13.50017,46.11434],[13.49841,46.11434],[13.49713,46.11484],[13.49592,46.11887],[13.4978,46.11985],[13.49943,46.12015],[13.50261,46.12003],[13.50382,46.12015],[13.50756,46.12168],[13.51084,46.12306],[13.51206,46.12412],[13.51096,46.12741],[13.51443,46.13809],[13.51999,46.14035],[13.52976,46.14603],[13.53594,46.14667],[13.53152,46.15069],[13.52896,46.15243],[13.52745,46.15363],[13.52582,46.15582],[13.52517,46.15676],[13.5243,46.15822],[13.52391,46.15925],[13.52367,46.16078],[13.52596,46.16205],[13.53123,46.1649],[13.53276,46.1719],[13.53122,46.17516],[13.5299,46.17548],[13.52794,46.17609],[13.51994,46.1787],[13.51821,46.17945],[13.51767,46.17993],[13.5171,46.17497],[13.51536,46.17029],[13.51211,46.16553],[13.51153,46.16501],[13.51058,46.16487],[13.50951,46.16518],[13.50842,46.16556],[13.50803,46.16593],[13.50723,46.16673],[13.50654,46.16755],[13.50282,46.16735],[13.49809,46.16623],[13.49596,46.16571],[13.48945,46.159],[13.48692,46.15573],[13.48569,46.15145],[13.48633,46.1486],[13.48592,46.14591],[13.48261,46.14228],[13.46888,46.13329],[13.45985,46.13539],[13.45831,46.13865],[13.45791,46.14045],[13.45829,46.14196],[13.45881,46.14313],[13.454,46.15177],[13.44779,46.15981],[13.44641,46.16747],[13.44509,46.1713],[13.44442,46.1732],[13.44258,46.17449],[13.43643,46.1813],[13.43218,46.18684],[13.43022,46.18973],[13.4277,46.19382],[13.42551,46.19834],[13.42332,46.20444],[13.42345,46.20634],[13.41077,46.2123],[13.40493,46.21415],[13.39164,46.2118],[13.3876,46.21068],[13.38765,46.21165],[13.38699,46.21469],[13.38697,46.21471],[13.3869,46.21476],[13.38618,46.21529],[13.37732,46.2179],[13.37069,46.21966],[13.36282,46.22099],[13.36192,46.22152],[13.35922,46.22359],[13.35861,46.22426],[13.35781,46.2255],[13.35791,46.22597],[13.35636,46.22678],[13.3498,46.22683]]]]}},{"type":"Feature","properties":{"key":"carso","name":"Carso"},"geometry":{"type":"MultiPolygon","coordinates":[[[[13.75819,45.66314],[13.75712,45.66415],[13.75707,45.66415],[13.75702,45.66415],[13.75697,45.66414],[13.75695,45.66411],[13.75695,45.66407],[13.75698,45.66403],[13.757,45.664],[13.75703,45.66397],[13.75706,45.66394],[13.7571,45.66391],[13.75714,45.66387],[13.75959,45.6603],[13.76197,45.65622],[13.76203,45.65657],[13.75823,45.6631],[13.75819,45.66314]]],[[[13.83265,45.68956],[13.83157,45.69159],[13.83106,45.69264],[13.83105,45.69269],[13.83114,45.69305],[13.83115,45.6931],[13.83171,45.69466],[13.8318,45.69486],[13.83199,45.69531],[13.8324,45.69578],[13.83243,45.69581],[13.8339,45.69671],[13.83492,45.70075],[13.83406,45.7065],[13.83371,45.70724],[13.82759,45.71375],[13.82708,45.71426],[13.82592,45.715],[13.82511,45.71545],[13.82186,45.71723],[13.82052,45.71794],[13.81874,45.71882],[13.81127,45.72283],[13.81124,45.72286],[13.80942,45.72467],[13.80933,45.72477],[13.80906,45.72504],[13.80692,45.72729],[13.80663,45.72758],[13.80661,45.72761],[13.80395,45.73116],[13.802,45.735],[13.80102,45.73701],[13.8004,45.73861],[13.79983,45.73973],[13.79854,45.74108],[13.79798,45.74151],[13.7963,45.7427],[13.79302,45.74439],[13.78926,45.74607],[13.78832,45.74649],[13.78675,45.74708],[13.78361,45.74823],[13.78221,45.74843],[13.77855,45.74857],[13.77436,45.7488],[13.76923,45.75018],[13.76545,45.75217],[13.75543,45.75546],[13.74626,45.75523],[13.73589,45.75965],[13.736,45.76158],[13.73707,45.76173],[13.73542,45.7629],[13.73302,45.76459],[13.72996,45.76664],[13.72934,45.76684],[13.72784,45.76732],[13.72243,45.76889],[13.72125,45.76922],[13.71265,45.77294],[13.70906,45.77464],[13.70459,45.77705],[13.70265,45.77831],[13.70106,45.77939],[13.69854,45.78124],[13.69781,45.78186],[13.69657,45.78292],[13.69413,45.78481],[13.69396,45.78494],[13.69209,45.78631],[13.68924,45.78821],[13.68772,45.78922],[13.68431,45.79096],[13.67873,45.79376],[13.67053,45.79816],[13.65649,45.80013],[13.63732,45.79821],[13.62329,45.79825],[13.61067,45.80284],[13.6047,45.80388],[13.60331,45.80425],[13.59629,45.80794],[13.59612,45.81268],[13.59493,45.82116],[13.58932,45.83134],[13.57923,45.84059],[13.5777,45.84132],[13.57647,45.84198],[13.57446,45.84308],[13.57381,45.84662],[13.57364,45.84922],[13.57587,45.85486],[13.57727,45.85788],[13.57727,45.85752],[13.57723,45.85633],[13.57722,45.85575],[13.57716,45.85346],[13.57716,45.85333],[13.57865,45.85476],[13.57874,45.85486],[13.57895,45.85511],[13.58006,45.85642],[13.58015,45.85654],[13.5803,45.85674],[13.58044,45.85693],[13.58064,45.85719],[13.58332,45.86126],[13.58364,45.86196],[13.58378,45.86253],[13.58396,45.86487],[13.59105,45.87318],[13.59094,45.885],[13.59033,45.88832],[13.59387,45.88689],[13.59412,45.88682],[13.59432,45.88682],[13.59454,45.88684],[13.59638,45.88695],[13.59652,45.88698],[13.59684,45.88716],[13.59685,45.88719],[13.59686,45.88726],[13.59687,45.8873],[13.59688,45.88749],[13.59676,45.88772],[13.59627,45.88841],[13.59466,45.8901],[13.59499,45.89154],[13.59987,45.89533],[13.5999,45.89535],[13.60085,45.89585],[13.60178,45.89635],[13.60188,45.8964],[13.60433,45.89753],[13.60497,45.89779],[13.6071,45.89868],[13.60835,45.89904],[13.60886,45.89916],[13.61209,45.90464],[13.6136,45.90747],[13.6098,45.90662],[13.59454,45.90843],[13.59197,45.90878],[13.58756,45.90953],[13.58682,45.90965],[13.58655,45.9097],[13.58398,45.91121],[13.58378,45.91143],[13.58435,45.91228],[13.58543,45.91376],[13.58746,45.91643],[13.58788,45.91694],[13.58868,45.91785],[13.58925,45.91831],[13.58936,45.91839],[13.58919,45.91848],[13.58892,45.91858],[13.58539,45.91796],[13.57311,45.91536],[13.56962,45.91395],[13.56464,45.91164],[13.56441,45.91153],[13.56351,45.91111],[13.55689,45.90861],[13.5532,45.89894],[13.54192,45.89848],[13.53984,45.8983],[13.53819,45.8981],[13.5368,45.89793],[13.53665,45.89791],[13.5317,45.89714],[13.53038,45.89693],[13.53022,45.8969],[13.51981,45.89241],[13.51475,45.88979],[13.51009,45.88748],[13.49834,45.88166],[13.49261,45.87999],[13.48618,45.87887],[13.48505,45.8787],[13.48484,45.87867],[13.48364,45.87847],[13.48345,45.87844],[13.48226,45.87825],[13.4796,45.87732],[13.47746,45.87655],[13.47403,45.8752],[13.4736,45.87488],[13.47426,45.87432],[13.47494,45.874],[13.46983,45.86821],[13.46696,45.86574],[13.47128,45.86212],[13.47286,45.86012],[13.47259,45.85754],[13.47271,45.85187],[13.47629,45.85091],[13.48339,45.84816],[13.47616,45.84859],[13.47521,45.84793],[13.47441,45.84614],[13.4752,45.84374],[13.47533,45.84366],[13.47618,45.84313],[13.4739,45.84009],[13.47523,45.83637],[13.47622,45.83478],[13.4766,45.83244],[13.47587,45.83112],[13.4739,45.82824],[13.47151,45.82642],[13.46906,45.82561],[13.47376,45.81832],[13.47872,45.81637],[13.49613,45.81011],[13.49723,45.80986],[13.49814,45.80967],[13.4983,45.80963],[13.49848,45.8096],[13.49879,45.80954],[13.4993,45.80944],[13.50328,45.80977],[13.50407,45.80993],[13.50543,45.81045],[13.5051,45.81004],[13.50508,45.80999],[13.5048,45.80939],[13.50473,45.80871],[13.5054,45.80668],[13.50575,45.80598],[13.50643,45.80564],[13.50755,45.80555],[13.50883,45.80553],[13.50986,45.80557],[13.5122,45.80596],[13.5177,45.8053],[13.5177,45.79989],[13.51749,45.79955],[13.51719,45.79936],[13.51537,45.79866],[13.5124,45.79765],[13.51113,45.79656],[13.512,45.79424],[13.51336,45.79135],[13.51606,45.78641],[13.51969,45.77788],[13.52037,45.77585],[13.52055,45.77559],[13.52072,45.77532],[13.52154,45.7747],[13.52481,45.77286],[13.52724,45.77199],[13.52796,45.77186],[13.53147,45.77549],[13.53333,45.7773],[13.53486,45.77855],[13.5362,45.77955],[13.53727,45.78034],[13.54088,45.78244],[13.54429,45.78403],[13.54753,45.78317],[13.54788,45.78285],[13.5467,45.78563],[13.54574,45.78686],[13.54196,45.78637],[13.54125,45.78612],[13.54062,45.78579],[13.53925,45.7843],[13.53721,45.78321],[13.53212,45.78579],[13.53003,45.78811],[13.52993,45.78883],[13.53238,45.78999],[13.53288,45.78993],[13.53336,45.78976],[13.53865,45.78824],[13.54353,45.79169],[13.54462,45.79328],[13.54481,45.79553],[13.54475,45.79564],[13.54463,45.7958],[13.54188,45.79885],[13.53947,45.80125],[13.53927,45.80144],[13.53886,45.8018],[13.53863,45.80196],[13.53843,45.80212],[13.53817,45.80225],[13.53772,45.80247],[13.53719,45.80273],[13.53702,45.80281],[13.53645,45.80304],[13.53604,45.80317],[13.53525,45.80338],[13.53505,45.80343],[13.53477,45.80344],[13.53464,45.80342],[13.5345,45.80343],[13.5342,45.80352],[13.53349,45.80379],[13.53346,45.8038],[13.53285,45.80408],[13.53345,45.80473],[13.53766,45.8029],[13.53869,45.80242],[13.53909,45.8022],[13.54066,45.80131],[13.54088,45.80115],[13.54115,45.80092],[13.54176,45.80039],[13.54209,45.80008],[13.54232,45.79983],[13.54258,45.79956],[13.5428,45.79931],[13.54515,45.79662],[13.54762,45.79364],[13.54791,45.79324],[13.54856,45.79219],[13.55009,45.79039],[13.5517,45.78854],[13.55694,45.78255],[13.56191,45.77842],[13.57272,45.77621],[13.5799,45.77701],[13.58089,45.78176],[13.58325,45.77975],[13.59311,45.77502],[13.59896,45.77281],[13.60556,45.77191],[13.6162,45.77103],[13.62581,45.76948],[13.63101,45.76807],[13.63392,45.766],[13.63441,45.76504],[13.63429,45.76496],[13.6343,45.76482],[13.63468,45.76421],[13.6365,45.76252],[13.64159,45.75796],[13.64276,45.75701],[13.6436,45.75635],[13.65137,45.75203],[13.66028,45.74641],[13.6684,45.7416],[13.67226,45.73955],[13.67577,45.73764],[13.67678,45.73709],[13.67683,45.73706],[13.67695,45.73698],[13.68041,45.7343],[13.69275,45.72431],[13.70148,45.71738],[13.70323,45.71629],[13.70881,45.71262],[13.71177,45.71051],[13.71208,45.71027],[13.71212,45.71022],[13.71253,45.70972],[13.71321,45.7087],[13.71349,45.70823],[13.71368,45.7079],[13.71369,45.70788],[13.71361,45.70737],[13.71347,45.70685],[13.71346,45.70682],[13.71331,45.70638],[13.71329,45.70634],[13.71326,45.70631],[13.71196,45.70531],[13.71836,45.70147],[13.72235,45.70061],[13.73301,45.69641],[13.73315,45.69634],[13.73335,45.69624],[13.73339,45.69622],[13.73345,45.69619],[13.73359,45.69611],[13.73364,45.69607],[13.7337,45.69604],[13.73416,45.69574],[13.73481,45.69533],[13.73491,45.69526],[13.73501,45.69519],[13.74446,45.68806],[13.75341,45.68048],[13.75368,45.67987],[13.75387,45.6789],[13.75389,45.67876],[13.75395,45.67809],[13.75301,45.67745],[13.75914,45.66562],[13.7602,45.66361],[13.76033,45.66339],[13.7625,45.65962],[13.76486,45.66027],[13.7658,45.65885],[13.76641,45.65792],[13.7668,45.65729],[13.76926,45.65296],[13.76854,45.65211],[13.76834,45.65194],[13.76813,45.65178],[13.76769,45.65151],[13.76478,45.64982],[13.75998,45.64668],[13.75652,45.64908],[13.75466,45.64998],[13.74975,45.64531],[13.74868,45.64404],[13.74731,45.63947],[13.75216,45.63742],[13.75606,45.63633],[13.75917,45.63244],[13.75493,45.63124],[13.75611,45.62917],[13.75685,45.62789],[13.75839,45.62832],[13.76267,45.62953],[13.76598,45.6305],[13.76601,45.63228],[13.76627,45.63454],[13.76655,45.63681],[13.76664,45.63694],[13.76679,45.63692],[13.77364,45.63531],[13.7764,45.63412],[13.77674,45.63395],[13.77814,45.63121],[13.77816,45.63117],[13.7739,45.62981],[13.77375,45.62901],[13.77379,45.6238],[13.77561,45.62043],[13.77625,45.61933],[13.77891,45.61655],[13.77902,45.61645],[13.77945,45.61609],[13.77981,45.6158],[13.7839,45.61303],[13.79698,45.6111],[13.8076,45.61258],[13.8047,45.60959],[13.80739,45.60685],[13.80446,45.60944],[13.80267,45.60903],[13.80214,45.60879],[13.8006,45.60808],[13.79742,45.60662],[13.79729,45.60653],[13.79659,45.6059],[13.79651,45.60567],[13.79651,45.60493],[13.79596,45.6041],[13.79394,45.60294],[13.78565,45.59895],[13.78343,45.59873],[13.78142,45.59911],[13.77961,45.59954],[13.77944,45.59961],[13.77889,45.60002],[13.77883,45.60007],[13.7787,45.60017],[13.77837,45.60046],[13.77775,45.60108],[13.77768,45.60122],[13.77289,45.60454],[13.7652,45.60629],[13.75683,45.60807],[13.74781,45.60873],[13.73952,45.6096],[13.73112,45.60875],[13.72011,45.60584],[13.71951,45.60288],[13.71983,45.60054],[13.72306,45.59478],[13.7298,45.59535],[13.74046,45.59701],[13.74596,45.5978],[13.74955,45.5967],[13.76248,45.59176],[13.7665,45.58999],[13.76858,45.58892],[13.7693,45.58859],[13.77446,45.58651],[13.77836,45.58506],[13.78105,45.58412],[13.78211,45.58385],[13.78217,45.58383],[13.7872,45.5829],[13.78972,45.58262],[13.81053,45.58093],[13.81423,45.58116],[13.81433,45.58116],[13.82167,45.58171],[13.83867,45.58249],[13.84108,45.58283],[13.84938,45.58478],[13.85072,45.58722],[13.85158,45.58967],[13.85281,45.59155],[13.85351,45.5922],[13.85469,45.59285],[13.85914,45.59497],[13.86003,45.59536],[13.86159,45.59564],[13.86829,45.6051],[13.87412,45.61043],[13.88153,45.61297],[13.90277,45.6231],[13.90693,45.62509],[13.91807,45.63114],[13.91885,45.63357],[13.91614,45.63521],[13.90442,45.64191],[13.90313,45.64257],[13.90137,45.64301],[13.90131,45.64302],[13.90054,45.64318],[13.89981,45.64333],[13.89958,45.64336],[13.89836,45.64349],[13.8963,45.64384],[13.89125,45.64588],[13.88912,45.64693],[13.87922,45.65201],[13.86763,45.65919],[13.85969,45.66446],[13.85922,45.66477],[13.8587,45.66519],[13.85813,45.66567],[13.85764,45.66621],[13.8576,45.66625],[13.85621,45.66785],[13.85603,45.66807],[13.85156,45.67315],[13.84656,45.67879],[13.84486,45.68056],[13.84369,45.68136],[13.84228,45.6822],[13.83862,45.68438],[13.8355,45.68613],[13.83307,45.68885],[13.83265,45.68956]]]]}}]}