{"type":"FeatureCollection","_provenance":{"authority":"ISTAT (comune geometry, openpolis/geojson-italy) / MASAF disciplinari (comune membership)","licence":"CC BY 4.0","method":"comune-union: ISTAT comuni dissolved per disciplinare comune lists (comune-level approximation; interior rings dropped, 5dp). Partial-territory comuni are included whole.","reviewed_at":"2026-09-07"},"features":[{"type":"Feature","properties":{"name":"frascati","comuni_count":4},"geometry":{"type":"MultiPolygon","coordinates":[[[[12.63842,41.80964],[12.63786,41.80839],[12.63717,41.80352],[12.63957,41.80225],[12.64271,41.80065],[12.64693,41.79858],[12.65048,41.79718],[12.65225,41.79612],[12.65328,41.79388],[12.65341,41.79345],[12.65353,41.79305],[12.6536,41.79278],[12.65361,41.79272],[12.65363,41.79261],[12.65351,41.79226],[12.65277,41.79154],[12.65267,41.79147],[12.65264,41.79145],[12.65254,41.7914],[12.65243,41.79135],[12.65239,41.79133],[12.65232,41.79132],[12.65224,41.7913],[12.6521,41.79129],[12.65197,41.79128],[12.6519,41.79128],[12.65187,41.79129],[12.65166,41.79131],[12.65146,41.79136],[12.6513,41.79141],[12.64976,41.7919],[12.64815,41.79245],[12.64592,41.79336],[12.64587,41.79339],[12.64582,41.79341],[12.64576,41.79344],[12.64571,41.79347],[12.64567,41.79349],[12.64563,41.79352],[12.64559,41.79355],[12.64555,41.79358],[12.64544,41.79368],[12.6454,41.79371],[12.64532,41.79379],[12.64528,41.79383],[12.64525,41.79387],[12.64522,41.7939],[12.64519,41.79395],[12.64511,41.79413],[12.64511,41.79417],[12.64444,41.79676],[12.64325,41.7969],[12.6409,41.79711],[12.63818,41.7963],[12.63656,41.79497],[12.6386,41.79128],[12.64052,41.78994],[12.64363,41.78695],[12.6439,41.78581],[12.6436,41.78393],[12.64384,41.78068],[12.64406,41.78013],[12.64416,41.77989],[12.6447,41.77931],[12.64474,41.77928],[12.64504,41.77899],[12.64521,41.77884],[12.64525,41.7788],[12.65059,41.77515],[12.65063,41.77514],[12.65244,41.77477],[12.65418,41.77483],[12.65766,41.77505],[12.66454,41.77618],[12.67082,41.77657],[12.67466,41.77567],[12.67796,41.77374],[12.6806,41.77139],[12.68402,41.77242],[12.68775,41.77692],[12.68985,41.77972],[12.69615,41.78208],[12.69954,41.78233],[12.70136,41.78211],[12.70496,41.78177],[12.70878,41.78145],[12.71202,41.78128],[12.71249,41.78126],[12.71425,41.78135],[12.72087,41.78199],[12.72904,41.78199],[12.73927,41.77836],[12.73866,41.7827],[12.73847,41.78765],[12.74416,41.79543],[12.74611,41.7975],[12.74893,41.79857],[12.75067,41.79868],[12.75517,41.80454],[12.75557,41.80579],[12.75715,41.80789],[12.75984,41.80781],[12.75997,41.8144],[12.76002,41.81496],[12.76007,41.81536],[12.76008,41.81566],[12.76008,41.81606],[12.75986,41.81715],[12.75972,41.81772],[12.75952,41.81831],[12.75927,41.81877],[12.75892,41.81921],[12.74946,41.83061],[12.74599,41.83155],[12.74349,41.8315],[12.74246,41.83123],[12.73828,41.83003],[12.72893,41.82707],[12.72663,41.82683],[12.72646,41.82682],[12.72642,41.82684],[12.7262,41.82722],[12.72585,41.82794],[12.72535,41.82899],[12.72534,41.82921],[12.72532,41.82952],[12.72532,41.82967],[12.72538,41.82984],[12.72576,41.83067],[12.72613,41.83107],[12.72502,41.83606],[12.72501,41.8361],[12.72495,41.83627],[12.72484,41.83644],[12.72462,41.8368],[12.72428,41.83733],[12.72398,41.83766],[12.72394,41.83769],[12.72389,41.83772],[12.72381,41.83777],[12.71624,41.84019],[12.71295,41.8389],[12.71185,41.83805],[12.7117,41.83789],[12.71141,41.83699],[12.70757,41.83403],[12.70757,41.83431],[12.70756,41.83446],[12.70752,41.83473],[12.70745,41.83518],[12.70722,41.83632],[12.70579,41.83902],[12.70574,41.83908],[12.70542,41.83947],[12.70528,41.83963],[12.70524,41.83966],[12.7046,41.84006],[12.70304,41.84131],[12.70104,41.84227],[12.69888,41.84303],[12.68898,41.84392],[12.68951,41.84345],[12.68962,41.84327],[12.68999,41.84253],[12.69007,41.84201],[12.69016,41.84052],[12.68997,41.84051],[12.68844,41.84043],[12.6876,41.84042],[12.68405,41.84047],[12.68359,41.84444],[12.6837,41.84456],[12.68378,41.84486],[12.6838,41.84503],[12.68387,41.84579],[12.68384,41.84625],[12.68302,41.84869],[12.6827,41.8492],[12.68246,41.84944],[12.68081,41.85026],[12.67909,41.85101],[12.67652,41.85198],[12.675,41.85222],[12.66513,41.85151],[12.65714,41.85044],[12.6572,41.85042],[12.65726,41.8504],[12.65748,41.85032],[12.65754,41.8503],[12.6577,41.85023],[12.6578,41.85019],[12.65799,41.85011],[12.65805,41.85008],[12.6581,41.85006],[12.6583,41.84994],[12.65836,41.84991],[12.65849,41.84983],[12.65853,41.8498],[12.65857,41.84978],[12.65861,41.84975],[12.65865,41.84972],[12.65873,41.84967],[12.65876,41.84964],[12.65889,41.84955],[12.65893,41.84952],[12.65897,41.84948],[12.65901,41.84945],[12.65904,41.84941],[12.65926,41.84921],[12.66268,41.84567],[12.66368,41.84431],[12.66359,41.84111],[12.6633,41.84087],[12.66269,41.84043],[12.66177,41.84053],[12.6617,41.84054],[12.66146,41.84057],[12.66097,41.84063],[12.66073,41.84066],[12.66,41.84095],[12.65996,41.84099],[12.65992,41.84103],[12.65988,41.84106],[12.65976,41.8412],[12.65973,41.84123],[12.65951,41.8415],[12.65895,41.84225],[12.65714,41.84471],[12.65523,41.84732],[12.65514,41.84745],[12.6551,41.84748],[12.6545,41.848],[12.65447,41.84802],[12.65443,41.84806],[12.65439,41.84809],[12.65435,41.84812],[12.65397,41.84839],[12.65392,41.84843],[12.65361,41.84865],[12.65356,41.84868],[12.65125,41.85024],[12.65114,41.85013],[12.65102,41.84999],[12.65014,41.84896],[12.64973,41.84847],[12.65077,41.84273],[12.653,41.83288],[12.65169,41.83211],[12.64516,41.834],[12.64085,41.83224],[12.64018,41.82977],[12.64506,41.82586],[12.64886,41.82548],[12.65397,41.82433],[12.6573,41.82309],[12.65908,41.82141],[12.66088,41.81835],[12.66045,41.81809],[12.65999,41.81785],[12.65937,41.81754],[12.65891,41.81738],[12.65861,41.81729],[12.65531,41.81658],[12.65365,41.81638],[12.65248,41.81626],[12.6518,41.81619],[12.65162,41.8162],[12.6511,41.81662],[12.64671,41.81979],[12.64451,41.82137],[12.63154,41.82848],[12.62956,41.82547],[12.62843,41.81832],[12.62871,41.81823],[12.6292,41.81808],[12.63047,41.81765],[12.63102,41.81727],[12.63181,41.81649],[12.63721,41.81098],[12.63842,41.80964]]],[[[12.68159,41.75545],[12.68663,41.75762],[12.68827,41.76298],[12.68352,41.76896],[12.67985,41.76622],[12.67975,41.76587],[12.67887,41.76408],[12.67848,41.76338],[12.6767,41.76086],[12.676,41.76008],[12.67578,41.75991],[12.67547,41.75966],[12.67543,41.75963],[12.68159,41.75545]]],[[[12.74121,41.83214],[12.74118,41.83217],[12.74092,41.83252],[12.7403,41.83338],[12.74108,41.83403],[12.74151,41.83426],[12.74227,41.8346],[12.74281,41.83478],[12.74506,41.83502],[12.74704,41.83707],[12.74639,41.84001],[12.74005,41.84061],[12.73785,41.84034],[12.73795,41.83879],[12.73917,41.8348],[12.74017,41.83268],[12.74053,41.83206],[12.74081,41.83208],[12.74121,41.83214]]],[[[12.72775,41.88646],[12.7237,41.88661],[12.71283,41.88797],[12.70542,41.89011],[12.70436,41.89041],[12.69861,41.8902],[12.69903,41.88243],[12.69906,41.88229],[12.69949,41.88155],[12.7048,41.868],[12.70506,41.8666],[12.70528,41.86547],[12.70532,41.86544],[12.70535,41.86541],[12.70549,41.8653],[12.70581,41.86505],[12.71302,41.86068],[12.7169,41.85977],[12.72019,41.85829],[12.72756,41.85021],[12.73341,41.84786],[12.73808,41.84175],[12.73889,41.84297],[12.74482,41.85554],[12.74481,41.85691],[12.74477,41.86035],[12.74469,41.86447],[12.7446,41.86498],[12.74449,41.86564],[12.74375,41.86723],[12.73979,41.87352],[12.73828,41.87585],[12.73659,41.87655],[12.73116,41.87998],[12.73022,41.88072],[12.72958,41.88123],[12.7278,41.88267],[12.72759,41.88289],[12.72668,41.88462],[12.72731,41.88571],[12.72775,41.88646]]]]}},{"type":"Feature","properties":{"name":"marino","comuni_count":3},"geometry":{"type":"MultiPolygon","coordinates":[[[[12.59923,41.73608],[12.59601,41.7298],[12.60355,41.73264],[12.60519,41.73275],[12.60637,41.73282],[12.6071,41.73276],[12.60773,41.73237],[12.60821,41.73174],[12.60824,41.73168],[12.60865,41.73091],[12.6083,41.73048],[12.60763,41.73003],[12.6076,41.73001],[12.60787,41.72962],[12.60843,41.7289],[12.61037,41.72675],[12.61259,41.72489],[12.61798,41.72552],[12.6181,41.72554],[12.61939,41.72576],[12.61985,41.72584],[12.6206,41.72597],[12.62075,41.726],[12.62473,41.72692],[12.63235,41.72909],[12.63582,41.73075],[12.63386,41.73813],[12.64441,41.73893],[12.65283,41.73468],[12.65572,41.73402],[12.65473,41.73498],[12.65159,41.7405],[12.64979,41.74391],[12.64841,41.74659],[12.64838,41.7468],[12.64885,41.74849],[12.64894,41.74876],[12.64926,41.7489],[12.6502,41.74609],[12.65064,41.74483],[12.65097,41.74422],[12.65399,41.74119],[12.65571,41.73984],[12.66039,41.73535],[12.66537,41.73399],[12.66601,41.73389],[12.67401,41.73281],[12.68208,41.7355],[12.68523,41.73655],[12.68605,41.73747],[12.68677,41.73849],[12.68718,41.74033],[12.68741,41.74154],[12.68715,41.74273],[12.68502,41.74786],[12.68368,41.75091],[12.68376,41.75096],[12.68381,41.75099],[12.68395,41.75108],[12.68607,41.75235],[12.68159,41.75545],[12.67543,41.75963],[12.67547,41.75966],[12.67578,41.75991],[12.676,41.76008],[12.6767,41.76086],[12.67848,41.76338],[12.67887,41.76408],[12.67975,41.76587],[12.67985,41.76622],[12.68352,41.76896],[12.68402,41.77242],[12.6806,41.77139],[12.67796,41.77374],[12.67466,41.77567],[12.67082,41.77657],[12.66454,41.77618],[12.65766,41.77505],[12.65418,41.77483],[12.65244,41.77477],[12.65063,41.77514],[12.65059,41.77515],[12.64525,41.7788],[12.64521,41.77884],[12.64504,41.77899],[12.64474,41.77928],[12.6447,41.77931],[12.64416,41.77989],[12.64406,41.78013],[12.64384,41.78068],[12.6436,41.78393],[12.6439,41.78581],[12.64363,41.78695],[12.64052,41.78994],[12.6386,41.79128],[12.63656,41.79497],[12.63818,41.7963],[12.63764,41.79793],[12.63157,41.80466],[12.63077,41.80534],[12.63069,41.8054],[12.63064,41.80544],[12.63041,41.8056],[12.62964,41.80615],[12.62874,41.80655],[12.62757,41.80698],[12.62343,41.80784],[12.6231,41.8078],[12.62298,41.80738],[12.62297,41.80731],[12.62301,41.80727],[12.62305,41.80724],[12.6232,41.80716],[12.6217,41.80568],[12.61955,41.8057],[12.61545,41.80625],[12.60355,41.80885],[12.59685,41.81493],[12.5928,41.81899],[12.58846,41.81624],[12.588,41.8082],[12.58938,41.80623],[12.59122,41.80364],[12.5943,41.79957],[12.59435,41.79954],[12.59889,41.79743],[12.59686,41.79141],[12.59237,41.78611],[12.59036,41.78304],[12.59008,41.7799],[12.58966,41.77545],[12.58938,41.77424],[12.58826,41.76982],[12.58806,41.76911],[12.58742,41.76801],[12.58733,41.76788],[12.58725,41.76775],[12.5867,41.76711],[12.58651,41.76687],[12.58759,41.75954],[12.59484,41.75894],[12.5953,41.75889],[12.59541,41.75887],[12.59554,41.75886],[12.5958,41.75882],[12.59629,41.75875],[12.59643,41.75872],[12.59659,41.75868],[12.59668,41.75865],[12.59673,41.75863],[12.5954,41.75596],[12.59447,41.75515],[12.5842,41.75225],[12.58687,41.74545],[12.58478,41.74229],[12.58465,41.74208],[12.58445,41.74129],[12.58467,41.73989],[12.58691,41.73948],[12.58706,41.73949],[12.58761,41.7395],[12.58999,41.73981],[12.5923,41.74036],[12.59471,41.74051],[12.59691,41.74053],[12.59847,41.73998],[12.59977,41.73913],[12.59977,41.73789],[12.59943,41.73655],[12.59923,41.73608]]]]}},{"type":"Feature","properties":{"name":"cesanese-del-piglio","comuni_count":5},"geometry":{"type":"MultiPolygon","coordinates":[[[[13.12186,41.84743],[13.11389,41.8518],[13.10512,41.85725],[13.10146,41.86045],[13.09986,41.86072],[13.0979,41.86104],[13.09638,41.8607],[13.0933,41.85926],[13.09142,41.85824],[13.0799,41.85542],[13.07164,41.8542],[13.06962,41.84884],[13.06779,41.83982],[13.06615,41.83532],[13.06541,41.83137],[13.06057,41.8298],[13.05358,41.82988],[13.04717,41.83193],[13.0398,41.83232],[13.03597,41.83191],[13.03523,41.83175],[13.03447,41.83134],[13.03421,41.83116],[13.03404,41.83097],[13.034,41.83092],[13.03361,41.82998],[13.03349,41.82771],[13.02565,41.82371],[13.02463,41.82439],[13.02239,41.82559],[13.01651,41.82703],[13.01494,41.82684],[13.01448,41.82678],[13.01251,41.82655],[13.00982,41.82552],[13.00934,41.82522],[13.00825,41.82118],[13.00831,41.82027],[13.00879,41.81927],[13.01056,41.81721],[13.01107,41.80906],[13.00855,41.80748],[13.00657,41.80609],[13.00597,41.8055],[13.00336,41.7994],[13.00298,41.79535],[13.00191,41.79118],[13.00014,41.78739],[12.99634,41.78227],[12.99515,41.78108],[12.99404,41.77965],[12.992,41.77202],[12.99187,41.77116],[12.99199,41.77017],[12.99221,41.76928],[12.99239,41.76861],[12.99425,41.76939],[13.00524,41.77006],[13.00983,41.76692],[13.01442,41.7606],[13.02053,41.75322],[13.02549,41.74854],[13.0326,41.7458],[13.03437,41.74328],[13.03989,41.74343],[13.04163,41.74346],[13.05128,41.74228],[13.05561,41.74018],[13.056,41.73969],[13.0546,41.73523],[13.05514,41.72972],[13.05828,41.72731],[13.06075,41.72668],[13.06063,41.72731],[13.06055,41.72776],[13.06106,41.72851],[13.06217,41.72968],[13.06297,41.73048],[13.06433,41.73089],[13.06519,41.73029],[13.06535,41.72888],[13.07013,41.72404],[13.07981,41.72094],[13.0869,41.71901],[13.08766,41.71457],[13.09145,41.71083],[13.09474,41.70564],[13.0958,41.70371],[13.09382,41.70054],[13.09332,41.69963],[13.09208,41.69701],[13.09162,41.69517],[13.09113,41.69264],[13.09084,41.68948],[13.09122,41.6874],[13.09371,41.68806],[13.09756,41.68609],[13.09915,41.67882],[13.09994,41.67971],[13.10054,41.68018],[13.10058,41.68021],[13.10144,41.68027],[13.10272,41.67989],[13.10377,41.67929],[13.10519,41.67806],[13.10888,41.67489],[13.11013,41.67415],[13.11541,41.67147],[13.11628,41.67132],[13.11635,41.67248],[13.11663,41.68017],[13.115,41.68392],[13.11451,41.68491],[13.11418,41.68658],[13.11405,41.68748],[13.11438,41.68855],[13.11542,41.69123],[13.11618,41.69188],[13.11765,41.69236],[13.11944,41.69271],[13.13266,41.69514],[13.13707,41.69464],[13.13714,41.69463],[13.13893,41.69436],[13.13908,41.69421],[13.1395,41.6938],[13.13932,41.69333],[13.13904,41.6926],[13.14238,41.69004],[13.14772,41.68774],[13.14878,41.68776],[13.15146,41.6879],[13.15234,41.68802],[13.15306,41.68848],[13.15416,41.69011],[13.16123,41.69191],[13.16745,41.69198],[13.16735,41.69071],[13.16687,41.68764],[13.17211,41.68273],[13.18815,41.67682],[13.19658,41.67377],[13.19744,41.67469],[13.20116,41.67834],[13.20567,41.68732],[13.20642,41.69175],[13.21395,41.69915],[13.20993,41.70406],[13.20787,41.70632],[13.20613,41.71024],[13.20537,41.71354],[13.20531,41.71385],[13.20501,41.7161],[13.20518,41.71647],[13.20705,41.71797],[13.21373,41.72298],[13.22144,41.72462],[13.22988,41.7268],[13.23857,41.73181],[13.24613,41.73225],[13.24524,41.73234],[13.24416,41.73265],[13.24303,41.73304],[13.24278,41.73325],[13.24223,41.73371],[13.24168,41.73454],[13.24093,41.73597],[13.23837,41.73874],[13.23583,41.74046],[13.23189,41.74182],[13.2302,41.74224],[13.21864,41.745],[13.20554,41.75069],[13.20489,41.751],[13.20465,41.75111],[13.20438,41.75125],[13.20389,41.75149],[13.20369,41.75159],[13.20241,41.75231],[13.19823,41.75534],[13.19728,41.75622],[13.19605,41.75743],[13.19535,41.75816],[13.19512,41.7584],[13.19414,41.75976],[13.19358,41.76065],[13.19287,41.76211],[13.19195,41.76425],[13.19139,41.76573],[13.19122,41.76811],[13.19134,41.7687],[13.19142,41.76915],[13.19163,41.76984],[13.19229,41.77059],[13.19337,41.77153],[13.1945,41.77231],[13.19568,41.77308],[13.19624,41.7734],[13.19773,41.77325],[13.19909,41.77323],[13.20708,41.77391],[13.20924,41.77415],[13.20946,41.77418],[13.21032,41.7746],[13.21061,41.77475],[13.21114,41.77561],[13.21225,41.77777],[13.21258,41.77848],[13.20937,41.78051],[13.20809,41.78136],[13.20577,41.78298],[13.19741,41.78994],[13.18745,41.80048],[13.18665,41.80149],[13.18611,41.80398],[13.18481,41.80755],[13.18463,41.80768],[13.18388,41.80824],[13.18056,41.80993],[13.17436,41.81214],[13.17725,41.8144],[13.1804,41.81629],[13.18199,41.81723],[13.18375,41.81821],[13.18627,41.81938],[13.1875,41.8199],[13.18885,41.82024],[13.19648,41.82779],[13.20175,41.83386],[13.20168,41.83429],[13.20133,41.83523],[13.20055,41.83704],[13.20024,41.83732],[13.199,41.83856],[13.19814,41.83929],[13.19704,41.83989],[13.19588,41.84048],[13.19155,41.84248],[13.18415,41.84603],[13.18015,41.84734],[13.1793,41.84762],[13.1775,41.8482],[13.1732,41.84941],[13.17229,41.84959],[13.17144,41.84975],[13.16639,41.85017],[13.16466,41.85023],[13.164,41.85026],[13.16201,41.84987],[13.15932,41.8493],[13.15835,41.84873],[13.15756,41.84755],[13.15604,41.84545],[13.15501,41.84409],[13.15448,41.84368],[13.15022,41.84361],[13.13965,41.84353],[13.13794,41.84355],[13.13649,41.84368],[13.12605,41.84611],[13.12186,41.84743]]]]}},{"type":"Feature","properties":{"name":"est-est-est-di-montefiascone","comuni_count":7},"geometry":{"type":"MultiPolygon","coordinates":[[[[12.00986,42.59966],[12.01093,42.60265],[12.01464,42.61334],[12.01473,42.61444],[12.01555,42.61909],[12.01924,42.62423],[12.02088,42.62506],[12.02248,42.62573],[12.02433,42.6261],[12.02479,42.62607],[12.02501,42.62603],[12.02514,42.626],[12.02538,42.62595],[12.02585,42.62619],[12.02615,42.62678],[12.02619,42.62686],[12.03,42.64324],[12.02993,42.65016],[12.02921,42.65045],[12.01833,42.65578],[12.00708,42.66245],[12.00239,42.66441],[11.99606,42.66738],[11.99149,42.66947],[11.97907,42.67504],[11.97798,42.67553],[11.97256,42.67682],[11.96852,42.6775],[11.96129,42.67882],[11.95466,42.68018],[11.94395,42.68262],[11.94386,42.68264],[11.94133,42.6833],[11.94126,42.6834],[11.94114,42.68356],[11.94106,42.68367],[11.94237,42.68599],[11.94733,42.69299],[11.94771,42.69344],[11.94778,42.69352],[11.94872,42.69554],[11.94876,42.69601],[11.94409,42.69767],[11.94305,42.69799],[11.9405,42.69872],[11.93893,42.69916],[11.93847,42.6992],[11.93776,42.69926],[11.93164,42.70098],[11.92654,42.70357],[11.92636,42.70372],[11.92627,42.70381],[11.9262,42.70386],[11.92613,42.70421],[11.92611,42.7043],[11.92629,42.70474],[11.92025,42.70489],[11.91525,42.70547],[11.91314,42.70594],[11.91013,42.70528],[11.90555,42.70418],[11.8977,42.70192],[11.89453,42.7007],[11.89362,42.70148],[11.89265,42.70232],[11.89211,42.70279],[11.8921,42.70363],[11.8921,42.70544],[11.88986,42.70591],[11.87947,42.70729],[11.87888,42.70714],[11.87466,42.70582],[11.86163,42.70521],[11.85329,42.70339],[11.84303,42.70048],[11.83964,42.70021],[11.83878,42.69901],[11.83672,42.69614],[11.83559,42.69377],[11.83493,42.6924],[11.83237,42.68495],[11.83069,42.68],[11.82831,42.67211],[11.82803,42.67066],[11.82796,42.67031],[11.8276,42.66736],[11.8278,42.66676],[11.82795,42.66627],[11.829,42.6643],[11.82993,42.66228],[11.82982,42.6596],[11.82934,42.65699],[11.82926,42.65657],[11.82877,42.65461],[11.8273,42.64956],[11.82449,42.63901],[11.82826,42.63619],[11.83162,42.63464],[11.8325,42.63399],[11.83282,42.6337],[11.8329,42.63363],[11.8346,42.63177],[11.83472,42.63153],[11.83497,42.63101],[11.83542,42.63008],[11.83559,42.62971],[11.83572,42.62946],[11.83663,42.62722],[11.84201,42.61164],[11.84189,42.60226],[11.84127,42.60139],[11.83794,42.59504],[11.83778,42.59435],[11.83783,42.59408],[11.83803,42.59359],[11.83811,42.59339],[11.83611,42.59088],[11.83592,42.59052],[11.83583,42.59034],[11.83573,42.59016],[11.83555,42.58968],[11.83555,42.58962],[11.83554,42.58914],[11.83557,42.58869],[11.83656,42.58403],[11.83753,42.5803],[11.83869,42.57704],[11.83932,42.57574],[11.84002,42.57421],[11.84358,42.56585],[11.84606,42.55436],[11.84598,42.55393],[11.84596,42.5539],[11.84519,42.55292],[11.8435,42.55138],[11.84312,42.55112],[11.84279,42.55089],[11.84175,42.55035],[11.84097,42.54966],[11.84073,42.54944],[11.83802,42.54609],[11.8378,42.54507],[11.84017,42.54199],[11.84141,42.54107],[11.84804,42.53907],[11.84997,42.53855],[11.85066,42.53843],[11.85115,42.53898],[11.85447,42.53819],[11.86062,42.53552],[11.86802,42.52776],[11.86831,42.52712],[11.86926,42.51788],[11.86748,42.50924],[11.86894,42.50644],[11.87092,42.50376],[11.87288,42.50091],[11.87341,42.49995],[11.87386,42.49912],[11.87629,42.48827],[11.87674,42.48463],[11.88106,42.48533],[11.88872,42.48498],[11.88861,42.48398],[11.88868,42.48335],[11.88893,42.4829],[11.88913,42.48253],[11.89195,42.48003],[11.89251,42.48001],[11.90237,42.48481],[11.90938,42.4862],[11.90957,42.48525],[11.91138,42.48477],[11.91868,42.48381],[11.92388,42.48316],[11.92779,42.48277],[11.92859,42.48371],[11.93124,42.48683],[11.93467,42.49016],[11.93674,42.49324],[11.9394,42.49947],[11.93975,42.50037],[11.94081,42.50439],[11.949,42.51859],[11.9496,42.51956],[11.95044,42.52034],[11.95093,42.52071],[11.95143,42.5211],[11.95395,42.52295],[11.95446,42.52321],[11.95784,42.5243],[11.95962,42.52442],[11.97682,42.5244],[11.98303,42.52022],[11.98935,42.51405],[11.98966,42.51325],[11.98982,42.51234],[11.99014,42.5106],[11.98989,42.50815],[11.98914,42.50596],[11.98738,42.50036],[11.9868,42.49749],[11.9868,42.49339],[11.98712,42.49104],[11.98731,42.49023],[11.98759,42.48976],[11.98786,42.48941],[11.98823,42.48933],[11.98873,42.48932],[11.98915,42.48936],[11.98975,42.48943],[11.99019,42.48948],[11.99083,42.48956],[11.99104,42.48954],[11.99164,42.4895],[11.99281,42.48901],[11.99319,42.4884],[11.99331,42.48821],[11.99294,42.48585],[11.99217,42.48182],[11.99097,42.47805],[11.98982,42.47517],[11.98962,42.47443],[11.98993,42.47289],[11.99541,42.46545],[11.99805,42.46283],[11.99962,42.46155],[12.0002,42.46128],[12.00108,42.46126],[12.00558,42.46261],[12.01099,42.46615],[12.02,42.47334],[12.02575,42.47794],[12.03349,42.48459],[12.03646,42.49014],[12.03696,42.49103],[12.03732,42.49151],[12.03987,42.49399],[12.0401,42.49415],[12.04048,42.49441],[12.0414,42.49455],[12.04244,42.49466],[12.04691,42.49498],[12.04818,42.49499],[12.05149,42.49584],[12.05062,42.49875],[12.04883,42.50245],[12.04986,42.50341],[12.0499,42.50344],[12.0509,42.50424],[12.051,42.50431],[12.05493,42.50743],[12.05541,42.50778],[12.05724,42.50912],[12.06182,42.50818],[12.07761,42.51737],[12.08541,42.52306],[12.09339,42.52912],[12.0939,42.52954],[12.09253,42.53504],[12.09133,42.53906],[12.09162,42.54953],[12.08412,42.55815],[12.0764,42.56833],[12.06925,42.57002],[12.06469,42.58148],[12.06465,42.58177],[12.06442,42.58203],[12.06415,42.58213],[12.064,42.58219],[12.06352,42.58237],[12.06155,42.58275],[12.06073,42.58287],[12.05864,42.58297],[12.05769,42.58294],[12.05307,42.58263],[12.05246,42.58104],[12.04921,42.58206],[12.04138,42.58608],[12.041,42.58644],[12.03332,42.58897],[12.03159,42.5883],[12.03059,42.58806],[12.02294,42.58827],[12.02271,42.58838],[12.02262,42.58842],[12.02195,42.58876],[12.02165,42.58891],[12.01901,42.59132],[12.01889,42.593],[12.01886,42.59495],[12.01784,42.59668],[12.01619,42.59916],[12.01408,42.60106],[12.01345,42.60116],[12.00986,42.59966]]]]}}]}