{"type":"Feature","properties":{"reg_name":"Lazio","slug":"lazio","_provenance":{"authority":"ISTAT (openpolis/geojson-italy limits_IT_regions)","licence":"CC BY 4.0","method":"mapshaper 6% simplify, interior rings dropped, 5dp"}},"geometry":{"type":"MultiPolygon","coordinates":[[[[12.25186,41.7369],[12.35215,41.69684],[12.43711,41.64077],[12.53355,41.5534],[12.57533,41.50815],[12.62235,41.4447],[12.66914,41.4565],[12.69502,41.44969],[12.76549,41.41013],[12.78913,41.41792],[12.85449,41.41151],[12.92008,41.38158],[12.98025,41.33571],[13.01752,41.28575],[13.04555,41.22679],[13.09452,41.22443],[13.10539,41.24122],[13.143,41.26328],[13.20579,41.28304],[13.2513,41.28325],[13.29161,41.29752],[13.35596,41.28665],[13.40849,41.26915],[13.47016,41.23745],[13.5192,41.22483],[13.54763,41.20749],[13.57559,41.20392],[13.56837,41.23092],[13.58266,41.24623],[13.62104,41.26072],[13.66511,41.2534],[13.68047,41.24435],[13.70604,41.25406],[13.76211,41.2226],[13.77375,41.24266],[13.81685,41.24367],[13.83981,41.26338],[13.82757,41.27746],[13.85106,41.28957],[13.88234,41.29094],[13.89474,41.31054],[13.87368,41.33562],[13.87362,41.37472],[13.88632,41.38444],[13.8618,41.41809],[13.91086,41.42868],[13.96078,41.4636],[13.97791,41.46249],[13.99278,41.48208],[13.97291,41.49404],[14.02216,41.52701],[14.02366,41.56103],[13.99781,41.57943],[14.01099,41.60754],[13.99667,41.62414],[13.98829,41.65383],[13.96736,41.67403],[13.93154,41.69437],[13.9197,41.71724],[13.89764,41.73213],[13.88059,41.7283],[13.82348,41.74088],[13.76591,41.7487],[13.74865,41.77359],[13.71649,41.7974],[13.69271,41.79152],[13.66289,41.81127],[13.63846,41.80432],[13.63127,41.78265],[13.5861,41.76643],[13.57623,41.75502],[13.52043,41.77297],[13.50441,41.80154],[13.46375,41.80945],[13.45155,41.82282],[13.40746,41.83746],[13.39151,41.81979],[13.36683,41.83307],[13.35984,41.86938],[13.38399,41.90419],[13.35656,41.92574],[13.33753,41.92598],[13.32262,41.94516],[13.28604,41.95037],[13.23154,41.98169],[13.19908,41.9865],[13.13995,42.01535],[13.10774,42.0251],[13.10132,42.00975],[13.05812,42.01555],[13.02662,42.05003],[13.01849,42.07494],[13.03701,42.119],[13.05982,42.12295],[13.08617,42.14433],[13.08706,42.17787],[13.12231,42.17712],[13.15831,42.15749],[13.19271,42.15826],[13.23723,42.12913],[13.30529,42.13826],[13.32319,42.16141],[13.35396,42.17494],[13.35223,42.19128],[13.31994,42.22964],[13.28213,42.23723],[13.27124,42.25416],[13.23864,42.27282],[13.22893,42.28718],[13.22646,42.31933],[13.19135,42.33233],[13.15335,42.35699],[13.1894,42.38111],[13.1892,42.40022],[13.15517,42.41422],[13.11617,42.44391],[13.15405,42.46233],[13.17154,42.48608],[13.17777,42.51264],[13.15736,42.52772],[13.17609,42.55265],[13.19136,42.58752],[13.26155,42.5831],[13.29126,42.57054],[13.32711,42.57994],[13.34282,42.5749],[13.38178,42.58101],[13.40828,42.64286],[13.36992,42.64897],[13.34968,42.66872],[13.35776,42.6941],[13.28776,42.73922],[13.2645,42.74018],[13.25415,42.72145],[13.18922,42.73358],[13.19066,42.71275],[13.17333,42.68731],[13.17414,42.66611],[13.14423,42.64631],[13.1305,42.6593],[13.09781,42.63631],[13.05857,42.62284],[13.01533,42.63192],[13.00432,42.61524],[12.95339,42.61902],[12.93154,42.60359],[12.89634,42.61644],[12.88009,42.60236],[12.89273,42.5635],[12.84783,42.5528],[12.82302,42.53749],[12.7732,42.53128],[12.77354,42.51309],[12.71113,42.5008],[12.74157,42.47053],[12.70279,42.4609],[12.66598,42.44097],[12.64269,42.46451],[12.62137,42.46867],[12.61196,42.43625],[12.61489,42.41448],[12.56999,42.38291],[12.54894,42.38233],[12.53123,42.36507],[12.51327,42.37862],[12.51113,42.40357],[12.48136,42.40416],[12.46671,42.41947],[12.42227,42.4216],[12.41138,42.44601],[12.4179,42.45845],[12.40352,42.49996],[12.37417,42.48113],[12.31644,42.48838],[12.26717,42.53262],[12.27504,42.55991],[12.23872,42.57201],[12.24595,42.59995],[12.22919,42.6104],[12.24334,42.62809],[12.19728,42.66385],[12.16101,42.67691],[12.14077,42.6563],[12.11954,42.64982],[12.07372,42.65667],[12.02471,42.65149],[11.97798,42.67553],[11.94133,42.6833],[11.92629,42.70474],[11.96873,42.73458],[11.97948,42.76459],[11.93131,42.77844],[11.90493,42.82789],[11.85059,42.83868],[11.81545,42.82376],[11.803,42.80097],[11.77587,42.82067],[11.75335,42.80224],[11.77942,42.75802],[11.81866,42.74577],[11.79708,42.70651],[11.78114,42.70533],[11.78452,42.67132],[11.80841,42.65975],[11.80478,42.644],[11.75183,42.6256],[11.73313,42.60606],[11.71162,42.61103],[11.68005,42.59531],[11.68594,42.58484],[11.61619,42.55987],[11.57856,42.56621],[11.58435,42.54275],[11.56124,42.51729],[11.61596,42.48864],[11.61771,42.43604],[11.54351,42.44211],[11.51658,42.43356],[11.48889,42.43937],[11.48193,42.41979],[11.44978,42.39404],[11.45113,42.37725],[11.55642,42.33839],[11.63247,42.29553],[11.69505,42.23571],[11.72068,42.19042],[11.7393,42.17132],[11.73377,42.15806],[11.75496,42.12719],[11.80731,42.07954],[11.82014,42.04954],[11.84499,42.03019],[11.91573,42.03937],[11.96389,42.01426],[11.97996,41.99645],[12.02398,41.98384],[12.04979,41.95651],[12.14074,41.91624],[12.17767,41.87353],[12.20351,41.82974],[12.22422,41.78189],[12.21984,41.77054],[12.24362,41.73787],[12.24903,41.73746],[12.25186,41.7369]]]]}}