{"type":"Feature","properties":{"reg_name":"Liguria","slug":"liguria","_provenance":{"authority":"ISTAT (openpolis/geojson-italy limits_IT_regions)","licence":"CC BY 4.0","method":"mapshaper 6% simplify, interior rings dropped, 5dp"}},"geometry":{"type":"MultiPolygon","coordinates":[[[[9.85384,44.10634],[9.88117,44.08098],[9.90919,44.07046],[9.96424,44.03727],[10.02869,44.05917],[10.06622,44.08617],[10.06926,44.098],[10.04614,44.11547],[10.01789,44.11928],[10.00213,44.10765],[9.97635,44.13955],[9.97901,44.16103],[9.96647,44.16943],[9.89237,44.16802],[9.92812,44.19561],[9.85703,44.23403],[9.85153,44.27086],[9.80571,44.2828],[9.76418,44.30552],[9.75831,44.31835],[9.72946,44.32833],[9.7063,44.36619],[9.67498,44.36471],[9.65529,44.41166],[9.63604,44.4139],[9.59817,44.43674],[9.55918,44.43814],[9.55123,44.42808],[9.4939,44.4239],[9.47903,44.40926],[9.4582,44.4422],[9.47024,44.47327],[9.4968,44.48273],[9.50461,44.52996],[9.47654,44.5652],[9.4407,44.56672],[9.42308,44.57461],[9.42131,44.5926],[9.38937,44.59022],[9.34015,44.57867],[9.30041,44.60778],[9.27223,44.59592],[9.2455,44.61965],[9.20517,44.61519],[9.20331,44.59577],[9.15255,44.57422],[9.11297,44.58111],[9.10448,44.60661],[9.07585,44.6237],[9.05368,44.62088],[9.01315,44.66679],[8.97252,44.66335],[8.95952,44.67602],[8.92788,44.67427],[8.90826,44.64682],[8.88269,44.63902],[8.90435,44.62083],[8.9175,44.56106],[8.89494,44.55537],[8.82684,44.5618],[8.8244,44.53864],[8.79511,44.52186],[8.79665,44.50011],[8.78245,44.48836],[8.76756,44.52496],[8.721,44.57987],[8.68142,44.57488],[8.66676,44.58246],[8.62017,44.57673],[8.60089,44.56782],[8.61345,44.5466],[8.57616,44.50923],[8.56006,44.50285],[8.53478,44.51335],[8.45301,44.50981],[8.4495,44.49739],[8.40388,44.50897],[8.39445,44.48023],[8.35849,44.46494],[8.35005,44.48481],[8.3208,44.4884],[8.30455,44.50265],[8.27131,44.5068],[8.25278,44.52875],[8.22416,44.51417],[8.21848,44.48183],[8.19644,44.4636],[8.22184,44.42956],[8.2035,44.40489],[8.14952,44.38479],[8.14864,44.35481],[8.13428,44.3321],[8.10697,44.33282],[8.10196,44.30093],[8.07602,44.31396],[8.05974,44.3007],[8.0886,44.2743],[8.0631,44.25307],[8.08062,44.24171],[8.06536,44.21694],[8.08796,44.20316],[8.09419,44.17541],[8.06731,44.14469],[8.04293,44.14283],[8.00945,44.15561],[7.97893,44.13354],[8.00663,44.1257],[8.00463,44.10233],[7.97153,44.1131],[7.9372,44.09975],[7.92596,44.1103],[7.88394,44.10466],[7.86612,44.11816],[7.81531,44.12324],[7.77514,44.13997],[7.74602,44.13536],[7.72312,44.12082],[7.7193,44.10448],[7.74008,44.07732],[7.72777,44.06028],[7.66231,44.02749],[7.67034,43.99823],[7.6521,43.97352],[7.60888,43.95604],[7.5878,43.95542],[7.55971,43.91655],[7.56264,43.90066],[7.51517,43.88383],[7.49479,43.85596],[7.50678,43.83822],[7.5296,43.78425],[7.55574,43.77978],[7.58834,43.79202],[7.67322,43.77603],[7.71186,43.80113],[7.73647,43.79548],[7.75287,43.80693],[7.80556,43.82329],[7.83036,43.81621],[7.87211,43.83607],[7.90783,43.83726],[7.96561,43.85209],[7.96874,43.85993],[8.01501,43.87201],[8.04057,43.88744],[8.06643,43.88886],[8.0942,43.91695],[8.12829,43.92691],[8.14205,43.94761],[8.17396,43.95794],[8.16139,43.97014],[8.1687,44.00096],[8.22605,44.04401],[8.22677,44.08036],[8.23749,44.10218],[8.26907,44.13932],[8.2916,44.15215],[8.32907,44.16126],[8.42225,44.19257],[8.41585,44.22091],[8.45633,44.2584],[8.44236,44.26521],[8.44813,44.28545],[8.48607,44.30832],[8.50935,44.32845],[8.52627,44.33137],[8.62435,44.37186],[8.6402,44.38652],[8.67825,44.39265],[8.69293,44.40835],[8.74132,44.42658],[8.77561,44.42038],[8.83129,44.421],[8.87137,44.40523],[8.88697,44.40738],[8.95197,44.39126],[9.06981,44.3779],[9.1401,44.36113],[9.15509,44.34771],[9.15553,44.31577],[9.21239,44.31056],[9.21417,44.3347],[9.23391,44.34848],[9.36502,44.29695],[9.39037,44.28097],[9.40314,44.25528],[9.41714,44.25977],[9.43949,44.24254],[9.49553,44.23469],[9.5014,44.22254],[9.55285,44.20287],[9.56898,44.18221],[9.61009,44.16672],[9.60917,44.15659],[9.63546,44.13352],[9.6575,44.14538],[9.72564,44.11249],[9.73848,44.09252],[9.75608,44.09112],[9.78215,44.07272],[9.82089,44.05875],[9.84728,44.06123],[9.82389,44.0827],[9.83122,44.10616],[9.84853,44.11],[9.8487,44.10957],[9.85384,44.10634]]]]}}