{"type":"FeatureCollection","_provenance":{"authority":"ISTAT (comune geometry, openpolis/geojson-italy) / MASAF disciplinari (comune membership)","licence":"CC BY 4.0","method":"comune-union: ISTAT comuni dissolved per disciplinare comune lists (comune-level approximation; interior rings dropped, 5dp). Partial-territory comuni are included whole.","reviewed_at":"2026-09-07"},"features":[{"type":"Feature","properties":{"name":"rossese-di-dolceacqua","comuni_count":14},"geometry":{"type":"MultiPolygon","coordinates":[[[[7.58429,43.87241],[7.58292,43.86549],[7.57935,43.85514],[7.57515,43.84959],[7.57287,43.84693],[7.57255,43.84661],[7.5724,43.84651],[7.57224,43.84648],[7.57219,43.84648],[7.57193,43.84647],[7.57149,43.84652],[7.56996,43.84704],[7.56467,43.84947],[7.56451,43.84979],[7.56418,43.85032],[7.56354,43.85129],[7.56335,43.85154],[7.56292,43.85194],[7.5611,43.85301],[7.56083,43.85317],[7.55983,43.85365],[7.55953,43.85377],[7.55677,43.85408],[7.55622,43.85414],[7.54629,43.85515],[7.5409,43.85363],[7.53816,43.85406],[7.53547,43.86049],[7.53307,43.86078],[7.5312,43.86037],[7.52857,43.85626],[7.52634,43.85187],[7.51823,43.84823],[7.50595,43.84558],[7.50274,43.84504],[7.50128,43.84485],[7.50185,43.84474],[7.50209,43.84468],[7.50248,43.84458],[7.50307,43.8444],[7.50542,43.84326],[7.50571,43.84312],[7.50591,43.84302],[7.50606,43.84293],[7.50739,43.84214],[7.5076,43.84201],[7.50796,43.84176],[7.50802,43.84171],[7.50807,43.84167],[7.50805,43.84158],[7.50799,43.8415],[7.50779,43.84136],[7.50839,43.83486],[7.51035,43.82804],[7.51422,43.81684],[7.51599,43.81169],[7.5182,43.80461],[7.52329,43.79783],[7.52964,43.78622],[7.53072,43.78421],[7.5346,43.78339],[7.53861,43.78276],[7.55073,43.7812],[7.55609,43.78018],[7.55718,43.78128],[7.55749,43.7824],[7.55867,43.78695],[7.56313,43.7898],[7.56934,43.79223],[7.56959,43.79229],[7.56983,43.79233],[7.5715,43.79255],[7.57209,43.79263],[7.57374,43.7928],[7.57453,43.79286],[7.57539,43.79286],[7.58391,43.79234],[7.58814,43.79201],[7.59091,43.79159],[7.59246,43.79133],[7.60153,43.78877],[7.61111,43.78657],[7.62383,43.78466],[7.6262,43.78445],[7.63002,43.78413],[7.63112,43.78406],[7.63321,43.78361],[7.64616,43.78149],[7.64794,43.78517],[7.65437,43.79818],[7.65824,43.80823],[7.66058,43.80789],[7.66834,43.80765],[7.69151,43.80977],[7.69669,43.81067],[7.69473,43.81622],[7.69249,43.81571],[7.68894,43.81618],[7.68778,43.81663],[7.6823,43.81911],[7.67848,43.82151],[7.68604,43.82812],[7.68741,43.82915],[7.68954,43.83069],[7.69361,43.8349],[7.70092,43.84072],[7.7051,43.84172],[7.70662,43.84745],[7.70696,43.84848],[7.70881,43.85347],[7.70902,43.85403],[7.70946,43.85476],[7.71001,43.85544],[7.7121,43.85789],[7.71228,43.85807],[7.71238,43.85818],[7.71333,43.85897],[7.7137,43.85922],[7.71486,43.85987],[7.71512,43.86],[7.71556,43.86024],[7.71634,43.86055],[7.71674,43.8607],[7.71741,43.86096],[7.71835,43.86143],[7.71963,43.86209],[7.72057,43.86264],[7.72321,43.86431],[7.72312,43.865],[7.73487,43.87583],[7.735,43.87898],[7.73297,43.88306],[7.72706,43.8992],[7.73058,43.90498],[7.74116,43.91103],[7.74153,43.91125],[7.74411,43.91237],[7.74534,43.91286],[7.74691,43.91294],[7.74803,43.91298],[7.75475,43.91114],[7.75818,43.90964],[7.76036,43.90841],[7.76364,43.90797],[7.77109,43.90902],[7.77514,43.91011],[7.77799,43.91275],[7.78002,43.91541],[7.77748,43.91598],[7.7749,43.91804],[7.77575,43.92375],[7.77197,43.93159],[7.76774,43.93553],[7.76744,43.9357],[7.76713,43.93593],[7.76684,43.9362],[7.7666,43.9365],[7.76439,43.93975],[7.76437,43.93979],[7.76414,43.94045],[7.76412,43.94091],[7.76413,43.94126],[7.75895,43.94317],[7.75533,43.94662],[7.75466,43.9473],[7.75437,43.94767],[7.75403,43.94827],[7.75379,43.9487],[7.75375,43.94878],[7.75346,43.94938],[7.75275,43.95236],[7.75237,43.95505],[7.75035,43.96044],[7.74896,43.96212],[7.74574,43.96415],[7.74544,43.96428],[7.74516,43.96432],[7.74475,43.96434],[7.73691,43.9652],[7.72232,43.97042],[7.71334,43.97144],[7.71241,43.97337],[7.70723,43.97928],[7.70567,43.98074],[7.70377,43.98227],[7.70353,43.98227],[7.70311,43.98224],[7.6923,43.98796],[7.68881,43.98996],[7.68112,43.99381],[7.67369,43.9974],[7.67034,43.99823],[7.66729,43.99536],[7.65992,43.98646],[7.64949,43.97374],[7.64051,43.97165],[7.63309,43.96622],[7.62709,43.96278],[7.61283,43.95656],[7.59953,43.95712],[7.5878,43.95542],[7.58478,43.95347],[7.58437,43.95313],[7.58388,43.95235],[7.58344,43.95164],[7.58193,43.94905],[7.58185,43.94881],[7.58182,43.94865],[7.58177,43.94826],[7.57963,43.94941],[7.57873,43.94984],[7.57688,43.94978],[7.57561,43.94927],[7.56702,43.94411],[7.57089,43.93889],[7.57185,43.93541],[7.56863,43.92802],[7.56435,43.92144],[7.56031,43.91525],[7.56207,43.91249],[7.56216,43.91229],[7.56235,43.91179],[7.56251,43.91118],[7.56273,43.90993],[7.56289,43.90445],[7.56294,43.90233],[7.56264,43.90066],[7.5683,43.89727],[7.57908,43.89056],[7.58032,43.88275],[7.57942,43.88189],[7.57896,43.88138],[7.5788,43.88082],[7.57868,43.88021],[7.57868,43.87973],[7.57886,43.87906],[7.57925,43.87852],[7.58266,43.87417],[7.58429,43.87241]]]]}},{"type":"Feature","properties":{"name":"cinque-terre","comuni_count":3},"geometry":{"type":"MultiPolygon","coordinates":[[[[9.7294,44.12846],[9.72918,44.12885],[9.72839,44.13014],[9.72797,44.13046],[9.72718,44.13086],[9.72662,44.13111],[9.72586,44.13129],[9.72518,44.13143],[9.72464,44.13151],[9.72361,44.13158],[9.72263,44.13162],[9.72172,44.13172],[9.72151,44.13175],[9.72042,44.132],[9.7165,44.13382],[9.71634,44.13404],[9.71604,44.13446],[9.71525,44.13572],[9.71493,44.13673],[9.71485,44.13733],[9.71496,44.13864],[9.7151,44.13899],[9.71514,44.13905],[9.71527,44.13926],[9.71565,44.13962],[9.71768,44.14188],[9.71835,44.14343],[9.71841,44.14612],[9.71844,44.14737],[9.71825,44.14789],[9.71784,44.14859],[9.71471,44.15152],[9.70454,44.15659],[9.69993,44.15894],[9.69913,44.15935],[9.69886,44.15949],[9.6977,44.16015],[9.69404,44.16248],[9.69231,44.16448],[9.69238,44.16478],[9.69235,44.16543],[9.69195,44.16554],[9.69134,44.16541],[9.69051,44.16521],[9.69012,44.16506],[9.68907,44.16405],[9.6875,44.16237],[9.6855,44.1601],[9.68292,44.15574],[9.68293,44.15424],[9.68307,44.15256],[9.68323,44.15106],[9.68366,44.14973],[9.68373,44.14954],[9.68326,44.14905],[9.68222,44.14878],[9.68158,44.14874],[9.68041,44.14867],[9.68027,44.14866],[9.67722,44.15023],[9.67666,44.15057],[9.6728,44.1535],[9.67287,44.15384],[9.67314,44.15414],[9.67343,44.15445],[9.67466,44.1558],[9.67933,44.16086],[9.68385,44.16429],[9.68231,44.17106],[9.69099,44.17354],[9.69263,44.17384],[9.69354,44.17409],[9.69454,44.17449],[9.69465,44.17457],[9.69578,44.17532],[9.69587,44.17541],[9.69618,44.17575],[9.69627,44.17585],[9.69646,44.17605],[9.69653,44.17615],[9.69685,44.17656],[9.69713,44.17718],[9.69664,44.17876],[9.69572,44.18047],[9.69245,44.1835],[9.68894,44.18482],[9.68565,44.18543],[9.68551,44.18541],[9.68451,44.18531],[9.68432,44.18521],[9.68441,44.18372],[9.68434,44.1828],[9.68421,44.18228],[9.68349,44.18098],[9.67345,44.17446],[9.6704,44.1727],[9.66626,44.17065],[9.65557,44.16631],[9.63627,44.15862],[9.63305,44.15712],[9.62867,44.15395],[9.62852,44.15343],[9.62811,44.15172],[9.62818,44.15122],[9.63365,44.14039],[9.63552,44.13727],[9.63546,44.13352],[9.63614,44.13414],[9.63876,44.13656],[9.63909,44.13687],[9.63957,44.13757],[9.64099,44.14052],[9.64205,44.1424],[9.64274,44.14351],[9.64344,44.14406],[9.64406,44.14426],[9.64739,44.1451],[9.6508,44.14544],[9.65472,44.14556],[9.65865,44.14442],[9.66456,44.14258],[9.66809,44.14214],[9.68138,44.13557],[9.69079,44.12948],[9.69622,44.12786],[9.70913,44.11888],[9.71665,44.11813],[9.71733,44.11797],[9.71741,44.11794],[9.71768,44.11785],[9.71884,44.11718],[9.72166,44.11521],[9.72326,44.11408],[9.72532,44.11262],[9.7257,44.1123],[9.72599,44.11193],[9.72603,44.11183],[9.72605,44.1118],[9.72665,44.11032],[9.72683,44.1095],[9.73311,44.10142],[9.73861,44.09458],[9.73861,44.09286],[9.73869,44.09222],[9.73941,44.09165],[9.75395,44.0907],[9.75879,44.08787],[9.7586,44.08621],[9.76044,44.08378],[9.76587,44.08327],[9.7695,44.08765],[9.77125,44.0915],[9.76987,44.09182],[9.76784,44.09241],[9.76596,44.09352],[9.7652,44.09425],[9.76502,44.09442],[9.76417,44.09585],[9.76398,44.09684],[9.76353,44.10004],[9.76365,44.10095],[9.76374,44.10166],[9.76442,44.10601],[9.76438,44.10622],[9.76294,44.10836],[9.76036,44.1107],[9.75719,44.11301],[9.75617,44.11349],[9.74922,44.11894],[9.74229,44.12688],[9.73379,44.1275],[9.7294,44.12846]]]]}},{"type":"Feature","properties":{"name":"colli-di-luni","comuni_count":14},"geometry":{"type":"MultiPolygon","coordinates":[[[[10.04614,44.11547],[10.03881,44.11707],[10.03737,44.11759],[10.03604,44.11788],[10.03181,44.11863],[10.03035,44.11881],[10.02448,44.11933],[10.02148,44.11947],[10.01861,44.11925],[10.01103,44.11472],[10.00561,44.11087],[10.00381,44.10947],[10.00334,44.10901],[10.00298,44.10864],[10.00213,44.10765],[10.00193,44.10723],[10.00159,44.10653],[10.00153,44.10633],[9.99852,44.10068],[9.99752,44.099],[9.99471,44.09471],[9.99342,44.09284],[9.99331,44.09268],[9.98672,44.09687],[9.98914,44.10295],[9.99076,44.10372],[9.99283,44.10486],[9.99292,44.10491],[9.99311,44.10502],[9.99345,44.10522],[9.99407,44.10576],[9.99435,44.10793],[9.99508,44.11573],[9.99313,44.12035],[9.98984,44.12098],[9.98675,44.12237],[9.98544,44.12325],[9.9836,44.12476],[9.98328,44.12528],[9.98326,44.12533],[9.98297,44.12601],[9.97728,44.14008],[9.98043,44.14507],[9.97679,44.15092],[9.97671,44.1511],[9.97651,44.15156],[9.97641,44.15178],[9.97646,44.15286],[9.97721,44.15605],[9.97854,44.1613],[9.97566,44.1641],[9.97469,44.16597],[9.97334,44.16711],[9.96803,44.16892],[9.96617,44.1692],[9.96083,44.16782],[9.96025,44.1675],[9.96019,44.16748],[9.96015,44.16745],[9.95954,44.16711],[9.95939,44.16701],[9.95907,44.16678],[9.95878,44.16659],[9.9573,44.16593],[9.95503,44.16497],[9.95467,44.1649],[9.95357,44.16538],[9.95318,44.16558],[9.95272,44.16586],[9.95097,44.16682],[9.94934,44.16766],[9.94911,44.16772],[9.94789,44.16785],[9.94433,44.16814],[9.93719,44.1679],[9.93369,44.16722],[9.92184,44.17002],[9.91865,44.1695],[9.91182,44.16832],[9.9069,44.16722],[9.90618,44.16699],[9.90277,44.16567],[9.89786,44.16359],[9.89451,44.16557],[9.89416,44.16578],[9.89388,44.16595],[9.89347,44.16619],[9.89326,44.16632],[9.89295,44.1665],[9.89292,44.16657],[9.89263,44.16708],[9.8926,44.16716],[9.89249,44.16756],[9.89239,44.16795],[9.89237,44.16802],[9.90028,44.17408],[9.90711,44.17915],[9.91803,44.18672],[9.92048,44.18875],[9.92158,44.18976],[9.92159,44.19023],[9.92112,44.19087],[9.92135,44.19272],[9.92239,44.19506],[9.93401,44.19662],[9.92854,44.19854],[9.91817,44.19963],[9.9181,44.19961],[9.91768,44.19946],[9.91754,44.19941],[9.91723,44.19931],[9.91628,44.19929],[9.9162,44.19928],[9.91566,44.19927],[9.91545,44.19933],[9.91527,44.19938],[9.91451,44.1996],[9.91117,44.20218],[9.90948,44.20433],[9.90818,44.20798],[9.90807,44.20884],[9.90851,44.20977],[9.89121,44.20781],[9.89139,44.20538],[9.884,44.20189],[9.88048,44.20005],[9.87333,44.19519],[9.87329,44.19515],[9.87283,44.19465],[9.87242,44.1932],[9.87179,44.19059],[9.87168,44.1901],[9.87159,44.18974],[9.86725,44.18372],[9.86496,44.18071],[9.86259,44.18455],[9.85983,44.19006],[9.85755,44.19351],[9.85962,44.19567],[9.86406,44.20309],[9.86767,44.2123],[9.87,44.21748],[9.87279,44.22096],[9.87536,44.22394],[9.87367,44.22495],[9.87273,44.22541],[9.87238,44.22558],[9.86878,44.22706],[9.86789,44.22739],[9.86766,44.22748],[9.86727,44.22761],[9.8665,44.22787],[9.86535,44.22794],[9.86477,44.22796],[9.86417,44.22798],[9.86352,44.22818],[9.86346,44.2282],[9.86253,44.22876],[9.86157,44.22942],[9.8606,44.23025],[9.85838,44.23252],[9.85828,44.23263],[9.85762,44.23337],[9.85703,44.23403],[9.85685,44.23461],[9.85672,44.23502],[9.8567,44.23538],[9.85669,44.23559],[9.85738,44.23624],[9.85746,44.23631],[9.85801,44.23674],[9.85825,44.23692],[9.85857,44.23713],[9.85864,44.23718],[9.85879,44.23728],[9.85899,44.23742],[9.85911,44.23758],[9.8593,44.23784],[9.85945,44.23804],[9.85984,44.23864],[9.85989,44.23892],[9.86001,44.23951],[9.8602,44.24207],[9.86018,44.24883],[9.86016,44.25243],[9.85613,44.2582],[9.85458,44.26462],[9.85426,44.26724],[9.85425,44.26733],[9.85422,44.26771],[9.85443,44.26806],[9.85266,44.27021],[9.85153,44.27086],[9.8498,44.27111],[9.84411,44.27183],[9.83612,44.27649],[9.83611,44.27748],[9.83597,44.27824],[9.83533,44.27887],[9.82866,44.28054],[9.82317,44.28164],[9.82184,44.28128],[9.82071,44.28107],[9.81867,44.2801],[9.81265,44.27589],[9.81072,44.2724],[9.81166,44.26609],[9.80869,44.25508],[9.80765,44.25166],[9.80428,44.24673],[9.79992,44.23926],[9.79805,44.23577],[9.79804,44.23486],[9.79821,44.23442],[9.79824,44.23436],[9.79838,44.23402],[9.79917,44.23274],[9.8116,44.22877],[9.81722,44.22652],[9.81391,44.22365],[9.80283,44.22121],[9.8011,44.22183],[9.79949,44.22252],[9.79852,44.22336],[9.79673,44.22549],[9.79123,44.22856],[9.79086,44.22843],[9.79026,44.22822],[9.78885,44.22771],[9.78772,44.2273],[9.78751,44.22722],[9.78672,44.22693],[9.78583,44.22655],[9.78413,44.22542],[9.78385,44.22507],[9.78103,44.22068],[9.78075,44.22022],[9.78066,44.21941],[9.78131,44.21708],[9.78207,44.21621],[9.78274,44.21584],[9.78362,44.21504],[9.78396,44.21449],[9.78421,44.21408],[9.78514,44.21243],[9.78494,44.21156],[9.78384,44.21088],[9.78372,44.21084],[9.78276,44.21052],[9.77951,44.20996],[9.774,44.2093],[9.77141,44.21071],[9.76674,44.21283],[9.75697,44.21367],[9.75468,44.21366],[9.74702,44.21022],[9.73683,44.2039],[9.73101,44.20015],[9.73248,44.19945],[9.73899,44.19479],[9.73916,44.19452],[9.73956,44.19388],[9.73596,44.18615],[9.73365,44.18107],[9.72756,44.17358],[9.72648,44.17248],[9.72554,44.17199],[9.72529,44.17187],[9.72279,44.17072],[9.72231,44.17059],[9.72122,44.17044],[9.72024,44.16994],[9.71829,44.16891],[9.71722,44.16834],[9.71399,44.1664],[9.71341,44.16598],[9.71181,44.164],[9.71087,44.16283],[9.70924,44.16067],[9.70846,44.15964],[9.70614,44.15777],[9.70484,44.15681],[9.70454,44.15659],[9.71471,44.15152],[9.71784,44.14859],[9.71825,44.14789],[9.71844,44.14737],[9.71841,44.14612],[9.71835,44.14343],[9.71768,44.14188],[9.71565,44.13962],[9.71527,44.13926],[9.71514,44.13905],[9.7151,44.13899],[9.71496,44.13864],[9.71485,44.13733],[9.71493,44.13673],[9.71525,44.13572],[9.71604,44.13446],[9.71634,44.13404],[9.7165,44.13382],[9.72042,44.132],[9.72151,44.13175],[9.72172,44.13172],[9.72263,44.13162],[9.72361,44.13158],[9.72464,44.13151],[9.72518,44.13143],[9.72586,44.13129],[9.72662,44.13111],[9.72718,44.13086],[9.72797,44.13046],[9.72839,44.13014],[9.72918,44.12885],[9.7294,44.12846],[9.73379,44.1275],[9.74229,44.12688],[9.74922,44.11894],[9.75617,44.11349],[9.75719,44.11301],[9.76036,44.1107],[9.76294,44.10836],[9.76438,44.10622],[9.76442,44.10601],[9.76374,44.10166],[9.76365,44.10095],[9.76353,44.10004],[9.76398,44.09684],[9.76417,44.09585],[9.76502,44.09442],[9.7652,44.09425],[9.76596,44.09352],[9.76784,44.09241],[9.76987,44.09182],[9.77125,44.0915],[9.7695,44.08765],[9.76587,44.08327],[9.76676,44.0823],[9.76977,44.08113],[9.7727,44.0807],[9.77307,44.08062],[9.77341,44.08037],[9.77381,44.08002],[9.77433,44.07956],[9.77445,44.07944],[9.77463,44.07923],[9.77469,44.07909],[9.77406,44.07694],[9.78215,44.07272],[9.79485,44.06714],[9.79726,44.06517],[9.79864,44.06444],[9.8009,44.06395],[9.8014,44.06389],[9.80159,44.06387],[9.80299,44.06405],[9.80322,44.06412],[9.8032,44.0648],[9.80322,44.06514],[9.8033,44.06538],[9.80342,44.06567],[9.80355,44.06579],[9.81364,44.07068],[9.81649,44.07051],[9.81648,44.07056],[9.81618,44.07208],[9.81617,44.0731],[9.81641,44.07364],[9.81798,44.07623],[9.81892,44.07719],[9.81955,44.07782],[9.82009,44.07837],[9.82389,44.0827],[9.82358,44.08457],[9.82438,44.08621],[9.82285,44.08967],[9.82086,44.09257],[9.8126,44.1008],[9.81666,44.09855],[9.81665,44.09849],[9.81678,44.09762],[9.81686,44.09749],[9.81693,44.09742],[9.81841,44.09644],[9.82077,44.095],[9.82131,44.09514],[9.82885,44.10052],[9.82624,44.10014],[9.826,44.10312],[9.83581,44.11013],[9.83765,44.10982],[9.8398,44.10936],[9.84755,44.10826],[9.8489,44.10997],[9.85077,44.10984],[9.85383,44.10683],[9.85603,44.10406],[9.86057,44.09797],[9.86457,44.09269],[9.87065,44.08802],[9.8753,44.08759],[9.87717,44.08754],[9.87871,44.08776],[9.87893,44.08681],[9.87944,44.08459],[9.88021,44.08228],[9.88108,44.08145],[9.88873,44.08097],[9.89238,44.08175],[9.89677,44.0828],[9.89682,44.08296],[9.89693,44.08308],[9.89698,44.08312],[9.89722,44.08319],[9.89947,44.08317],[9.90154,44.08286],[9.90245,44.08267],[9.90546,44.08191],[9.90678,44.08142],[9.90709,44.08121],[9.90845,44.08],[9.9093,44.07877],[9.90982,44.07506],[9.90844,44.0722],[9.90765,44.0693],[9.91169,44.06941],[9.91732,44.0669],[9.92011,44.06558],[9.92333,44.06379],[9.92623,44.06212],[9.93435,44.05619],[9.94006,44.05384],[9.94579,44.04995],[9.9495,44.04727],[9.95353,44.04381],[9.95705,44.04132],[9.96146,44.03868],[9.96348,44.0375],[9.96373,44.03738],[9.96379,44.03737],[9.96418,44.03729],[9.97715,44.03553],[9.97759,44.03549],[9.97778,44.03552],[9.97794,44.03561],[9.97813,44.03575],[9.98115,44.03812],[9.98433,44.04273],[9.98518,44.04417],[9.98666,44.04631],[9.99229,44.04977],[9.99357,44.05037],[9.99413,44.05063],[9.99665,44.05095],[9.99925,44.05095],[9.99962,44.05092],[10.00127,44.05072],[10.00604,44.05004],[10.00989,44.04881],[10.01102,44.04838],[10.01271,44.04764],[10.01732,44.04547],[10.01825,44.04494],[10.01857,44.04475],[10.01868,44.04463],[10.01877,44.04448],[10.02666,44.05659],[10.02899,44.05967],[10.03489,44.06426],[10.04634,44.07103],[10.05996,44.07935],[10.06637,44.08664],[10.06891,44.08996],[10.07041,44.09236],[10.07019,44.09401],[10.06916,44.09714],[10.06878,44.09828],[10.06603,44.1007],[10.05999,44.1058],[10.05361,44.11008],[10.05298,44.1101],[10.05251,44.11012],[10.05236,44.11013],[10.05174,44.11018],[10.0511,44.11022],[10.05094,44.1103],[10.0509,44.11032],[10.05044,44.11055],[10.04826,44.11292],[10.04816,44.11311],[10.04774,44.11395],[10.04772,44.11401],[10.04738,44.11512],[10.04614,44.11547]]],[[[9.78106,44.07129],[9.78098,44.07133],[9.78092,44.07128],[9.78073,44.07107],[9.78059,44.07089],[9.78063,44.07085],[9.78075,44.07085],[9.78103,44.07085],[9.78111,44.07087],[9.78118,44.0709],[9.78131,44.07101],[9.78135,44.07105],[9.78135,44.07111],[9.78131,44.07118],[9.78123,44.07123],[9.78106,44.07129]]],[[[9.77387,44.07762],[9.77378,44.07764],[9.7737,44.07763],[9.77364,44.0776],[9.77351,44.07748],[9.77349,44.0774],[9.77366,44.07732],[9.77377,44.07729],[9.77386,44.07729],[9.77391,44.07733],[9.77404,44.07752],[9.77403,44.07755],[9.77387,44.07762]]]]}}]}