{"type":"FeatureCollection","_provenance":{"source":"ISTAT comune boundaries (openpolis/geojson-italy) dissolved per MASAF disciplinare comune lists","authority":"ISTAT (comune geometry); MASAF disciplinari (comune membership)","download":"https://github.com/openpolis/geojson-italy (limits_IT_municipalities.geojson)","licence":"CC BY 4.0","attribution":"ISTAT","method":"comune-union (dissolve) — comune-level approximation; interior rings dropped","retrieved":"2026-08-14","note":"Lombardy has no official delimited-zone GIS. Franciacorta DOCG=19 comuni (Brescia); Valtellina Superiore DOCG=15 comuni (Sondrio); Oltrepò Pavese DOC=42 comuni (Pavia, incl. Colli Verdi=former Canevino+Ruino)."},"features":[{"type":"Feature","properties":{"key":"franciacorta","name":"Franciacorta"},"geometry":{"type":"MultiPolygon","coordinates":[[[[9.9382,45.65724],[9.93551,45.65267],[9.93514,45.65172],[9.93461,45.65034],[9.93441,45.64983],[9.93412,45.64936],[9.93369,45.64896],[9.93232,45.64794],[9.93121,45.64719],[9.9299,45.64645],[9.92933,45.64627],[9.92897,45.64621],[9.9283,45.64621],[9.92817,45.64622],[9.92801,45.64622],[9.92759,45.64626],[9.92729,45.6463],[9.92664,45.64644],[9.92615,45.64667],[9.92253,45.64968],[9.91862,45.65085],[9.91773,45.65079],[9.91733,45.6506],[9.91703,45.65026],[9.91699,45.6502],[9.9167,45.64975],[9.916,45.6484],[9.91587,45.64813],[9.91582,45.64746],[9.91589,45.64689],[9.91604,45.64636],[9.91618,45.6459],[9.91638,45.64543],[9.91667,45.64498],[9.91708,45.6447],[9.91729,45.64451],[9.91732,45.64448],[9.91746,45.64433],[9.91757,45.6442],[9.91775,45.64393],[9.91784,45.6438],[9.91778,45.64325],[9.91699,45.64209],[9.91694,45.64202],[9.91668,45.64169],[9.91634,45.64126],[9.91409,45.6389],[9.91334,45.63812],[9.91118,45.63639],[9.90962,45.63528],[9.90813,45.63423],[9.90741,45.63369],[9.90477,45.63148],[9.90436,45.63103],[9.90387,45.63049],[9.90333,45.62936],[9.90317,45.62884],[9.90238,45.62605],[9.90217,45.62501],[9.90216,45.62461],[9.90221,45.62417],[9.90321,45.62278],[9.92163,45.6193],[9.92508,45.61888],[9.9277,45.61895],[9.93096,45.61923],[9.93595,45.61906],[9.93449,45.61827],[9.92975,45.61532],[9.93052,45.60942],[9.93287,45.60857],[9.9317,45.60718],[9.93142,45.60685],[9.93136,45.60677],[9.9306,45.60602],[9.93015,45.60572],[9.92959,45.60535],[9.92727,45.60489],[9.92094,45.60337],[9.91578,45.60051],[9.91221,45.59613],[9.90935,45.59203],[9.90938,45.59163],[9.90939,45.59156],[9.90941,45.5915],[9.90945,45.59143],[9.90954,45.59135],[9.90995,45.59101],[9.91076,45.59043],[9.90823,45.58517],[9.90798,45.58294],[9.90906,45.57916],[9.90688,45.5734],[9.9026,45.56773],[9.8972,45.56706],[9.89366,45.56544],[9.89112,45.55952],[9.8914,45.55948],[9.89238,45.55939],[9.89416,45.55926],[9.89507,45.5592],[9.8965,45.55927],[9.89806,45.55945],[9.89825,45.55949],[9.89856,45.55957],[9.89888,45.56024],[9.89949,45.56155],[9.90236,45.56348],[9.91315,45.56124],[9.92615,45.5631],[9.93031,45.56438],[9.93777,45.56352],[9.93813,45.56347],[9.94355,45.56263],[9.94301,45.56041],[9.94887,45.55288],[9.95295,45.54419],[9.95652,45.54055],[9.96114,45.53606],[9.96761,45.53189],[9.98131,45.52941],[9.98632,45.52755],[9.98577,45.52422],[9.98528,45.5218],[9.99219,45.51996],[10.00536,45.51726],[10.01066,45.517],[10.01919,45.51662],[10.03144,45.51601],[10.03387,45.51787],[10.03788,45.5188],[10.04029,45.52191],[10.04031,45.52146],[10.04034,45.5211],[10.04058,45.52015],[10.04244,45.52047],[10.04498,45.52164],[10.04914,45.524],[10.05149,45.52731],[10.05743,45.53403],[10.05904,45.53607],[10.05932,45.53836],[10.05844,45.54219],[10.05754,45.54478],[10.05532,45.54542],[10.0529,45.54604],[10.05126,45.54702],[10.05004,45.55026],[10.05144,45.55323],[10.05856,45.56541],[10.05976,45.56691],[10.06423,45.56616],[10.0711,45.56492],[10.07901,45.5635],[10.07959,45.56339],[10.07973,45.56336],[10.08248,45.56285],[10.08758,45.56401],[10.0872,45.5656],[10.09407,45.57381],[10.09847,45.57192],[10.1028,45.57017],[10.10558,45.56971],[10.109,45.56961],[10.10975,45.57037],[10.11022,45.5708],[10.11064,45.57104],[10.11138,45.57133],[10.11159,45.57139],[10.11309,45.57169],[10.11927,45.57289],[10.11999,45.57302],[10.12015,45.57304],[10.12019,45.57305],[10.12026,45.57305],[10.12121,45.57314],[10.12184,45.57271],[10.12379,45.57109],[10.12643,45.56888],[10.12828,45.56731],[10.13045,45.5653],[10.13008,45.56242],[10.13006,45.56232],[10.13001,45.56218],[10.12995,45.56207],[10.12992,45.56203],[10.13603,45.55638],[10.14163,45.55317],[10.13807,45.54986],[10.15319,45.54848],[10.15313,45.54844],[10.15285,45.54822],[10.15208,45.54758],[10.15155,45.54701],[10.15146,45.5469],[10.15025,45.54539],[10.14749,45.54091],[10.14757,45.5407],[10.16276,45.53581],[10.16282,45.53579],[10.16832,45.53767],[10.16841,45.53771],[10.16915,45.53821],[10.17219,45.54042],[10.17299,45.54104],[10.17316,45.54119],[10.17361,45.5416],[10.17446,45.54238],[10.17481,45.54283],[10.17497,45.54307],[10.17783,45.54092],[10.16461,45.5266],[10.1598,45.52448],[10.15507,45.52312],[10.15448,45.52095],[10.15264,45.51232],[10.15233,45.50782],[10.15422,45.50116],[10.16123,45.49755],[10.16352,45.4968],[10.17065,45.49587],[10.1832,45.49221],[10.1929,45.49148],[10.19537,45.49067],[10.19592,45.4874],[10.19494,45.48438],[10.19442,45.48328],[10.19632,45.48317],[10.20357,45.48515],[10.20615,45.48616],[10.20788,45.48776],[10.20897,45.48967],[10.20978,45.49163],[10.21229,45.49802],[10.21422,45.50199],[10.22231,45.50364],[10.23068,45.50105],[10.23421,45.49887],[10.23651,45.50022],[10.23984,45.50151],[10.24262,45.50152],[10.24271,45.5014],[10.2428,45.50126],[10.24292,45.50109],[10.24307,45.50085],[10.24336,45.50037],[10.24937,45.49019],[10.253,45.48426],[10.25388,45.48285],[10.25402,45.48264],[10.25537,45.4806],[10.2554,45.48057],[10.2555,45.4806],[10.25565,45.4808],[10.25582,45.48096],[10.25681,45.48182],[10.25756,45.48246],[10.26276,45.48688],[10.26356,45.48753],[10.26564,45.48919],[10.26618,45.48961],[10.27185,45.49352],[10.27656,45.49212],[10.2795,45.49147],[10.28438,45.49372],[10.28883,45.49569],[10.29151,45.49694],[10.29334,45.49829],[10.29354,45.49846],[10.29366,45.49855],[10.29535,45.50011],[10.29533,45.50018],[10.29443,45.50098],[10.29332,45.50194],[10.29304,45.50219],[10.29304,45.50224],[10.29308,45.50252],[10.2946,45.50812],[10.29587,45.51282],[10.29612,45.51369],[10.2962,45.51398],[10.2967,45.51562],[10.29884,45.5151],[10.29925,45.51568],[10.29959,45.51685],[10.29975,45.5174],[10.29985,45.51936],[10.29622,45.52415],[10.29494,45.52928],[10.28532,45.53735],[10.28456,45.54041],[10.28409,45.54551],[10.28444,45.54748],[10.28457,45.54784],[10.28463,45.54798],[10.28584,45.54986],[10.28917,45.55476],[10.29075,45.55629],[10.29056,45.55642],[10.28856,45.55785],[10.28812,45.55815],[10.28681,45.55903],[10.2792,45.5619],[10.27513,45.5624],[10.27337,45.56295],[10.27108,45.56367],[10.26855,45.56488],[10.25967,45.57179],[10.26018,45.5767],[10.25198,45.58295],[10.25065,45.58381],[10.24832,45.58366],[10.24191,45.58344],[10.23825,45.58482],[10.23018,45.58958],[10.22131,45.58584],[10.22135,45.58488],[10.22132,45.58414],[10.22126,45.58366],[10.22121,45.5833],[10.22108,45.58245],[10.22105,45.58228],[10.2209,45.58172],[10.22089,45.58168],[10.22083,45.58149],[10.22068,45.58109],[10.22045,45.58058],[10.22024,45.58022],[10.21929,45.5786],[10.21862,45.57747],[10.21785,45.57616],[10.2171,45.57491],[10.21686,45.57453],[10.21431,45.5711],[10.2133,45.57004],[10.21109,45.56976],[10.21106,45.5698],[10.211,45.56997],[10.211,45.57026],[10.21102,45.57064],[10.21107,45.57094],[10.21111,45.57108],[10.20029,45.57284],[10.18948,45.57278],[10.19033,45.57327],[10.19047,45.57338],[10.1906,45.57347],[10.19062,45.5735],[10.1908,45.57367],[10.19085,45.57373],[10.19163,45.57458],[10.19173,45.57483],[10.19365,45.58005],[10.19481,45.58335],[10.19491,45.58542],[10.19539,45.58672],[10.19751,45.58954],[10.19853,45.59057],[10.19108,45.59267],[10.18532,45.59425],[10.18211,45.59477],[10.1797,45.5951],[10.17692,45.5952],[10.17683,45.59507],[10.17662,45.59625],[10.17445,45.60758],[10.1727,45.61302],[10.17267,45.62031],[10.17272,45.62087],[10.17287,45.62111],[10.17297,45.62117],[10.17304,45.62119],[10.17308,45.62121],[10.1738,45.6213],[10.16584,45.6297],[10.16401,45.62829],[10.16309,45.62776],[10.15816,45.62539],[10.15774,45.62525],[10.15722,45.62517],[10.15679,45.62512],[10.15665,45.62513],[10.15641,45.62519],[10.15575,45.62539],[10.15473,45.62587],[10.15406,45.62634],[10.15384,45.62712],[10.15383,45.62722],[10.15382,45.62734],[10.15383,45.62758],[10.15384,45.62778],[10.15393,45.62853],[10.15395,45.62865],[10.15407,45.62884],[10.15463,45.62944],[10.15527,45.62979],[10.15527,45.63032],[10.15507,45.6315],[10.15447,45.63292],[10.15435,45.63319],[10.15426,45.63338],[10.15419,45.63346],[10.15372,45.63339],[10.15341,45.63333],[10.15224,45.63293],[10.15216,45.6329],[10.14624,45.63023],[10.14477,45.62697],[10.14376,45.62463],[10.14372,45.62451],[10.14368,45.62439],[10.14372,45.62417],[10.14405,45.62355],[10.14428,45.6233],[10.14366,45.62167],[10.14164,45.61799],[10.13981,45.61855],[10.14107,45.62051],[10.14444,45.62855],[10.14498,45.6308],[10.14499,45.63085],[10.14492,45.63119],[10.1447,45.63199],[10.14432,45.63275],[10.14385,45.63347],[10.14366,45.63353],[10.14331,45.63353],[10.14321,45.63352],[10.14105,45.63418],[10.13987,45.63455],[10.13826,45.6357],[10.13285,45.64022],[10.13218,45.64113],[10.13215,45.64117],[10.13208,45.64144],[10.13314,45.64207],[10.13534,45.64994],[10.1273,45.65159],[10.11687,45.65273],[10.11477,45.65353],[10.11858,45.65533],[10.11864,45.65536],[10.11874,45.6555],[10.11821,45.65569],[10.11805,45.65573],[10.11787,45.65576],[10.11257,45.65681],[10.11074,45.65759],[10.10982,45.65799],[10.10894,45.65856],[10.10841,45.6589],[10.10645,45.66017],[10.10625,45.6603],[10.10596,45.6605],[10.10052,45.66521],[10.09733,45.66766],[10.09173,45.67191],[10.08689,45.67557],[10.0839,45.67763],[10.08195,45.67857],[10.08192,45.67858],[10.08144,45.67886],[10.08113,45.67924],[10.08102,45.67938],[10.08049,45.68097],[10.08075,45.68915],[10.06551,45.68929],[10.0654,45.68833],[10.06494,45.68658],[10.064,45.68417],[10.06367,45.68353],[10.06316,45.68283],[10.06269,45.68239],[10.0622,45.68199],[10.06107,45.68119],[10.05957,45.6803],[10.05874,45.67981],[10.05742,45.67914],[10.05606,45.67853],[10.05563,45.67834],[10.05455,45.67792],[10.04941,45.67594],[10.04672,45.6753],[10.04437,45.67494],[10.02773,45.67388],[10.025,45.67377],[10.00613,45.67264],[9.99983,45.67211],[9.98382,45.66928],[9.97513,45.66743],[9.97402,45.66703],[9.97322,45.66651],[9.97287,45.66629],[9.9719,45.66583],[9.97141,45.66563],[9.96868,45.66454],[9.96795,45.66433],[9.96724,45.66417],[9.96568,45.66396],[9.96494,45.66392],[9.96447,45.6639],[9.96341,45.66391],[9.96242,45.664],[9.9619,45.6641],[9.96146,45.66419],[9.95902,45.66475],[9.95865,45.66489],[9.95833,45.66501],[9.95778,45.66523],[9.95735,45.66544],[9.95695,45.66575],[9.94909,45.66612],[9.94228,45.66528],[9.93798,45.66168],[9.9382,45.65724]]]]}},{"type":"Feature","properties":{"key":"valtellina-superiore","name":"Valtellina Superiore"},"geometry":{"type":"MultiPolygon","coordinates":[[[[9.67564,46.16518],[9.68019,46.16664],[9.6833,46.16435],[9.6867,46.16383],[9.68965,46.16505],[9.69137,46.16588],[9.69555,46.16531],[9.6962,46.16517],[9.69743,46.16522],[9.69857,46.16554],[9.69916,46.16599],[9.69944,46.1663],[9.69964,46.16662],[9.69982,46.16699],[9.69997,46.16742],[9.6999,46.16804],[9.69983,46.16834],[9.70266,46.16581],[9.70299,46.16126],[9.7031,46.1606],[9.70313,46.16045],[9.70696,46.1599],[9.70846,46.15979],[9.71012,46.15978],[9.71035,46.15977],[9.7125,46.15984],[9.71948,46.15995],[9.72489,46.1599],[9.73052,46.1598],[9.7347,46.15972],[9.73641,46.15965],[9.73887,46.15954],[9.74116,46.15942],[9.75252,46.15896],[9.7541,46.15899],[9.75575,46.15889],[9.75791,46.1587],[9.76003,46.15835],[9.76163,46.15808],[9.76552,46.15732],[9.76667,46.15679],[9.76844,46.15629],[9.77104,46.15572],[9.77134,46.15566],[9.77325,46.15528],[9.77482,46.1551],[9.77581,46.15531],[9.78159,46.15647],[9.78457,46.15632],[9.78633,46.15697],[9.79596,46.16019],[9.79603,46.16021],[9.7981,46.16053],[9.80222,46.16114],[9.80454,46.16123],[9.8174,46.16071],[9.82899,46.15973],[9.83528,46.16069],[9.8385,46.16161],[9.84068,46.16198],[9.84393,46.16212],[9.84466,46.16206],[9.84523,46.16201],[9.85197,46.16112],[9.8591,46.15881],[9.87271,46.15892],[9.89103,46.16082],[9.89587,46.16221],[9.89646,46.16238],[9.89741,46.16288],[9.89801,46.16321],[9.91077,46.16142],[9.91593,46.16609],[9.92502,46.16518],[9.93572,46.16394],[9.93741,46.1651],[9.93808,46.16609],[9.9428,46.1655],[9.9577,46.16339],[9.95958,46.16344],[9.96316,46.16392],[9.96112,46.15981],[9.9597,46.14933],[9.96038,46.14539],[9.96051,46.14416],[9.95984,46.14334],[9.95913,46.1425],[9.95849,46.14194],[9.95161,46.13694],[9.94311,46.13598],[9.9417,46.13627],[9.93985,46.1374],[9.9382,46.13866],[9.93587,46.13962],[9.93386,46.1402],[9.93016,46.14104],[9.92955,46.14082],[9.92861,46.13661],[9.9294,46.13334],[9.9312,46.12195],[9.93152,46.11944],[9.93137,46.11214],[9.93533,46.10407],[9.93871,46.09938],[9.93957,46.09861],[9.9412,46.09863],[9.94276,46.09877],[9.94436,46.09876],[9.94857,46.09829],[9.94935,46.09807],[9.95032,46.09772],[9.95733,46.09504],[9.96309,46.09264],[9.97326,46.08697],[9.98504,46.07291],[9.98634,46.07054],[9.99147,46.07279],[10.0021,46.07313],[10.00457,46.07279],[10.01027,46.07257],[10.01111,46.07261],[10.01137,46.07301],[10.01138,46.07367],[10.01137,46.07666],[10.01127,46.0791],[10.01126,46.07986],[10.01206,46.08173],[10.01345,46.08314],[10.01645,46.08504],[10.01736,46.08553],[10.01854,46.08602],[10.0231,46.08695],[10.0248,46.08729],[10.03269,46.08758],[10.0386,46.08651],[10.04007,46.08575],[10.04244,46.08503],[10.04449,46.08482],[10.0543,46.08517],[10.05565,46.0855],[10.05895,46.08852],[10.05949,46.089],[10.06042,46.08924],[10.06552,46.08938],[10.0688,46.08932],[10.07363,46.08811],[10.0851,46.09074],[10.09593,46.0913],[10.10078,46.08989],[10.10191,46.089],[10.10324,46.08789],[10.10413,46.08512],[10.10399,46.08298],[10.10332,46.08123],[10.10293,46.08055],[10.10039,46.07727],[10.0971,46.07416],[10.09269,46.06829],[10.09254,46.06238],[10.09477,46.05713],[10.09577,46.05555],[10.10261,46.05078],[10.10372,46.05087],[10.10475,46.05114],[10.10609,46.0516],[10.10751,46.0523],[10.12165,46.05926],[10.13469,46.06006],[10.14666,46.05618],[10.16273,46.05705],[10.16956,46.05705],[10.17043,46.05938],[10.17542,46.07075],[10.18185,46.07992],[10.18293,46.08039],[10.18498,46.08101],[10.18068,46.0838],[10.1786,46.08644],[10.17912,46.0886],[10.17938,46.08911],[10.17944,46.08948],[10.17943,46.09014],[10.17929,46.09057],[10.17905,46.09112],[10.17885,46.09152],[10.17853,46.09189],[10.17804,46.09216],[10.17702,46.09251],[10.1748,46.0932],[10.17294,46.09295],[10.15906,46.09283],[10.15387,46.09728],[10.15524,46.09934],[10.15734,46.10211],[10.14848,46.1056],[10.1431,46.10668],[10.13476,46.11529],[10.128,46.12227],[10.1269,46.12373],[10.12472,46.12752],[10.12516,46.12882],[10.12551,46.13759],[10.12531,46.13877],[10.12396,46.1409],[10.11869,46.147],[10.116,46.15011],[10.11176,46.15128],[10.10753,46.15256],[10.10653,46.15403],[10.10796,46.15744],[10.1095,46.15899],[10.11127,46.15974],[10.11527,46.16101],[10.12157,46.16098],[10.12281,46.15907],[10.12352,46.158],[10.12617,46.15594],[10.12707,46.15524],[10.12749,46.15498],[10.12819,46.15485],[10.13044,46.15466],[10.13181,46.15469],[10.13336,46.15477],[10.13548,46.15492],[10.13759,46.15533],[10.15225,46.15821],[10.15939,46.15955],[10.16096,46.16037],[10.16135,46.16055],[10.16199,46.16078],[10.16252,46.16098],[10.16345,46.16128],[10.16483,46.1616],[10.17159,46.16306],[10.17458,46.16523],[10.17594,46.16708],[10.17759,46.17258],[10.17766,46.1729],[10.17826,46.17453],[10.17869,46.17555],[10.17922,46.17679],[10.1796,46.17757],[10.17991,46.17795],[10.1803,46.17825],[10.18268,46.17885],[10.18322,46.17898],[10.1866,46.17964],[10.18709,46.17965],[10.19101,46.18035],[10.19179,46.18049],[10.19266,46.18069],[10.1992,46.18231],[10.20199,46.183],[10.20362,46.18331],[10.21116,46.18453],[10.21749,46.18532],[10.21781,46.18533],[10.21885,46.18545],[10.21977,46.18559],[10.2209,46.18576],[10.22428,46.18634],[10.22503,46.18655],[10.22571,46.18678],[10.22634,46.18711],[10.22654,46.18735],[10.22664,46.18774],[10.22656,46.19067],[10.22381,46.1949],[10.2127,46.21036],[10.20216,46.22277],[10.19451,46.22667],[10.19374,46.22705],[10.19317,46.22757],[10.19119,46.2303],[10.19033,46.23153],[10.18895,46.23384],[10.18844,46.23478],[10.18676,46.23856],[10.18499,46.24608],[10.18443,46.24873],[10.18428,46.25088],[10.184,46.25222],[10.18355,46.25401],[10.18249,46.25746],[10.17634,46.25791],[10.17579,46.25655],[10.17542,46.25573],[10.17509,46.25525],[10.17453,46.25467],[10.17375,46.25414],[10.16604,46.24899],[10.1635,46.24734],[10.16036,46.24555],[10.15486,46.24215],[10.15094,46.2397],[10.14854,46.23535],[10.14719,46.23279],[10.14645,46.23128],[10.14576,46.23048],[10.14568,46.23038],[10.14233,46.22902],[10.13953,46.22801],[10.13472,46.22632],[10.13265,46.22554],[10.13076,46.2252],[10.12401,46.22422],[10.1136,46.22565],[10.10753,46.22668],[10.10234,46.22825],[10.09505,46.22855],[10.09452,46.22855],[10.09027,46.22798],[10.08968,46.22787],[10.08817,46.22757],[10.08356,46.22661],[10.08307,46.22645],[10.08091,46.22513],[10.0717,46.21799],[10.07084,46.21714],[10.06939,46.21734],[10.06761,46.21783],[10.06423,46.22007],[10.06105,46.22274],[10.05975,46.22404],[10.05868,46.22479],[10.05281,46.22706],[10.05168,46.22745],[10.0493,46.22746],[10.04745,46.22874],[10.04777,46.23217],[10.05441,46.23901],[10.05987,46.24752],[10.06032,46.25111],[10.05583,46.26369],[10.05058,46.26763],[10.03011,46.27712],[10.02746,46.27774],[10.00406,46.28224],[9.99827,46.28293],[9.99409,46.28048],[9.98957,46.27874],[9.98241,46.27739],[9.97969,46.27691],[9.9765,46.27645],[9.97347,46.27827],[9.97243,46.27826],[9.96831,46.27715],[9.95198,46.27046],[9.93359,46.26478],[9.91457,46.25621],[9.90099,46.24853],[9.89576,46.24482],[9.89497,46.23729],[9.89164,46.22996],[9.90005,46.22758],[9.90013,46.22755],[9.90193,46.22694],[9.90361,46.22585],[9.90487,46.22449],[9.90555,46.22316],[9.90527,46.22234],[9.90191,46.218],[9.8914,46.20696],[9.886,46.20176],[9.88422,46.20025],[9.88285,46.19929],[9.88131,46.19858],[9.87958,46.19792],[9.87823,46.19785],[9.87446,46.19855],[9.87356,46.1994],[9.87052,46.20842],[9.86865,46.21149],[9.87107,46.20586],[9.86994,46.20084],[9.86952,46.20125],[9.8679,46.20207],[9.86474,46.20278],[9.86295,46.20284],[9.85164,46.20325],[9.83299,46.20358],[9.83165,46.20338],[9.82698,46.20141],[9.82628,46.2009],[9.8253,46.19997],[9.82434,46.19901],[9.82341,46.19906],[9.82239,46.19912],[9.82104,46.19941],[9.81805,46.20045],[9.81732,46.20076],[9.81747,46.20152],[9.81771,46.20288],[9.81778,46.2043],[9.8177,46.20616],[9.81752,46.20832],[9.81694,46.20862],[9.81665,46.20878],[9.80372,46.21315],[9.79838,46.21485],[9.79069,46.21878],[9.78596,46.22072],[9.78407,46.22146],[9.7819,46.22201],[9.7797,46.22233],[9.77808,46.22235],[9.7768,46.22212],[9.77089,46.22101],[9.7692,46.22062],[9.75981,46.22888],[9.75788,46.23014],[9.74904,46.23533],[9.74582,46.23721],[9.74158,46.23779],[9.73677,46.23776],[9.73607,46.23773],[9.73809,46.24013],[9.73839,46.2405],[9.73852,46.24066],[9.73895,46.24143],[9.73897,46.24257],[9.73895,46.24407],[9.73875,46.24543],[9.74432,46.25445],[9.749,46.26169],[9.7512,46.26807],[9.74925,46.26925],[9.73941,46.26125],[9.72792,46.25258],[9.72341,46.24432],[9.71457,46.2385],[9.7141,46.23847],[9.70942,46.23558],[9.70824,46.23483],[9.70632,46.23335],[9.70418,46.23158],[9.70084,46.22877],[9.69824,46.22634],[9.69628,46.22439],[9.68986,46.22214],[9.68081,46.2211],[9.66789,46.22005],[9.66695,46.21992],[9.66606,46.21923],[9.66199,46.21596],[9.66235,46.21545],[9.6636,46.21398],[9.66512,46.21254],[9.66686,46.21125],[9.66777,46.21064],[9.66863,46.21007],[9.66959,46.20973],[9.67176,46.20936],[9.66504,46.20873],[9.65616,46.20761],[9.6523,46.20706],[9.65125,46.20684],[9.63953,46.20312],[9.6367,46.20422],[9.63553,46.20455],[9.63511,46.20441],[9.6348,46.20431],[9.63475,46.20428],[9.63389,46.20366],[9.63125,46.20107],[9.62592,46.19581],[9.62575,46.19561],[9.62524,46.1904],[9.62527,46.19007],[9.62539,46.18906],[9.62543,46.18875],[9.62548,46.1884],[9.62553,46.18802],[9.62557,46.1875],[9.62561,46.18704],[9.62555,46.18639],[9.62553,46.18616],[9.62461,46.18305],[9.6214,46.17821],[9.62041,46.17679],[9.61905,46.17438],[9.6193,46.17061],[9.61945,46.16931],[9.62032,46.16673],[9.62926,46.16546],[9.63093,46.16428],[9.63138,46.16306],[9.63226,46.15794],[9.63257,46.1545],[9.6333,46.15395],[9.6341,46.1537],[9.63463,46.15362],[9.63512,46.15364],[9.63565,46.15371],[9.64637,46.15487],[9.64701,46.15489],[9.64791,46.15493],[9.6492,46.15513],[9.65028,46.15553],[9.65476,46.15751],[9.65832,46.16035],[9.66064,46.16267],[9.66036,46.16489],[9.66073,46.165],[9.66105,46.16503],[9.67019,46.16556],[9.67564,46.16518]]]]}},{"type":"Feature","properties":{"key":"oltrepo-pavese","name":"Oltrepò Pavese"},"geometry":{"type":"MultiPolygon","coordinates":[[[[9.3557,45.06819],[9.34474,45.06938],[9.34479,45.06999],[9.34356,45.07176],[9.34194,45.07309],[9.34105,45.07354],[9.33461,45.0798],[9.33556,45.0838],[9.33674,45.08912],[9.33645,45.0894],[9.33541,45.08974],[9.33396,45.09005],[9.33314,45.09006],[9.32978,45.09123],[9.32667,45.09015],[9.32146,45.08718],[9.32039,45.08561],[9.31934,45.08492],[9.3146,45.08621],[9.30871,45.09021],[9.30108,45.09413],[9.30122,45.09727],[9.30168,45.10129],[9.30365,45.10415],[9.30039,45.10523],[9.29707,45.10581],[9.28659,45.1001],[9.28163,45.09448],[9.27977,45.09362],[9.27611,45.09376],[9.27463,45.09878],[9.27405,45.10116],[9.2737,45.10256],[9.27351,45.10334],[9.27184,45.10499],[9.26755,45.1088],[9.26672,45.10737],[9.25987,45.10631],[9.25263,45.10523],[9.25259,45.10548],[9.25261,45.10584],[9.25275,45.10784],[9.25282,45.10839],[9.24966,45.10915],[9.24638,45.10792],[9.247,45.10638],[9.25046,45.10356],[9.2547,45.10238],[9.26228,45.09631],[9.26262,45.096],[9.26341,45.09433],[9.26368,45.09229],[9.26361,45.09153],[9.26345,45.08998],[9.26288,45.08933],[9.25805,45.08795],[9.25549,45.08809],[9.24799,45.08586],[9.24273,45.08397],[9.24342,45.08356],[9.24347,45.08225],[9.24326,45.08007],[9.23684,45.07605],[9.22961,45.07554],[9.21589,45.06898],[9.21026,45.06527],[9.21058,45.0638],[9.20859,45.06575],[9.20481,45.06699],[9.19927,45.06446],[9.19661,45.06124],[9.19658,45.05935],[9.19524,45.05768],[9.1911,45.05829],[9.17874,45.05703],[9.17218,45.05926],[9.16794,45.05159],[9.16303,45.03824],[9.15694,45.03314],[9.15293,45.03181],[9.15013,45.03171],[9.14486,45.0325],[9.1424,45.03303],[9.13466,45.03488],[9.1343,45.03594],[9.13349,45.0361],[9.1191,45.04033],[9.11977,45.03785],[9.11994,45.03717],[9.1198,45.03548],[9.10997,45.03472],[9.10817,45.03471],[9.0973,45.02946],[9.0938,45.02755],[9.08904,45.02454],[9.08366,45.0227],[9.07675,45.02063],[9.06999,45.02008],[9.06893,45.01888],[9.06767,45.01527],[9.06735,45.01373],[9.06704,45.00522],[9.06722,45.00463],[9.06725,45.00453],[9.06792,45.00323],[9.06859,45.00218],[9.06911,44.99937],[9.06846,44.99709],[9.0686,44.99681],[9.06804,44.99576],[9.06775,44.99522],[9.0659,44.99265],[9.06222,44.99037],[9.05906,44.98879],[9.0573,44.98807],[9.05477,44.98735],[9.04792,44.98593],[9.04038,44.9801],[9.03298,44.97493],[9.03178,44.97363],[9.03142,44.97273],[9.02889,44.97147],[9.01702,44.96349],[9.0152,44.95885],[9.01026,44.95937],[8.9872,44.9634],[8.98561,44.96378],[8.98424,44.9642],[8.98266,44.96473],[8.97812,44.96721],[8.97754,44.96588],[8.9765,44.96301],[8.9766,44.96069],[8.97678,44.95945],[8.97697,44.95853],[8.97719,44.95797],[8.9772,44.95795],[8.97833,44.95684],[8.97683,44.95291],[8.97184,44.94992],[8.9696,44.94351],[8.97061,44.94324],[8.97185,44.94275],[8.97629,44.94068],[8.97702,44.94019],[8.97715,44.9401],[8.99831,44.91788],[9.00057,44.91171],[9.00135,44.90819],[9.00525,44.9044],[9.00617,44.90374],[9.00634,44.90367],[9.00805,44.90298],[9.01527,44.90115],[9.01786,44.90075],[9.0184,44.9008],[9.02317,44.89703],[9.03036,44.8885],[9.03513,44.88753],[9.04867,44.88771],[9.05522,44.88892],[9.05562,44.88816],[9.05951,44.88065],[9.06152,44.87602],[9.06689,44.86921],[9.0701,44.86604],[9.07004,44.8652],[9.06847,44.8614],[9.06805,44.86054],[9.06758,44.86009],[9.06675,44.85965],[9.06596,44.85947],[9.05473,44.85192],[9.04912,44.8503],[9.04902,44.84993],[9.049,44.84986],[9.04928,44.84907],[9.04975,44.84812],[9.05062,44.84677],[9.05138,44.84593],[9.05738,44.84027],[9.06087,44.83702],[9.06147,44.83653],[9.06224,44.83577],[9.06449,44.8331],[9.06432,44.83155],[9.06411,44.83019],[9.06702,44.83107],[9.06789,44.83109],[9.0693,44.83089],[9.07042,44.83068],[9.071,44.83022],[9.07106,44.83017],[9.07291,44.82803],[9.07342,44.82704],[9.07501,44.82296],[9.07226,44.81748],[9.07354,44.81665],[9.0767,44.81494],[9.077,44.81479],[9.0799,44.8142],[9.08081,44.81428],[9.08162,44.81446],[9.08924,44.81727],[9.09515,44.81903],[9.09566,44.82038],[9.09718,44.82282],[9.10403,44.82738],[9.10893,44.8298],[9.10975,44.83737],[9.11064,44.83829],[9.11382,44.84023],[9.11635,44.84157],[9.11906,44.84299],[9.12148,44.84382],[9.12232,44.84395],[9.13486,44.84623],[9.1367,44.84701],[9.14141,44.84807],[9.14264,44.84834],[9.14883,44.84895],[9.15008,44.84876],[9.15084,44.848],[9.15094,44.8479],[9.16239,44.85246],[9.1613,44.85625],[9.16076,44.85724],[9.15343,44.85773],[9.15227,44.85757],[9.14549,44.86385],[9.1375,44.87484],[9.14331,44.8805],[9.14602,44.88303],[9.15329,44.88923],[9.15435,44.89175],[9.1548,44.8916],[9.15637,44.89125],[9.16093,44.8908],[9.16222,44.89073],[9.16656,44.89253],[9.16704,44.89297],[9.1678,44.89376],[9.16834,44.89439],[9.17742,44.90125],[9.18456,44.90312],[9.19446,44.90214],[9.20008,44.90133],[9.20522,44.90046],[9.20939,44.89815],[9.21268,44.89694],[9.21347,44.89634],[9.21405,44.89554],[9.21449,44.89296],[9.21453,44.89259],[9.21463,44.89126],[9.21485,44.88363],[9.21292,44.87778],[9.21342,44.86925],[9.21484,44.86062],[9.21788,44.85179],[9.21891,44.84935],[9.21933,44.84977],[9.21962,44.84999],[9.2201,44.85008],[9.22582,44.8489],[9.22688,44.84822],[9.22826,44.84757],[9.22905,44.84744],[9.22942,44.84743],[9.22974,44.84756],[9.23122,44.84879],[9.23251,44.85006],[9.23772,44.8529],[9.24873,44.8601],[9.25277,44.86831],[9.2538,44.8727],[9.25606,44.88297],[9.25521,44.88536],[9.25334,44.88896],[9.25304,44.88896],[9.25106,44.8889],[9.24851,44.89307],[9.2492,44.89786],[9.25012,44.89948],[9.25098,44.90035],[9.25302,44.90213],[9.25583,44.90277],[9.25892,44.90328],[9.26725,44.90103],[9.26872,44.90039],[9.27085,44.89925],[9.27741,44.89561],[9.28406,44.9035],[9.28604,44.90744],[9.29041,44.91426],[9.29297,44.92046],[9.29074,44.92535],[9.28935,44.92618],[9.28821,44.92709],[9.28726,44.928],[9.28585,44.92941],[9.28535,44.93022],[9.28501,44.93106],[9.28503,44.93177],[9.28635,44.93395],[9.28683,44.93413],[9.28761,44.93424],[9.2882,44.93424],[9.28888,44.93414],[9.28937,44.93407],[9.2901,44.93396],[9.29058,44.93384],[9.30545,44.93455],[9.30981,44.93542],[9.31105,44.93572],[9.31406,44.93667],[9.31453,44.93682],[9.31526,44.93749],[9.31805,44.94017],[9.32154,44.94397],[9.32236,44.94564],[9.32289,44.94904],[9.32296,44.94965],[9.32459,44.95605],[9.32759,44.9591],[9.33503,44.96306],[9.33755,44.96538],[9.33703,44.96578],[9.33658,44.96625],[9.33629,44.96657],[9.33596,44.96706],[9.33562,44.96757],[9.33532,44.96809],[9.33521,44.96862],[9.33515,44.96926],[9.33514,44.96996],[9.33522,44.97286],[9.33546,44.97474],[9.33628,44.9773],[9.3365,44.97787],[9.3368,44.97845],[9.33708,44.97894],[9.33743,44.97944],[9.33812,44.97997],[9.33921,44.98063],[9.34311,44.99141],[9.34374,44.99253],[9.34398,44.99292],[9.34632,44.99594],[9.34736,44.99706],[9.34746,44.99741],[9.34807,44.99784],[9.35085,44.99974],[9.35276,45.00078],[9.35321,45.00102],[9.35351,45.00107],[9.3573,45.00074],[9.35896,45.00025],[9.36137,45.00009],[9.3643,45.00191],[9.36508,45.00242],[9.36542,45.00267],[9.36587,45.00304],[9.36594,45.00315],[9.3662,45.00361],[9.36757,45.00631],[9.37119,45.01484],[9.37365,45.01812],[9.37561,45.01992],[9.36945,45.02373],[9.36994,45.02596],[9.37346,45.03702],[9.37559,45.04041],[9.37265,45.04587],[9.37082,45.04815],[9.37186,45.04894],[9.38456,45.0593],[9.38853,45.06314],[9.3893,45.06405],[9.38825,45.06414],[9.38456,45.06452],[9.37288,45.06601],[9.36721,45.0669],[9.35924,45.068],[9.3557,45.06819]]]]}},{"type":"Feature","properties":{"key":"riviera-del-garda-classico","name":"Riviera del Garda Classico"},"geometry":{"type":"MultiPolygon","coordinates":[[[[10.44032,45.47084],[10.44285,45.46871],[10.44393,45.45411],[10.44519,45.43956],[10.44537,45.43897],[10.44553,45.43845],[10.44573,45.43782],[10.44577,45.43773],[10.44595,45.43731],[10.44605,45.43715],[10.44624,45.43699],[10.44937,45.4346],[10.45159,45.43295],[10.45257,45.43226],[10.45471,45.43079],[10.45615,45.427],[10.45119,45.4186],[10.45297,45.41668],[10.45341,45.41634],[10.45363,45.41618],[10.45435,45.4158],[10.45509,45.41561],[10.45622,45.41549],[10.48118,45.41398],[10.49258,45.41434],[10.49286,45.41449],[10.49338,45.41475],[10.49349,45.41481],[10.494,45.41502],[10.49894,45.41459],[10.5001,45.4144],[10.51144,45.41227],[10.51559,45.41056],[10.51769,45.40956],[10.51831,45.40924],[10.51922,45.40876],[10.52046,45.40809],[10.52398,45.40564],[10.52751,45.40287],[10.53234,45.39815],[10.54113,45.39109],[10.54341,45.38972],[10.54666,45.38692],[10.54811,45.38584],[10.54975,45.38593],[10.55116,45.38624],[10.55293,45.38678],[10.5542,45.38723],[10.55587,45.388],[10.56583,45.38733],[10.57586,45.38244],[10.57999,45.38115],[10.58207,45.38224],[10.58317,45.38277],[10.58536,45.38364],[10.59077,45.3849],[10.59222,45.38508],[10.59793,45.38728],[10.6137,45.38267],[10.61655,45.38357],[10.6174,45.38368],[10.63332,45.38502],[10.64258,45.39039],[10.64223,45.39365],[10.64306,45.39723],[10.64341,45.39844],[10.64535,45.40459],[10.64588,45.40592],[10.64649,45.40724],[10.64774,45.40876],[10.64879,45.40984],[10.65003,45.41044],[10.65167,45.41099],[10.65311,45.41113],[10.65405,45.41101],[10.6551,45.41064],[10.65463,45.41582],[10.65305,45.41605],[10.64387,45.41782],[10.64355,45.41799],[10.64361,45.41874],[10.64366,45.41913],[10.644,45.41995],[10.64741,45.42375],[10.64801,45.43046],[10.64676,45.44104],[10.64211,45.4437],[10.64028,45.4435],[10.63586,45.44211],[10.6279,45.43898],[10.62725,45.43827],[10.62365,45.44362],[10.62702,45.44286],[10.63055,45.44293],[10.6443,45.44489],[10.64774,45.44854],[10.64762,45.4514],[10.64602,45.45273],[10.64471,45.4536],[10.64301,45.45757],[10.64285,45.46261],[10.64157,45.47207],[10.64076,45.47918],[10.64069,45.47989],[10.64033,45.4835],[10.64031,45.4837],[10.64024,45.4844],[10.63977,45.48919],[10.63861,45.50077],[10.63796,45.50783],[10.63792,45.50828],[10.63791,45.50834],[10.63761,45.51149],[10.63674,45.5209],[10.63538,45.53543],[10.63228,45.56846],[10.63171,45.57411],[10.63094,45.58161],[10.62927,45.59539],[10.62847,45.60206],[10.63104,45.60951],[10.58523,45.62513],[10.58461,45.6262],[10.58349,45.62937],[10.57536,45.63918],[10.56814,45.64527],[10.56729,45.64708],[10.56659,45.65211],[10.5662,45.65917],[10.56529,45.66148],[10.56446,45.6634],[10.56158,45.66881],[10.56068,45.66967],[10.54767,45.6759],[10.54537,45.67682],[10.54336,45.67675],[10.53352,45.67542],[10.53193,45.67515],[10.53245,45.67496],[10.53271,45.67482],[10.53316,45.6745],[10.53351,45.67412],[10.53508,45.67088],[10.53349,45.65217],[10.53249,45.64753],[10.53206,45.64302],[10.53197,45.64257],[10.52991,45.63962],[10.52981,45.63953],[10.52956,45.63927],[10.52912,45.6389],[10.52864,45.63859],[10.52283,45.6354],[10.51521,45.63352],[10.49529,45.62659],[10.49087,45.62353],[10.48841,45.62558],[10.48763,45.62619],[10.48718,45.6265],[10.4865,45.62696],[10.48607,45.62718],[10.48162,45.62885],[10.48014,45.62928],[10.47978,45.62934],[10.4787,45.62936],[10.47431,45.62883],[10.47228,45.62838],[10.4711,45.6281],[10.47119,45.62727],[10.47089,45.6265],[10.46949,45.62572],[10.4687,45.62533],[10.46745,45.62487],[10.46672,45.62461],[10.46624,45.62447],[10.46532,45.62423],[10.46275,45.62361],[10.46174,45.62341],[10.4615,45.62337],[10.46119,45.62333],[10.46037,45.62325],[10.45992,45.62324],[10.45628,45.62335],[10.44752,45.62468],[10.44608,45.62534],[10.44568,45.62532],[10.44251,45.62586],[10.44111,45.62611],[10.43816,45.62688],[10.43811,45.62745],[10.43546,45.62757],[10.43514,45.62755],[10.43383,45.62743],[10.43269,45.62731],[10.43215,45.62721],[10.42832,45.62623],[10.41753,45.62212],[10.41689,45.62043],[10.41617,45.61594],[10.41897,45.61503],[10.42073,45.6127],[10.4195,45.60722],[10.41519,45.60652],[10.40525,45.60603],[10.40287,45.59433],[10.40159,45.59259],[10.40152,45.59248],[10.40106,45.59257],[10.40012,45.59069],[10.39993,45.58778],[10.40076,45.58312],[10.40137,45.58121],[10.40212,45.58024],[10.40469,45.57937],[10.40628,45.57658],[10.40966,45.56925],[10.4122,45.56453],[10.41266,45.56457],[10.42683,45.5661],[10.43343,45.56163],[10.43323,45.56001],[10.43338,45.5591],[10.43612,45.55675],[10.43964,45.55529],[10.4397,45.55527],[10.43979,45.55525],[10.43998,45.55524],[10.44027,45.55523],[10.44121,45.55521],[10.44161,45.55522],[10.44177,45.55536],[10.44177,45.55529],[10.4417,45.55511],[10.44163,45.55494],[10.44148,45.55462],[10.44133,45.55436],[10.44103,45.55407],[10.4406,45.55388],[10.44013,45.55396],[10.4397,45.5541],[10.43955,45.55415],[10.43945,45.55419],[10.43697,45.5522],[10.4365,45.54972],[10.43667,45.54234],[10.43324,45.53291],[10.42772,45.52696],[10.42678,45.52703],[10.4254,45.52711],[10.42412,45.52708],[10.42213,45.52665],[10.42121,45.52645],[10.42063,45.5263],[10.42046,45.52625],[10.42,45.52612],[10.41901,45.52582],[10.41798,45.52542],[10.41733,45.52512],[10.41697,45.52495],[10.4166,45.52476],[10.41649,45.52469],[10.41621,45.52443],[10.41594,45.52413],[10.4159,45.52406],[10.41587,45.52371],[10.41587,45.52359],[10.41589,45.52334],[10.41593,45.52318],[10.41598,45.52304],[10.416,45.523],[10.41603,45.52295],[10.41441,45.52211],[10.41146,45.52138],[10.40962,45.52208],[10.40714,45.52335],[10.39972,45.51783],[10.39934,45.51608],[10.3988,45.51422],[10.39722,45.51015],[10.39693,45.50994],[10.39179,45.50952],[10.3884,45.50935],[10.38208,45.50858],[10.38118,45.50292],[10.38113,45.5019],[10.38061,45.49493],[10.38055,45.49416],[10.38052,45.49386],[10.38048,45.49349],[10.38026,45.49201],[10.38012,45.49143],[10.37982,45.49057],[10.37974,45.49042],[10.37968,45.49034],[10.37796,45.48875],[10.37602,45.4886],[10.37431,45.48844],[10.37342,45.48819],[10.37148,45.48762],[10.37091,45.48743],[10.3706,45.48732],[10.37041,45.48718],[10.37019,45.48701],[10.36999,45.48686],[10.36988,45.48677],[10.37186,45.48619],[10.37668,45.48478],[10.37865,45.48424],[10.38036,45.48378],[10.3805,45.48374],[10.3808,45.48369],[10.38211,45.48344],[10.3832,45.48323],[10.38367,45.48315],[10.40563,45.47992],[10.41379,45.47889],[10.41482,45.47901],[10.41566,45.47905],[10.41579,45.47906],[10.41892,45.47898],[10.42609,45.47797],[10.43062,45.47352],[10.44032,45.47084]]]]}},{"type":"Feature","properties":{"key":"moscato-di-scanzo","name":"Moscato di Scanzo"},"geometry":{"type":"MultiPolygon","coordinates":[[[[9.79779,45.71544],[9.8008,45.72393],[9.80065,45.72421],[9.80011,45.72449],[9.79935,45.72475],[9.7931,45.72653],[9.79234,45.7267],[9.78122,45.72852],[9.78011,45.72866],[9.77938,45.72873],[9.77869,45.72879],[9.77811,45.72879],[9.77758,45.72876],[9.77711,45.72872],[9.77669,45.72864],[9.77629,45.72854],[9.7666,45.71969],[9.76569,45.71911],[9.75004,45.71804],[9.74029,45.71442],[9.73509,45.71404],[9.73013,45.71441],[9.72751,45.71453],[9.7254,45.71064],[9.72227,45.70562],[9.72598,45.70356],[9.73026,45.70325],[9.73741,45.70208],[9.75621,45.69858],[9.75696,45.70136],[9.7585,45.70304],[9.764,45.70698],[9.76729,45.70834],[9.7682,45.70864],[9.77121,45.70865],[9.77132,45.70807],[9.77136,45.70782],[9.77127,45.70771],[9.76864,45.70598],[9.77179,45.70494],[9.78282,45.70418],[9.78568,45.70427],[9.78911,45.70479],[9.79331,45.70576],[9.79433,45.70719],[9.79779,45.71544]]]]}},{"type":"Feature","properties":{"key":"san-colombano","name":"San Colombano al Lambro"},"geometry":{"type":"MultiPolygon","coordinates":[[[[9.47067,45.20131],[9.4673,45.20428],[9.46201,45.20895],[9.46107,45.21014],[9.4603,45.21123],[9.45456,45.22182],[9.4542,45.22286],[9.45422,45.22314],[9.45428,45.22392],[9.45451,45.22634],[9.45163,45.22651],[9.44678,45.2274],[9.4401,45.22946],[9.43939,45.2303],[9.43919,45.23091],[9.43937,45.23133],[9.43941,45.23144],[9.44076,45.2336],[9.44074,45.23544],[9.43633,45.23982],[9.43111,45.24266],[9.43075,45.2437],[9.43296,45.24536],[9.43236,45.24557],[9.43023,45.25327],[9.42512,45.26138],[9.42449,45.26237],[9.42307,45.26497],[9.41932,45.26418],[9.41864,45.26287],[9.41627,45.25877],[9.41527,45.25823],[9.41397,45.25768],[9.41492,45.25346],[9.41411,45.25033],[9.41398,45.24981],[9.41391,45.24956],[9.41334,45.24902],[9.41256,45.24839],[9.41204,45.24822],[9.41003,45.24777],[9.40231,45.24776],[9.40104,45.24836],[9.39664,45.2517],[9.39632,45.25278],[9.39642,45.25484],[9.3915,45.25234],[9.37923,45.2488],[9.37808,45.24847],[9.37446,45.24799],[9.36867,45.24726],[9.36722,45.24713],[9.36567,45.24704],[9.36369,45.24695],[9.37132,45.24403],[9.37408,45.23863],[9.37849,45.23197],[9.37996,45.23099],[9.38109,45.23024],[9.38184,45.23042],[9.38345,45.23106],[9.38518,45.23194],[9.38699,45.23194],[9.38962,45.23185],[9.39093,45.23173],[9.39185,45.22903],[9.39193,45.22698],[9.39136,45.2267],[9.39027,45.22618],[9.38947,45.22626],[9.38842,45.22596],[9.3872,45.22531],[9.38729,45.22399],[9.38782,45.2231],[9.39226,45.21858],[9.39757,45.21855],[9.39783,45.21798],[9.4,45.21288],[9.40103,45.21013],[9.39134,45.20644],[9.38735,45.2059],[9.37936,45.20292],[9.37474,45.20404],[9.37266,45.20376],[9.37058,45.20273],[9.3712,45.19485],[9.37433,45.1908],[9.37597,45.18852],[9.37555,45.18813],[9.37518,45.18779],[9.37137,45.1844],[9.37038,45.18403],[9.38475,45.17689],[9.38359,45.17927],[9.38407,45.1835],[9.39372,45.18451],[9.39557,45.18515],[9.39864,45.18547],[9.40031,45.18557],[9.40092,45.18559],[9.40508,45.18557],[9.40713,45.18551],[9.40745,45.18548],[9.40798,45.1854],[9.4093,45.18447],[9.40998,45.18393],[9.41109,45.18271],[9.41135,45.18232],[9.4116,45.18184],[9.41173,45.18145],[9.41181,45.18127],[9.4119,45.18106],[9.412,45.18088],[9.41211,45.1807],[9.4124,45.18053],[9.41278,45.18035],[9.41326,45.18017],[9.41461,45.18005],[9.41508,45.1801],[9.4174,45.18048],[9.42151,45.18209],[9.42369,45.17735],[9.42614,45.16968],[9.4313,45.16009],[9.43599,45.16011],[9.43673,45.16018],[9.43713,45.16026],[9.45494,45.16083],[9.4655,45.1613],[9.47824,45.16166],[9.47827,45.1615],[9.48175,45.16148],[9.48426,45.16157],[9.48803,45.16174],[9.51935,45.16418],[9.52888,45.16507],[9.53158,45.16535],[9.53136,45.16688],[9.52788,45.16876],[9.52662,45.16947],[9.52658,45.16949],[9.52657,45.16953],[9.52655,45.16968],[9.52645,45.17042],[9.52689,45.1709],[9.5264,45.17882],[9.52135,45.18064],[9.52112,45.18056],[9.5205,45.18042],[9.51973,45.18024],[9.51855,45.18098],[9.51659,45.18282],[9.51615,45.1835],[9.51571,45.18708],[9.51079,45.18714],[9.50171,45.18609],[9.49123,45.19126],[9.48975,45.19121],[9.48624,45.19158],[9.48549,45.19181],[9.48072,45.19421],[9.47722,45.19805],[9.47067,45.20131]]]]}}]}