{"type":"Feature","properties":{"source":"CAOP 2025 (RAM) municipios, dissolved","authority":"Direção-Geral do Território (DGT)","licence":"CC BY 4.0","attribution":"Direção-Geral do Território","service":"https://geo2.dgterritorio.gov.pt/geoserver/caop_ram/wfs (caop_ram:ram_municipios, EPSG:4326)","record":"https://dados.gov.pt/en/datasets/carta-administrativa-oficial-de-portugal-caop2025-ram/","method":"Union of the 11 RAM municipios, reduced to the islands of Madeira and Porto Santo (the DO Madeira / DO Madeirense / IG Terras Madeirenses area per IVBAM). mapshaper 6% Visvalingam simplify with keep-shapes, interior rings dropped, 5dp.","retrieved":"2026-09-10"},"geometry":{"type":"MultiPolygon","coordinates":[[[[-17.2239,32.7522],[-17.2238,32.7522],[-17.2234,32.7522],[-17.2222,32.7512],[-17.2213,32.7489],[-17.2208,32.748],[-17.2198,32.7474],[-17.2191,32.7474],[-17.2175,32.7469],[-17.2163,32.7463],[-17.2152,32.7448],[-17.2143,32.7439],[-17.2135,32.7425],[-17.2135,32.7415],[-17.2128,32.7406],[-17.2128,32.7398],[-17.2132,32.7388],[-17.2129,32.7373],[-17.2122,32.7366],[-17.2108,32.7358],[-17.2084,32.735],[-17.2077,32.7342],[-17.2052,32.7327],[-17.2047,32.7326],[-17.2026,32.7316],[-17.2,32.7315],[-17.1984,32.7306],[-17.1958,32.7289],[-17.1941,32.7272],[-17.1924,32.7263],[-17.1916,32.7255],[-17.1914,32.7247],[-17.1903,32.7249],[-17.1901,32.7245],[-17.1891,32.724],[-17.1885,32.724],[-17.1871,32.7232],[-17.1863,32.7234],[-17.1849,32.7233],[-17.1823,32.7224],[-17.1792,32.7208],[-17.1787,32.72],[-17.1778,32.7207],[-17.1749,32.7196],[-17.1746,32.7191],[-17.175,32.7186],[-17.1738,32.7181],[-17.1731,32.7188],[-17.1711,32.7181],[-17.1706,32.7176],[-17.171,32.7168],[-17.1699,32.7165],[-17.1684,32.7164],[-17.1676,32.716],[-17.1658,32.7147],[-17.1647,32.7144],[-17.1635,32.7136],[-17.1616,32.7127],[-17.1605,32.7124],[-17.1591,32.7116],[-17.1558,32.7108],[-17.1531,32.7104],[-17.1519,32.71],[-17.1492,32.7084],[-17.148,32.7072],[-17.147,32.7059],[-17.146,32.7054],[-17.1439,32.7037],[-17.1436,32.7037],[-17.1427,32.7038],[-17.1414,32.7035],[-17.1407,32.703],[-17.14,32.7034],[-17.1387,32.7034],[-17.1375,32.7025],[-17.1369,32.7016],[-17.1357,32.7004],[-17.1348,32.7],[-17.1316,32.699],[-17.1301,32.6973],[-17.129,32.6964],[-17.1273,32.6944],[-17.1259,32.6932],[-17.1245,32.6925],[-17.1232,32.6923],[-17.1224,32.6921],[-17.1218,32.6921],[-17.1205,32.6909],[-17.1195,32.689],[-17.1181,32.6877],[-17.1167,32.6869],[-17.1145,32.6862],[-17.1132,32.6849],[-17.1117,32.6842],[-17.1114,32.6837],[-17.1101,32.6826],[-17.1101,32.6825],[-17.1098,32.6823],[-17.1093,32.6819],[-17.1093,32.6818],[-17.1091,32.6817],[-17.1091,32.6816],[-17.1082,32.6814],[-17.1065,32.6802],[-17.1057,32.6794],[-17.1042,32.6788],[-17.1043,32.6783],[-17.1026,32.6788],[-17.1016,32.6787],[-17.1007,32.6793],[-17.0997,32.6796],[-17.0984,32.6795],[-17.0962,32.6791],[-17.0966,32.6796],[-17.096,32.6807],[-17.0945,32.6806],[-17.0933,32.6799],[-17.0928,32.679],[-17.0915,32.6794],[-17.0902,32.6789],[-17.0898,32.6785],[-17.089,32.6785],[-17.0866,32.6796],[-17.0859,32.6796],[-17.0833,32.6784],[-17.0823,32.6782],[-17.0813,32.6777],[-17.0802,32.6775],[-17.0792,32.6769],[-17.0789,32.677],[-17.0773,32.6765],[-17.0754,32.6761],[-17.0735,32.6759],[-17.0719,32.6753],[-17.07,32.6738],[-17.0686,32.6722],[-17.068,32.6719],[-17.0668,32.6708],[-17.0659,32.6702],[-17.0654,32.6688],[-17.0645,32.6683],[-17.0638,32.6687],[-17.0623,32.6692],[-17.0608,32.6692],[-17.0594,32.6686],[-17.0587,32.6685],[-17.0579,32.668],[-17.0569,32.668],[-17.0556,32.667],[-17.0536,32.6661],[-17.052,32.6658],[-17.0507,32.6654],[-17.0496,32.6648],[-17.0483,32.6647],[-17.0465,32.6649],[-17.0449,32.6645],[-17.0435,32.664],[-17.0428,32.664],[-17.0418,32.6633],[-17.0405,32.6627],[-17.0397,32.6626],[-17.0382,32.6618],[-17.0367,32.662],[-17.0341,32.6613],[-17.0318,32.6602],[-17.03,32.6593],[-17.0294,32.6587],[-17.0277,32.6576],[-17.026,32.6561],[-17.0246,32.6556],[-17.0236,32.6555],[-17.0223,32.6548],[-17.022,32.6539],[-17.0212,32.6543],[-17.0196,32.6536],[-17.0185,32.6535],[-17.0167,32.6524],[-17.0143,32.6525],[-17.0119,32.6524],[-17.0106,32.6528],[-17.0072,32.6531],[-17.0062,32.6528],[-17.0055,32.6529],[-17.0043,32.6539],[-17.0033,32.6539],[-17.0022,32.6536],[-16.9989,32.653],[-16.9977,32.6524],[-16.9959,32.6513],[-16.9946,32.6508],[-16.9934,32.6512],[-16.9916,32.6511],[-16.9912,32.6514],[-16.9901,32.6511],[-16.988,32.6513],[-16.9866,32.6514],[-16.985,32.6508],[-16.9849,32.6505],[-16.9848,32.6505],[-16.9847,32.6506],[-16.9847,32.6505],[-16.984,32.6501],[-16.9824,32.6496],[-16.9813,32.6496],[-16.9813,32.6497],[-16.9803,32.6495],[-16.979,32.6484],[-16.9776,32.6476],[-16.9775,32.6472],[-16.9775,32.6471],[-16.9766,32.6472],[-16.9756,32.6468],[-16.9756,32.6455],[-16.9752,32.6463],[-16.9756,32.6479],[-16.9746,32.6479],[-16.9742,32.6463],[-16.9736,32.646],[-16.973,32.6457],[-16.9721,32.6449],[-16.972,32.6448],[-16.9715,32.6444],[-16.9705,32.6443],[-16.9703,32.6447],[-16.9694,32.6445],[-16.9677,32.6441],[-16.9651,32.6431],[-16.9633,32.6433],[-16.9622,32.6429],[-16.9609,32.6432],[-16.9598,32.6431],[-16.9594,32.6428],[-16.9569,32.6417],[-16.9562,32.642],[-16.9551,32.6418],[-16.9541,32.6413],[-16.953,32.6404],[-16.9479,32.6366],[-16.9478,32.6352],[-16.9473,32.6341],[-16.9462,32.6332],[-16.9449,32.633],[-16.944,32.6333],[-16.944,32.6332],[-16.9437,32.633],[-16.9433,32.633],[-16.9435,32.6332],[-16.9432,32.6333],[-16.9417,32.6339],[-16.9416,32.6339],[-16.9415,32.634],[-16.9413,32.634],[-16.941,32.634],[-16.9409,32.634],[-16.9394,32.6338],[-16.9393,32.6339],[-16.9391,32.635],[-16.939,32.6352],[-16.939,32.6353],[-16.9385,32.6359],[-16.9378,32.6359],[-16.9378,32.636],[-16.9377,32.636],[-16.937,32.6363],[-16.9364,32.6361],[-16.9355,32.6365],[-16.9347,32.6365],[-16.9344,32.6361],[-16.9345,32.636],[-16.9344,32.636],[-16.9332,32.6353],[-16.9321,32.6353],[-16.9316,32.636],[-16.9305,32.6359],[-16.9299,32.6365],[-16.9292,32.6365],[-16.9285,32.6369],[-16.927,32.6372],[-16.9259,32.6372],[-16.9256,32.6385],[-16.925,32.6399],[-16.9245,32.64],[-16.9234,32.6395],[-16.9231,32.64],[-16.9231,32.6401],[-16.9227,32.6408],[-16.922,32.6412],[-16.9211,32.6416],[-16.92,32.6412],[-16.919,32.6415],[-16.9179,32.6412],[-16.9172,32.6409],[-16.9153,32.6409],[-16.9122,32.6415],[-16.9107,32.6415],[-16.9107,32.6416],[-16.9069,32.6416],[-16.9069,32.6421],[-16.9107,32.6421],[-16.9127,32.6417],[-16.9167,32.6412],[-16.9165,32.6419],[-16.9165,32.6423],[-16.9152,32.6426],[-16.913,32.644],[-16.9131,32.6447],[-16.9115,32.6449],[-16.9111,32.646],[-16.9103,32.6459],[-16.9094,32.6462],[-16.9093,32.6453],[-16.9104,32.6449],[-16.909,32.6453],[-16.9088,32.6458],[-16.9069,32.646],[-16.9066,32.6453],[-16.9059,32.6459],[-16.9047,32.6465],[-16.9039,32.6466],[-16.9024,32.6456],[-16.9024,32.6463],[-16.9014,32.6465],[-16.9007,32.6458],[-16.9001,32.6465],[-16.8991,32.6464],[-16.899,32.6465],[-16.8989,32.6464],[-16.8987,32.6464],[-16.8986,32.6463],[-16.8986,32.6462],[-16.8986,32.6461],[-16.8984,32.6462],[-16.8983,32.6463],[-16.8982,32.6464],[-16.8972,32.6465],[-16.8966,32.6469],[-16.8958,32.6471],[-16.8942,32.6469],[-16.8942,32.6468],[-16.8941,32.6468],[-16.894,32.6468],[-16.8934,32.6467],[-16.8933,32.6467],[-16.8929,32.6466],[-16.8926,32.6466],[-16.8925,32.6466],[-16.8923,32.6466],[-16.8922,32.6466],[-16.8917,32.6466],[-16.8903,32.6464],[-16.8901,32.6463],[-16.8901,32.6462],[-16.89,32.6462],[-16.8895,32.6462],[-16.8889,32.646],[-16.8888,32.6459],[-16.888,32.6461],[-16.8855,32.6462],[-16.8855,32.6461],[-16.8854,32.6461],[-16.8853,32.6461],[-16.8845,32.646],[-16.8827,32.6457],[-16.88,32.6453],[-16.8785,32.6454],[-16.8775,32.645],[-16.8761,32.6449],[-16.8749,32.6444],[-16.8732,32.6444],[-16.8716,32.644],[-16.8712,32.6437],[-16.8698,32.6435],[-16.8663,32.642],[-16.8656,32.6419],[-16.8639,32.6411],[-16.8618,32.6404],[-16.8607,32.6404],[-16.8597,32.6401],[-16.8585,32.6401],[-16.8578,32.6398],[-16.8571,32.6396],[-16.8552,32.6388],[-16.8546,32.6387],[-16.852,32.638],[-16.8513,32.6367],[-16.8497,32.6363],[-16.8493,32.6378],[-16.8497,32.6379],[-16.8491,32.6394],[-16.8477,32.64],[-16.8457,32.64],[-16.8443,32.64],[-16.8437,32.6398],[-16.842,32.6397],[-16.8413,32.6401],[-16.8404,32.6402],[-16.8403,32.6402],[-16.8398,32.6404],[-16.8397,32.6404],[-16.8381,32.6412],[-16.8359,32.6413],[-16.835,32.641],[-16.8336,32.641],[-16.8333,32.6411],[-16.833,32.6409],[-16.8329,32.6409],[-16.8324,32.6412],[-16.8311,32.6404],[-16.8304,32.6418],[-16.8299,32.6417],[-16.8298,32.6417],[-16.8295,32.642],[-16.8291,32.6425],[-16.829,32.643],[-16.8285,32.6432],[-16.8283,32.6437],[-16.8282,32.6439],[-16.8277,32.6442],[-16.8262,32.6451],[-16.8248,32.6454],[-16.8243,32.6457],[-16.8245,32.6463],[-16.8239,32.6473],[-16.8233,32.6472],[-16.8235,32.648],[-16.8234,32.648],[-16.8234,32.6481],[-16.8234,32.6482],[-16.8224,32.6482],[-16.8223,32.6489],[-16.8226,32.6495],[-16.8212,32.6504],[-16.8202,32.6507],[-16.819,32.6507],[-16.8181,32.6503],[-16.8181,32.6502],[-16.8175,32.6509],[-16.8165,32.651],[-16.8161,32.6514],[-16.8149,32.6517],[-16.8148,32.6517],[-16.8147,32.6517],[-16.8146,32.6517],[-16.8145,32.6517],[-16.8144,32.6517],[-16.8145,32.6518],[-16.8146,32.652],[-16.8142,32.652],[-16.814,32.6521],[-16.8139,32.6521],[-16.8141,32.6527],[-16.814,32.6527],[-16.8138,32.6527],[-16.8138,32.6528],[-16.8138,32.6529],[-16.8138,32.653],[-16.8129,32.6538],[-16.8129,32.6539],[-16.8128,32.6539],[-16.8132,32.6542],[-16.8132,32.6544],[-16.8128,32.6545],[-16.8128,32.6546],[-16.8125,32.6548],[-16.8124,32.6548],[-16.8124,32.6549],[-16.8125,32.6549],[-16.8125,32.6554],[-16.8116,32.6561],[-16.8099,32.6566],[-16.8077,32.6596],[-16.808,32.6604],[-16.8078,32.6615],[-16.8068,32.6624],[-16.8061,32.6625],[-16.8045,32.6634],[-16.8035,32.6629],[-16.8034,32.6629],[-16.8033,32.6633],[-16.8033,32.6635],[-16.8033,32.6638],[-16.8029,32.6647],[-16.8028,32.6647],[-16.8028,32.6648],[-16.8031,32.6662],[-16.803,32.6662],[-16.8022,32.6673],[-16.8023,32.6684],[-16.8024,32.6684],[-16.8023,32.6687],[-16.8024,32.6688],[-16.8026,32.6693],[-16.8026,32.6694],[-16.8026,32.6695],[-16.8025,32.6695],[-16.8026,32.6696],[-16.8027,32.6701],[-16.8022,32.6716],[-16.8019,32.6719],[-16.8019,32.672],[-16.8019,32.6721],[-16.802,32.6725],[-16.8017,32.6728],[-16.8017,32.6729],[-16.8017,32.673],[-16.8016,32.6739],[-16.8008,32.6752],[-16.7998,32.6757],[-16.7989,32.6766],[-16.7979,32.6785],[-16.7978,32.6787],[-16.7978,32.6788],[-16.7977,32.6788],[-16.7977,32.6789],[-16.7975,32.6796],[-16.797,32.6799],[-16.797,32.68],[-16.797,32.6801],[-16.7963,32.6809],[-16.7955,32.6815],[-16.7954,32.6815],[-16.7953,32.6816],[-16.7952,32.6817],[-16.7955,32.6821],[-16.7954,32.6821],[-16.7954,32.6822],[-16.7945,32.6829],[-16.7942,32.6834],[-16.7936,32.6848],[-16.7906,32.6874],[-16.7895,32.688],[-16.7879,32.6882],[-16.7865,32.6882],[-16.7856,32.6883],[-16.7838,32.6877],[-16.7824,32.6888],[-16.7815,32.689],[-16.7808,32.6895],[-16.7798,32.6897],[-16.7797,32.6897],[-16.7781,32.6898],[-16.778,32.6898],[-16.7778,32.6899],[-16.7777,32.6898],[-16.7776,32.6899],[-16.7773,32.6902],[-16.7758,32.6904],[-16.7757,32.6904],[-16.7749,32.6911],[-16.7737,32.691],[-16.7736,32.6909],[-16.7736,32.691],[-16.7734,32.6914],[-16.7731,32.6917],[-16.7729,32.6928],[-16.773,32.6928],[-16.773,32.6929],[-16.7722,32.6939],[-16.7706,32.697],[-16.7703,32.6984],[-16.7698,32.6997],[-16.7692,32.7009],[-16.7689,32.701],[-16.7671,32.7028],[-16.7659,32.7036],[-16.7637,32.7057],[-16.7626,32.7062],[-16.7622,32.7068],[-16.7613,32.7073],[-16.7613,32.7074],[-16.7613,32.7083],[-16.7612,32.7083],[-16.7614,32.7089],[-16.7613,32.7104],[-16.762,32.7122],[-16.7639,32.7141],[-16.765,32.7155],[-16.7642,32.717],[-16.7637,32.7175],[-16.7627,32.718],[-16.7621,32.7179],[-16.7615,32.7187],[-16.7598,32.7184],[-16.7593,32.718],[-16.7585,32.7179],[-16.7581,32.7183],[-16.7574,32.7185],[-16.7574,32.7186],[-16.7563,32.7197],[-16.7562,32.7197],[-16.7557,32.7202],[-16.7554,32.7215],[-16.7538,32.724],[-16.7534,32.7243],[-16.7536,32.7251],[-16.7537,32.7255],[-16.7516,32.7279],[-16.7504,32.7282],[-16.7486,32.7283],[-16.7489,32.729],[-16.7498,32.7295],[-16.7492,32.7299],[-16.7493,32.7312],[-16.7488,32.7316],[-16.7471,32.7316],[-16.7474,32.7327],[-16.7466,32.7342],[-16.7447,32.7352],[-16.743,32.7356],[-16.7413,32.7356],[-16.7405,32.7349],[-16.7398,32.7354],[-16.7385,32.7359],[-16.7383,32.7366],[-16.7374,32.7367],[-16.7373,32.7367],[-16.7373,32.7365],[-16.7371,32.7366],[-16.7363,32.7367],[-16.7359,32.7361],[-16.7351,32.7362],[-16.7351,32.7367],[-16.7344,32.7363],[-16.7317,32.7372],[-16.7307,32.7377],[-16.731,32.7363],[-16.7302,32.7368],[-16.7298,32.7374],[-16.7298,32.7381],[-16.7304,32.7383],[-16.7306,32.7392],[-16.7297,32.7395],[-16.7283,32.7405],[-16.7277,32.7404],[-16.7276,32.7404],[-16.7265,32.7408],[-16.7265,32.7417],[-16.7259,32.7423],[-16.7248,32.7423],[-16.7245,32.7418],[-16.7241,32.742],[-16.7238,32.7419],[-16.7237,32.7419],[-16.7232,32.7417],[-16.7217,32.7421],[-16.7213,32.7418],[-16.7214,32.7422],[-16.7203,32.7425],[-16.7197,32.7417],[-16.7171,32.742],[-16.7167,32.7418],[-16.7164,32.7427],[-16.7153,32.7427],[-16.7153,32.7423],[-16.7151,32.7425],[-16.7151,32.7424],[-16.7142,32.7413],[-16.7126,32.7421],[-16.7117,32.7421],[-16.7109,32.7418],[-16.7107,32.7411],[-16.7097,32.7411],[-16.7095,32.7418],[-16.7089,32.7417],[-16.7073,32.742],[-16.7069,32.7416],[-16.7065,32.7415],[-16.7066,32.7415],[-16.7065,32.7411],[-16.7062,32.7407],[-16.706,32.7405],[-16.706,32.7403],[-16.7057,32.7404],[-16.7056,32.7394],[-16.7056,32.7393],[-16.7048,32.7398],[-16.7042,32.7393],[-16.7036,32.7389],[-16.7027,32.7394],[-16.7023,32.7392],[-16.7022,32.7392],[-16.7023,32.7393],[-16.7022,32.7394],[-16.7016,32.7403],[-16.7015,32.7404],[-16.7014,32.7404],[-16.7014,32.7405],[-16.7014,32.7406],[-16.7014,32.7409],[-16.7013,32.741],[-16.7012,32.741],[-16.7005,32.7414],[-16.7,32.7413],[-16.7,32.7412],[-16.6999,32.7413],[-16.6998,32.7413],[-16.6995,32.7415],[-16.6982,32.7412],[-16.6982,32.7413],[-16.698,32.7411],[-16.6979,32.7411],[-16.6978,32.741],[-16.6974,32.741],[-16.6973,32.741],[-16.6977,32.7424],[-16.6982,32.7431],[-16.698,32.7449],[-16.6968,32.7461],[-16.6968,32.747],[-16.6959,32.7477],[-16.6944,32.7478],[-16.6944,32.7477],[-16.6941,32.7477],[-16.6934,32.7472],[-16.6921,32.7471],[-16.6911,32.7466],[-16.6911,32.7465],[-16.6907,32.7461],[-16.6896,32.746],[-16.6888,32.7456],[-16.6887,32.7455],[-16.6887,32.7456],[-16.6886,32.7455],[-16.6878,32.7454],[-16.6878,32.7453],[-16.6874,32.7452],[-16.6868,32.7447],[-16.6867,32.7441],[-16.6868,32.7441],[-16.6865,32.7432],[-16.6863,32.7425],[-16.6863,32.7421],[-16.6863,32.742],[-16.6862,32.7419],[-16.6854,32.7419],[-16.6854,32.7412],[-16.6849,32.7409],[-16.684,32.7406],[-16.684,32.7404],[-16.6834,32.7401],[-16.6828,32.7397],[-16.6826,32.739],[-16.6819,32.7385],[-16.6821,32.738],[-16.6801,32.7382],[-16.6795,32.7383],[-16.6792,32.7389],[-16.6798,32.7387],[-16.6797,32.7398],[-16.6803,32.7396],[-16.6807,32.7401],[-16.6809,32.7415],[-16.6804,32.7418],[-16.6803,32.7425],[-16.6803,32.7426],[-16.6803,32.7427],[-16.6817,32.7431],[-16.6807,32.7431],[-16.6801,32.7438],[-16.6804,32.7444],[-16.6805,32.7443],[-16.6807,32.7448],[-16.6818,32.7454],[-16.6815,32.7458],[-16.6817,32.7466],[-16.6832,32.7467],[-16.6842,32.7475],[-16.6856,32.7474],[-16.6859,32.7476],[-16.6862,32.7477],[-16.6863,32.7477],[-16.6874,32.7475],[-16.6878,32.7469],[-16.6878,32.7468],[-16.6877,32.7468],[-16.6882,32.7462],[-16.6889,32.7462],[-16.6896,32.7467],[-16.6905,32.7478],[-16.6902,32.7487],[-16.6902,32.7502],[-16.6903,32.7503],[-16.6894,32.7509],[-16.6892,32.7511],[-16.6893,32.7511],[-16.6895,32.7518],[-16.6895,32.7519],[-16.6894,32.7519],[-16.6893,32.7519],[-16.6893,32.7523],[-16.6902,32.753],[-16.6903,32.753],[-16.6914,32.7532],[-16.6915,32.7532],[-16.6917,32.7531],[-16.6917,32.7532],[-16.6918,32.7531],[-16.692,32.7531],[-16.6921,32.7526],[-16.6911,32.7526],[-16.6911,32.7517],[-16.6907,32.7511],[-16.6914,32.7505],[-16.6929,32.7509],[-16.6941,32.7507],[-16.695,32.7511],[-16.6951,32.7519],[-16.6963,32.752],[-16.6964,32.7508],[-16.6968,32.7506],[-16.6975,32.7498],[-16.6974,32.7494],[-16.6989,32.7483],[-16.6999,32.7487],[-16.7004,32.7485],[-16.7013,32.7489],[-16.7027,32.749],[-16.7056,32.7494],[-16.7061,32.7502],[-16.7067,32.7504],[-16.7075,32.7506],[-16.7075,32.7516],[-16.7082,32.752],[-16.7099,32.7518],[-16.7096,32.7512],[-16.7102,32.7509],[-16.7095,32.75],[-16.71,32.7495],[-16.7105,32.7491],[-16.7121,32.749],[-16.7123,32.7493],[-16.7137,32.7494],[-16.714,32.7491],[-16.7145,32.7485],[-16.7151,32.7477],[-16.7157,32.7474],[-16.7165,32.7476],[-16.7167,32.7477],[-16.717,32.7474],[-16.7184,32.7473],[-16.7191,32.7476],[-16.7205,32.7477],[-16.7206,32.7482],[-16.7219,32.7488],[-16.7227,32.7482],[-16.7227,32.7477],[-16.7239,32.7474],[-16.7251,32.7475],[-16.7266,32.7484],[-16.7267,32.7488],[-16.7269,32.7498],[-16.7279,32.7514],[-16.7286,32.7514],[-16.7288,32.7508],[-16.7302,32.7499],[-16.7315,32.7496],[-16.7325,32.7485],[-16.7337,32.7484],[-16.7335,32.7491],[-16.7349,32.7494],[-16.7357,32.749],[-16.7358,32.7481],[-16.7364,32.7481],[-16.7374,32.7486],[-16.7386,32.7501],[-16.7373,32.7515],[-16.7377,32.7518],[-16.7389,32.7514],[-16.7393,32.751],[-16.7405,32.7513],[-16.7408,32.7528],[-16.7416,32.7536],[-16.7429,32.7541],[-16.7442,32.755],[-16.7449,32.7557],[-16.7477,32.7552],[-16.7501,32.7562],[-16.7502,32.7564],[-16.7503,32.7564],[-16.7506,32.7562],[-16.7521,32.7572],[-16.7537,32.7572],[-16.7551,32.7568],[-16.7555,32.7571],[-16.7556,32.7571],[-16.7562,32.7572],[-16.7564,32.7573],[-16.7571,32.7573],[-16.758,32.7571],[-16.7585,32.7565],[-16.7604,32.7569],[-16.761,32.7577],[-16.7624,32.7579],[-16.7629,32.7586],[-16.763,32.7586],[-16.7648,32.7588],[-16.765,32.7591],[-16.7668,32.7592],[-16.7672,32.759],[-16.7677,32.7586],[-16.7677,32.7576],[-16.7685,32.7572],[-16.7694,32.7574],[-16.77,32.7572],[-16.7708,32.7575],[-16.7707,32.7581],[-16.7716,32.7588],[-16.7715,32.7589],[-16.7717,32.7588],[-16.7718,32.7588],[-16.7722,32.7591],[-16.7722,32.7592],[-16.7723,32.7592],[-16.7727,32.7593],[-16.7728,32.7593],[-16.7729,32.7593],[-16.7749,32.7593],[-16.7749,32.7594],[-16.7751,32.7594],[-16.7752,32.7594],[-16.7752,32.7593],[-16.775,32.7593],[-16.7754,32.7592],[-16.7755,32.7592],[-16.7763,32.7588],[-16.7766,32.7582],[-16.7776,32.7577],[-16.7782,32.7578],[-16.7782,32.7579],[-16.779,32.7581],[-16.7801,32.7592],[-16.7804,32.7595],[-16.7813,32.7595],[-16.782,32.7595],[-16.783,32.7597],[-16.7838,32.7602],[-16.7839,32.7618],[-16.7845,32.7621],[-16.7846,32.7621],[-16.7854,32.762],[-16.7863,32.7621],[-16.7864,32.7635],[-16.7863,32.7636],[-16.7866,32.7642],[-16.7874,32.7649],[-16.7887,32.7652],[-16.789,32.7657],[-16.7892,32.7662],[-16.7911,32.7664],[-16.7915,32.7662],[-16.7906,32.7651],[-16.7914,32.7646],[-16.7915,32.7646],[-16.7918,32.7646],[-16.7918,32.7645],[-16.7922,32.7642],[-16.7938,32.7645],[-16.7954,32.7643],[-16.7965,32.7636],[-16.797,32.7632],[-16.797,32.7631],[-16.7974,32.763],[-16.7975,32.763],[-16.7979,32.7625],[-16.7989,32.7626],[-16.7999,32.7631],[-16.8001,32.7637],[-16.8006,32.7639],[-16.8006,32.764],[-16.801,32.7648],[-16.8009,32.7648],[-16.8011,32.765],[-16.8013,32.7653],[-16.8014,32.7653],[-16.8019,32.7654],[-16.8022,32.7654],[-16.8023,32.7654],[-16.8029,32.7649],[-16.8031,32.7648],[-16.8032,32.7648],[-16.8033,32.7647],[-16.8036,32.7647],[-16.8036,32.7646],[-16.8038,32.7646],[-16.8053,32.7647],[-16.8059,32.765],[-16.806,32.765],[-16.8061,32.765],[-16.8069,32.7651],[-16.8072,32.7653],[-16.808,32.7661],[-16.8081,32.7661],[-16.8083,32.7663],[-16.8084,32.7664],[-16.8096,32.7672],[-16.8097,32.7672],[-16.8098,32.7672],[-16.8103,32.7673],[-16.8106,32.7674],[-16.8112,32.7676],[-16.8113,32.7676],[-16.8113,32.7677],[-16.8115,32.7677],[-16.8116,32.7677],[-16.8119,32.7679],[-16.8123,32.7679],[-16.8124,32.768],[-16.8125,32.768],[-16.8138,32.7684],[-16.8139,32.7684],[-16.8144,32.7684],[-16.8145,32.7684],[-16.8146,32.7684],[-16.8149,32.7685],[-16.815,32.7685],[-16.8152,32.7685],[-16.8153,32.7685],[-16.8157,32.7687],[-16.8158,32.7687],[-16.8158,32.7688],[-16.8159,32.769],[-16.8179,32.7688],[-16.8191,32.7681],[-16.8197,32.7675],[-16.8207,32.7675],[-16.8224,32.7681],[-16.824,32.7694],[-16.8251,32.7706],[-16.8268,32.7717],[-16.827,32.7723],[-16.8271,32.7724],[-16.8274,32.7732],[-16.8265,32.7741],[-16.8265,32.7748],[-16.8259,32.7757],[-16.8258,32.7763],[-16.8268,32.7765],[-16.8273,32.7762],[-16.8277,32.7763],[-16.8277,32.7762],[-16.8281,32.7751],[-16.8283,32.7746],[-16.8291,32.7747],[-16.8294,32.7755],[-16.8292,32.7759],[-16.8306,32.7762],[-16.8311,32.777],[-16.831,32.7775],[-16.8307,32.7781],[-16.8307,32.7785],[-16.8307,32.7786],[-16.8308,32.7794],[-16.8308,32.7795],[-16.8309,32.7796],[-16.8308,32.78],[-16.8314,32.7807],[-16.8325,32.7813],[-16.8331,32.7819],[-16.8332,32.783],[-16.8328,32.7834],[-16.8339,32.7838],[-16.834,32.7843],[-16.8349,32.7843],[-16.8353,32.7847],[-16.8353,32.7866],[-16.8358,32.7871],[-16.8374,32.7875],[-16.8386,32.7875],[-16.8387,32.7875],[-16.8389,32.7874],[-16.8399,32.7871],[-16.8409,32.7869],[-16.8436,32.7876],[-16.8454,32.7884],[-16.846,32.7889],[-16.8469,32.7901],[-16.8467,32.7908],[-16.848,32.7921],[-16.849,32.7919],[-16.849,32.793],[-16.8481,32.794],[-16.8492,32.7943],[-16.8513,32.7941],[-16.8519,32.7935],[-16.8545,32.794],[-16.8563,32.7954],[-16.8566,32.7962],[-16.8567,32.7963],[-16.8567,32.7965],[-16.8567,32.7966],[-16.8568,32.7966],[-16.8569,32.797],[-16.857,32.7971],[-16.8571,32.7971],[-16.8572,32.7972],[-16.8572,32.7973],[-16.8575,32.7976],[-16.8576,32.7976],[-16.8585,32.7981],[-16.8598,32.7997],[-16.8599,32.801],[-16.8594,32.8019],[-16.8589,32.8027],[-16.8595,32.8037],[-16.8583,32.8046],[-16.8578,32.8047],[-16.8563,32.8057],[-16.8553,32.8067],[-16.8544,32.8073],[-16.8544,32.8074],[-16.8546,32.8077],[-16.855,32.8076],[-16.8578,32.8067],[-16.8584,32.8068],[-16.8594,32.8068],[-16.8608,32.8063],[-16.8609,32.8069],[-16.8615,32.8071],[-16.8616,32.8071],[-16.8617,32.8071],[-16.8623,32.8072],[-16.8627,32.8072],[-16.8635,32.8072],[-16.8639,32.8077],[-16.8632,32.8084],[-16.8642,32.8088],[-16.8643,32.8088],[-16.8643,32.809],[-16.8644,32.809],[-16.8645,32.8092],[-16.8646,32.8097],[-16.8653,32.8101],[-16.8654,32.81],[-16.8655,32.81],[-16.8658,32.8101],[-16.8658,32.8102],[-16.8659,32.8101],[-16.8675,32.8108],[-16.8684,32.8119],[-16.8694,32.812],[-16.8701,32.8124],[-16.8718,32.8143],[-16.8736,32.8149],[-16.8745,32.8159],[-16.8746,32.816],[-16.8758,32.8166],[-16.8761,32.8172],[-16.8767,32.8182],[-16.8777,32.8187],[-16.8791,32.8204],[-16.8805,32.8218],[-16.8815,32.8242],[-16.8819,32.8249],[-16.8835,32.8265],[-16.8841,32.827],[-16.8858,32.8278],[-16.8867,32.8282],[-16.8881,32.8281],[-16.8899,32.8286],[-16.8916,32.8285],[-16.8936,32.8287],[-16.8945,32.8292],[-16.8961,32.8296],[-16.8976,32.83],[-16.899,32.8317],[-16.9,32.8335],[-16.9005,32.8339],[-16.9006,32.834],[-16.9007,32.834],[-16.9005,32.8346],[-16.9009,32.8343],[-16.9022,32.8345],[-16.9034,32.8358],[-16.9042,32.8363],[-16.9036,32.8371],[-16.9037,32.8375],[-16.9038,32.8375],[-16.9042,32.8367],[-16.9051,32.8361],[-16.9061,32.8361],[-16.9071,32.8367],[-16.9075,32.8368],[-16.9077,32.8368],[-16.9077,32.8367],[-16.9088,32.8366],[-16.9089,32.8366],[-16.9095,32.8365],[-16.9096,32.8365],[-16.9123,32.8363],[-16.9134,32.8355],[-16.9151,32.8349],[-16.9173,32.8344],[-16.9201,32.8334],[-16.9211,32.8334],[-16.922,32.833],[-16.9229,32.833],[-16.924,32.8336],[-16.9262,32.8335],[-16.9281,32.8328],[-16.9289,32.8323],[-16.9308,32.8317],[-16.932,32.8322],[-16.934,32.8316],[-16.9377,32.8312],[-16.9396,32.8312],[-16.9407,32.831],[-16.9413,32.8306],[-16.9436,32.8306],[-16.9445,32.8309],[-16.9465,32.8307],[-16.9492,32.8306],[-16.9513,32.83],[-16.9524,32.8299],[-16.9539,32.8295],[-16.9559,32.8295],[-16.9591,32.8283],[-16.9601,32.8282],[-16.9604,32.8291],[-16.9606,32.829],[-16.9606,32.8289],[-16.9606,32.8288],[-16.9611,32.8282],[-16.9609,32.8274],[-16.9619,32.8269],[-16.9637,32.8267],[-16.9647,32.8267],[-16.9656,32.8271],[-16.9671,32.8272],[-16.9687,32.8266],[-16.9702,32.8266],[-16.9712,32.8269],[-16.97125,32.827],[-16.9713,32.8271],[-16.9736,32.828],[-16.9772,32.8281],[-16.9776,32.8279],[-16.978,32.8276],[-16.9795,32.8276],[-16.9813,32.8269],[-16.9815,32.8266],[-16.9831,32.8267],[-16.984,32.8272],[-16.9849,32.8285],[-16.984,32.8283],[-16.9839,32.8282],[-16.9841,32.8285],[-16.9845,32.8288],[-16.9848,32.8288],[-16.9859,32.8296],[-16.9884,32.8304],[-16.9897,32.8304],[-16.9914,32.8298],[-16.9964,32.8256],[-16.9969,32.8246],[-16.9977,32.8242],[-16.999,32.8232],[-17.0008,32.8222],[-17.0019,32.822],[-17.0042,32.8221],[-17.0062,32.821],[-17.0073,32.821],[-17.0095,32.8195],[-17.0111,32.8186],[-17.0112,32.8186],[-17.0122,32.8182],[-17.0135,32.8173],[-17.0144,32.8171],[-17.0158,32.8156],[-17.0163,32.8154],[-17.0185,32.8157],[-17.0194,32.8151],[-17.0208,32.8151],[-17.0217,32.8156],[-17.0227,32.8156],[-17.0232,32.8153],[-17.0252,32.8151],[-17.0276,32.8151],[-17.0288,32.8146],[-17.0306,32.8142],[-17.0326,32.8132],[-17.0336,32.8132],[-17.0352,32.8128],[-17.0368,32.8122],[-17.0378,32.812],[-17.0382,32.8116],[-17.0393,32.8112],[-17.0401,32.8112],[-17.0409,32.8119],[-17.0434,32.8121],[-17.0443,32.8119],[-17.0459,32.8108],[-17.0465,32.8102],[-17.048,32.8093],[-17.0494,32.8087],[-17.0518,32.8085],[-17.0527,32.809],[-17.0538,32.8093],[-17.0557,32.8093],[-17.0572,32.8096],[-17.0586,32.8101],[-17.0597,32.8102],[-17.0615,32.8111],[-17.0634,32.8116],[-17.0647,32.8123],[-17.0655,32.8123],[-17.0666,32.8128],[-17.0693,32.8133],[-17.0712,32.8142],[-17.0719,32.8142],[-17.0738,32.8136],[-17.0753,32.8137],[-17.0761,32.8145],[-17.0768,32.8141],[-17.0781,32.8149],[-17.0799,32.8154],[-17.0815,32.816],[-17.083,32.8161],[-17.0837,32.8164],[-17.0851,32.8164],[-17.0855,32.8161],[-17.0871,32.8163],[-17.0887,32.8155],[-17.0905,32.8156],[-17.0911,32.8153],[-17.0935,32.8154],[-17.0946,32.8159],[-17.0953,32.8169],[-17.0968,32.8172],[-17.0965,32.8178],[-17.0967,32.8193],[-17.0975,32.8189],[-17.0978,32.8178],[-17.0998,32.818],[-17.0998,32.8191],[-17.1006,32.8194],[-17.101,32.8199],[-17.1022,32.8198],[-17.1032,32.821],[-17.1033,32.8219],[-17.103,32.8224],[-17.1023,32.8225],[-17.1013,32.822],[-17.1021,32.8225],[-17.1023,32.8231],[-17.1022,32.8231],[-17.1021,32.8237],[-17.1025,32.8238],[-17.1021,32.8242],[-17.1024,32.8241],[-17.1026,32.824],[-17.1027,32.824],[-17.1028,32.824],[-17.1027,32.8243],[-17.1032,32.8237],[-17.1024,32.8237],[-17.1023,32.8233],[-17.103,32.8229],[-17.1037,32.824],[-17.1046,32.8249],[-17.1056,32.8253],[-17.1052,32.8257],[-17.1053,32.8264],[-17.1064,32.8268],[-17.108,32.8259],[-17.1087,32.8258],[-17.1095,32.8264],[-17.1105,32.8276],[-17.1113,32.8281],[-17.1116,32.8269],[-17.1127,32.8258],[-17.1136,32.826],[-17.1141,32.8267],[-17.114,32.8275],[-17.1141,32.8275],[-17.1146,32.8273],[-17.1147,32.8272],[-17.1148,32.8271],[-17.1148,32.8272],[-17.1151,32.8266],[-17.1161,32.8258],[-17.1174,32.8259],[-17.1191,32.8267],[-17.1213,32.8268],[-17.1228,32.8267],[-17.1255,32.8277],[-17.1263,32.8285],[-17.1277,32.8292],[-17.1288,32.8304],[-17.1293,32.8305],[-17.1307,32.8315],[-17.132,32.8319],[-17.1332,32.8325],[-17.1336,32.8331],[-17.1347,32.834],[-17.136,32.8348],[-17.1374,32.8362],[-17.1372,32.8371],[-17.138,32.8387],[-17.1389,32.8392],[-17.1405,32.8408],[-17.1406,32.8422],[-17.141,32.8426],[-17.146,32.8451],[-17.1477,32.8463],[-17.1492,32.8472],[-17.15,32.8479],[-17.1503,32.8494],[-17.1498,32.8509],[-17.1498,32.8518],[-17.1503,32.8527],[-17.1505,32.8537],[-17.1516,32.8551],[-17.1528,32.8555],[-17.1549,32.8565],[-17.156,32.8569],[-17.1564,32.8573],[-17.1581,32.8581],[-17.1592,32.8595],[-17.1607,32.8599],[-17.1615,32.8603],[-17.1624,32.8613],[-17.164,32.8622],[-17.1655,32.8645],[-17.1667,32.8659],[-17.166,32.8662],[-17.1652,32.8665],[-17.164,32.8655],[-17.1639,32.8657],[-17.1645,32.8663],[-17.1646,32.8663],[-17.1649,32.867],[-17.1656,32.8676],[-17.165,32.8685],[-17.1651,32.8686],[-17.1652,32.8686],[-17.1653,32.8686],[-17.1652,32.8685],[-17.1654,32.8686],[-17.1655,32.8686],[-17.1655,32.8685],[-17.1656,32.8686],[-17.1658,32.8683],[-17.1664,32.8686],[-17.1669,32.868],[-17.1675,32.8678],[-17.1677,32.868],[-17.1681,32.868],[-17.1685,32.8681],[-17.1686,32.8681],[-17.1688,32.868],[-17.1689,32.868],[-17.1699,32.8677],[-17.1698,32.8685],[-17.1699,32.8685],[-17.1706,32.8691],[-17.1717,32.8687],[-17.1717,32.8682],[-17.1737,32.8677],[-17.1753,32.8676],[-17.1773,32.8666],[-17.1784,32.8666],[-17.1802,32.8673],[-17.181,32.8674],[-17.1844,32.8688],[-17.1874,32.8695],[-17.1885,32.8699],[-17.1934,32.8706],[-17.1951,32.8706],[-17.1967,32.8701],[-17.199,32.8687],[-17.1996,32.8687],[-17.2011,32.8675],[-17.2025,32.8659],[-17.2041,32.8638],[-17.2052,32.8618],[-17.2064,32.8606],[-17.2067,32.8599],[-17.2077,32.8589],[-17.2092,32.8579],[-17.2107,32.8573],[-17.2122,32.8572],[-17.2136,32.8568],[-17.2146,32.8559],[-17.2152,32.8547],[-17.2163,32.8531],[-17.2172,32.8523],[-17.2186,32.8516],[-17.2194,32.8508],[-17.2194,32.8495],[-17.2203,32.8483],[-17.2218,32.8479],[-17.2237,32.8468],[-17.2263,32.8442],[-17.2269,32.8435],[-17.2278,32.843],[-17.2291,32.8413],[-17.2298,32.8406],[-17.2306,32.8402],[-17.2322,32.8391],[-17.2332,32.8388],[-17.2344,32.8377],[-17.2394,32.8353],[-17.2401,32.8346],[-17.241,32.8341],[-17.2428,32.8335],[-17.2438,32.833],[-17.2452,32.8308],[-17.2455,32.83],[-17.2457,32.8291],[-17.2467,32.8273],[-17.2483,32.8258],[-17.2497,32.8247],[-17.2506,32.8242],[-17.2531,32.8224],[-17.2539,32.8216],[-17.2554,32.8205],[-17.2589,32.8176],[-17.2614,32.8165],[-17.2624,32.8164],[-17.2635,32.8159],[-17.2643,32.8158],[-17.2657,32.8152],[-17.2659,32.8144],[-17.2657,32.8135],[-17.265,32.8128],[-17.2645,32.8113],[-17.263,32.8094],[-17.2619,32.8085],[-17.2581,32.8071],[-17.2563,32.8054],[-17.2539,32.804],[-17.2523,32.8032],[-17.2514,32.8022],[-17.2508,32.8009],[-17.2506,32.8],[-17.2499,32.799],[-17.2494,32.7972],[-17.2489,32.7962],[-17.2478,32.7946],[-17.2473,32.7934],[-17.247,32.792],[-17.2469,32.7892],[-17.2467,32.7889],[-17.2463,32.7888],[-17.2462,32.7876],[-17.2457,32.7865],[-17.2457,32.7864],[-17.2455,32.7862],[-17.2453,32.7857],[-17.2448,32.7852],[-17.2448,32.7851],[-17.2444,32.7842],[-17.2443,32.7838],[-17.2443,32.7837],[-17.2433,32.7825],[-17.2435,32.782],[-17.2431,32.7818],[-17.2433,32.7805],[-17.2433,32.7803],[-17.2433,32.7802],[-17.2434,32.779],[-17.2441,32.7782],[-17.2442,32.7775],[-17.2447,32.7771],[-17.2449,32.7762],[-17.2446,32.7739],[-17.2447,32.7733],[-17.242,32.77],[-17.2407,32.7687],[-17.2403,32.7678],[-17.239,32.767],[-17.239,32.7669],[-17.2387,32.7668],[-17.2374,32.7664],[-17.2362,32.7657],[-17.2343,32.7638],[-17.2332,32.7618],[-17.232,32.759],[-17.2314,32.7584],[-17.2296,32.756],[-17.2279,32.7543],[-17.227,32.7539],[-17.2254,32.7527],[-17.2239,32.7522]]],[[[-16.3798,33.0242],[-16.3793,33.0242],[-16.3768,33.025],[-16.375,33.0264],[-16.3743,33.0267],[-16.3731,33.0278],[-16.3701,33.0292],[-16.3688,33.0302],[-16.3665,33.0313],[-16.3649,33.0322],[-16.3625,33.0347],[-16.3615,33.0355],[-16.3588,33.0371],[-16.3573,33.0381],[-16.3548,33.0406],[-16.3536,33.0422],[-16.3516,33.0438],[-16.3496,33.0457],[-16.349,33.046],[-16.3474,33.0473],[-16.3466,33.0483],[-16.3445,33.0505],[-16.3437,33.051],[-16.3422,33.0524],[-16.3402,33.0538],[-16.3387,33.055],[-16.3378,33.0554],[-16.3371,33.056],[-16.3355,33.057],[-16.3344,33.0574],[-16.3297,33.0601],[-16.3288,33.0603],[-16.3279,33.0608],[-16.3252,33.0618],[-16.3235,33.0623],[-16.3225,33.0624],[-16.3203,33.0629],[-16.3177,33.0631],[-16.317,33.0621],[-16.3172,33.063],[-16.3135,33.0631],[-16.3108,33.0624],[-16.3105,33.0621],[-16.3105,33.0604],[-16.3109,33.0599],[-16.3106,33.0593],[-16.3114,33.0588],[-16.3145,33.0584],[-16.3134,33.0581],[-16.311,33.0585],[-16.3105,33.0588],[-16.3101,33.0598],[-16.3101,33.062],[-16.3096,33.0623],[-16.308,33.0627],[-16.3064,33.0628],[-16.3042,33.0624],[-16.3024,33.0619],[-16.3015,33.0609],[-16.3014,33.0608],[-16.3006,33.06],[-16.2994,33.0597],[-16.2983,33.0598],[-16.298,33.0601],[-16.2966,33.0602],[-16.2964,33.0606],[-16.2959,33.0609],[-16.2958,33.0609],[-16.2958,33.061],[-16.2954,33.0607],[-16.2943,33.0601],[-16.2941,33.06],[-16.294,33.0599],[-16.2939,33.0599],[-16.2932,33.0599],[-16.2931,33.0599],[-16.293,33.06],[-16.293,33.0601],[-16.2929,33.0603],[-16.2922,33.0602],[-16.2923,33.0604],[-16.2925,33.0605],[-16.2926,33.0605],[-16.2927,33.0606],[-16.2928,33.0606],[-16.2932,33.0608],[-16.293,33.0604],[-16.2931,33.0604],[-16.2932,33.0604],[-16.2939,33.0609],[-16.2944,33.0614],[-16.2945,33.0615],[-16.2946,33.0615],[-16.2947,33.0616],[-16.2948,33.0616],[-16.2949,33.0617],[-16.2947,33.0625],[-16.2947,33.0626],[-16.2948,33.0626],[-16.2946,33.0631],[-16.2947,33.0631],[-16.2947,33.0632],[-16.2946,33.0633],[-16.2947,33.0633],[-16.2947,33.0637],[-16.2948,33.0638],[-16.2949,33.0642],[-16.2955,33.0644],[-16.2956,33.0647],[-16.2957,33.0648],[-16.2961,33.0652],[-16.2961,33.0653],[-16.2962,33.0654],[-16.2964,33.0657],[-16.2965,33.0658],[-16.2966,33.0658],[-16.2968,33.0662],[-16.2969,33.0662],[-16.2968,33.0665],[-16.2968,33.0666],[-16.2966,33.0671],[-16.2967,33.0674],[-16.2969,33.068],[-16.2978,33.068],[-16.2981,33.069],[-16.298,33.0691],[-16.2979,33.0691],[-16.298,33.0694],[-16.2979,33.0694],[-16.2979,33.0695],[-16.2981,33.0697],[-16.298,33.0698],[-16.2979,33.0698],[-16.2979,33.0699],[-16.2978,33.07],[-16.2977,33.07],[-16.2977,33.0701],[-16.2963,33.0704],[-16.2959,33.0709],[-16.2958,33.071],[-16.2958,33.0711],[-16.2966,33.0714],[-16.2965,33.0721],[-16.296,33.0725],[-16.296,33.0726],[-16.2956,33.073],[-16.2957,33.0731],[-16.2952,33.0736],[-16.2951,33.0736],[-16.2949,33.0736],[-16.2946,33.0739],[-16.2946,33.0741],[-16.2946,33.0742],[-16.2949,33.0742],[-16.2945,33.0749],[-16.2939,33.0747],[-16.2939,33.0751],[-16.2941,33.0756],[-16.2925,33.076],[-16.2924,33.076],[-16.2918,33.076],[-16.2916,33.0759],[-16.2916,33.0758],[-16.2915,33.0758],[-16.2915,33.0759],[-16.2914,33.0759],[-16.2914,33.0758],[-16.2913,33.0758],[-16.2909,33.0757],[-16.2909,33.0758],[-16.2901,33.0754],[-16.2896,33.0756],[-16.2896,33.0757],[-16.2895,33.0757],[-16.2893,33.0759],[-16.2897,33.0763],[-16.2898,33.0764],[-16.2902,33.0766],[-16.2902,33.0767],[-16.2903,33.0767],[-16.2904,33.0767],[-16.291,33.0767],[-16.2913,33.0768],[-16.2924,33.0771],[-16.2927,33.0778],[-16.2928,33.0778],[-16.293,33.0781],[-16.293,33.0782],[-16.2927,33.0785],[-16.2926,33.0785],[-16.2922,33.0786],[-16.2922,33.0787],[-16.2923,33.0787],[-16.2923,33.0789],[-16.2922,33.0789],[-16.2921,33.0791],[-16.2929,33.0802],[-16.293,33.0802],[-16.2931,33.0806],[-16.2941,33.081],[-16.2941,33.0811],[-16.294,33.0812],[-16.294,33.0813],[-16.2939,33.0814],[-16.2939,33.0815],[-16.2939,33.0816],[-16.2943,33.0818],[-16.2946,33.0821],[-16.2945,33.0821],[-16.2945,33.0822],[-16.2946,33.0822],[-16.2945,33.0823],[-16.2943,33.0825],[-16.2942,33.0826],[-16.2942,33.0827],[-16.295,33.0831],[-16.2953,33.0831],[-16.2954,33.0831],[-16.2967,33.0834],[-16.2967,33.0835],[-16.2969,33.0834],[-16.297,33.0834],[-16.2971,33.0834],[-16.2975,33.0831],[-16.2984,33.083],[-16.299,33.0832],[-16.2994,33.0841],[-16.2984,33.0852],[-16.2984,33.0859],[-16.2984,33.0861],[-16.2984,33.0862],[-16.2985,33.0864],[-16.2988,33.0871],[-16.2983,33.088],[-16.2979,33.0881],[-16.2973,33.0881],[-16.2968,33.0887],[-16.2969,33.0888],[-16.2969,33.0889],[-16.2972,33.0892],[-16.2973,33.0893],[-16.2975,33.0895],[-16.297,33.0904],[-16.2966,33.0908],[-16.2964,33.0909],[-16.2964,33.091],[-16.2963,33.091],[-16.2954,33.0913],[-16.2942,33.0912],[-16.2945,33.0915],[-16.2943,33.0917],[-16.2944,33.0918],[-16.2945,33.0918],[-16.2947,33.0928],[-16.2946,33.0928],[-16.294,33.0932],[-16.2939,33.0934],[-16.2938,33.0934],[-16.2937,33.0935],[-16.2936,33.0935],[-16.2935,33.0936],[-16.2936,33.0936],[-16.2936,33.0937],[-16.2935,33.0937],[-16.2935,33.0938],[-16.2933,33.0942],[-16.2933,33.0943],[-16.2935,33.0945],[-16.2938,33.095],[-16.294,33.0953],[-16.2938,33.0961],[-16.2938,33.0962],[-16.2939,33.0973],[-16.294,33.0978],[-16.2939,33.0978],[-16.2939,33.0979],[-16.2938,33.0979],[-16.294,33.0983],[-16.2945,33.099],[-16.2947,33.0992],[-16.2947,33.0993],[-16.2952,33.0998],[-16.2953,33.0999],[-16.2954,33.0999],[-16.2958,33.1],[-16.2958,33.1001],[-16.296,33.1002],[-16.2961,33.1002],[-16.2963,33.1],[-16.2972,33.0997],[-16.2972,33.0996],[-16.2974,33.0991],[-16.2975,33.0991],[-16.2977,33.0983],[-16.2977,33.0982],[-16.2979,33.0974],[-16.2979,33.0973],[-16.298,33.0974],[-16.2982,33.0974],[-16.2985,33.0974],[-16.2985,33.0973],[-16.2987,33.0972],[-16.2988,33.0971],[-16.2989,33.0971],[-16.2992,33.0971],[-16.3003,33.0967],[-16.3004,33.0966],[-16.3006,33.0966],[-16.3019,33.0966],[-16.3019,33.0965],[-16.3029,33.0969],[-16.3033,33.097],[-16.3034,33.097],[-16.3036,33.0972],[-16.3038,33.0972],[-16.3045,33.0975],[-16.3048,33.0967],[-16.305,33.0967],[-16.3051,33.0967],[-16.3053,33.0967],[-16.3053,33.0968],[-16.3054,33.0971],[-16.3055,33.0971],[-16.3058,33.0971],[-16.3059,33.097],[-16.3059,33.0971],[-16.306,33.0971],[-16.3062,33.097],[-16.3066,33.0969],[-16.3068,33.0969],[-16.3076,33.0974],[-16.3076,33.0975],[-16.3076,33.0976],[-16.3075,33.0976],[-16.3076,33.0978],[-16.3079,33.098],[-16.3081,33.0979],[-16.3082,33.0979],[-16.3082,33.0978],[-16.3081,33.0975],[-16.3081,33.0974],[-16.3082,33.0972],[-16.3084,33.0971],[-16.3098,33.0975],[-16.31,33.0983],[-16.3093,33.0983],[-16.309,33.0989],[-16.3098,33.0991],[-16.3092,33.0993],[-16.3091,33.0993],[-16.3094,33.0996],[-16.3095,33.0996],[-16.3102,33.1001],[-16.3103,33.1005],[-16.3105,33.1005],[-16.3109,33.1005],[-16.311,33.1005],[-16.311,33.1006],[-16.3113,33.1014],[-16.3113,33.1013],[-16.3117,33.1013],[-16.3121,33.1026],[-16.3121,33.1027],[-16.3124,33.1027],[-16.3127,33.1029],[-16.3128,33.1029],[-16.3133,33.1031],[-16.3126,33.1032],[-16.3126,33.1033],[-16.313,33.1034],[-16.3135,33.1032],[-16.3148,33.1031],[-16.3149,33.1031],[-16.315,33.1031],[-16.3151,33.1031],[-16.3152,33.1031],[-16.3153,33.1031],[-16.3157,33.1029],[-16.3168,33.1021],[-16.3169,33.1023],[-16.3169,33.1024],[-16.317,33.1026],[-16.3175,33.1028],[-16.3177,33.1029],[-16.3179,33.1029],[-16.3184,33.1031],[-16.3187,33.1038],[-16.3189,33.104],[-16.319,33.1041],[-16.3191,33.1041],[-16.3191,33.1042],[-16.3192,33.1045],[-16.3193,33.1045],[-16.3194,33.1046],[-16.3193,33.1047],[-16.3193,33.1048],[-16.3194,33.1048],[-16.3199,33.1051],[-16.3202,33.1047],[-16.3203,33.1047],[-16.3203,33.1046],[-16.3204,33.1046],[-16.3205,33.1045],[-16.3207,33.1045],[-16.321,33.1046],[-16.3211,33.1047],[-16.3212,33.1047],[-16.3212,33.1048],[-16.3212,33.105],[-16.3212,33.1051],[-16.3218,33.1053],[-16.3219,33.1054],[-16.322,33.1056],[-16.322,33.1057],[-16.3218,33.1058],[-16.3219,33.1061],[-16.3219,33.1062],[-16.3219,33.1063],[-16.3219,33.1064],[-16.3219,33.1065],[-16.3218,33.1065],[-16.3214,33.1067],[-16.3213,33.1068],[-16.3211,33.1069],[-16.3212,33.1069],[-16.3211,33.1072],[-16.3211,33.1073],[-16.3211,33.1074],[-16.3215,33.1074],[-16.3216,33.1074],[-16.3219,33.1074],[-16.3223,33.1073],[-16.3224,33.1073],[-16.3224,33.1072],[-16.3223,33.1072],[-16.3233,33.1067],[-16.3234,33.1065],[-16.3237,33.1058],[-16.3239,33.1057],[-16.3238,33.1057],[-16.3239,33.1055],[-16.324,33.1055],[-16.3241,33.1053],[-16.324,33.1053],[-16.324,33.105],[-16.324,33.1049],[-16.3239,33.1045],[-16.3242,33.1041],[-16.3242,33.104],[-16.3247,33.104],[-16.3248,33.1039],[-16.325,33.1037],[-16.3258,33.103],[-16.3278,33.1032],[-16.3282,33.1026],[-16.328,33.1026],[-16.3277,33.1023],[-16.3284,33.1023],[-16.3289,33.1025],[-16.3292,33.1023],[-16.3292,33.1022],[-16.3289,33.1017],[-16.3292,33.1018],[-16.3293,33.1018],[-16.3293,33.1017],[-16.3294,33.1017],[-16.3295,33.1016],[-16.3296,33.1016],[-16.3297,33.1015],[-16.3296,33.1015],[-16.3296,33.1014],[-16.3295,33.1011],[-16.3296,33.1011],[-16.3295,33.101],[-16.3297,33.1009],[-16.3298,33.1009],[-16.3304,33.1008],[-16.3305,33.1008],[-16.3305,33.1009],[-16.3305,33.101],[-16.3303,33.1012],[-16.3302,33.1012],[-16.3302,33.1013],[-16.3307,33.1016],[-16.3308,33.1016],[-16.3309,33.1016],[-16.3311,33.1017],[-16.3311,33.1016],[-16.3312,33.1017],[-16.3313,33.1015],[-16.3318,33.1017],[-16.3319,33.1017],[-16.3321,33.1017],[-16.3322,33.1017],[-16.3325,33.1016],[-16.3334,33.1014],[-16.3335,33.1014],[-16.3339,33.1012],[-16.334,33.1012],[-16.3344,33.1006],[-16.3343,33.1006],[-16.3344,33.1004],[-16.3334,33.1002],[-16.3332,33.1002],[-16.3329,33.0999],[-16.3332,33.0992],[-16.3338,33.0989],[-16.3338,33.099],[-16.3344,33.099],[-16.3349,33.0996],[-16.335,33.0996],[-16.3349,33.0997],[-16.3353,33.1],[-16.3354,33.1],[-16.3354,33.0999],[-16.3354,33.0998],[-16.3355,33.0998],[-16.3354,33.0997],[-16.3354,33.0996],[-16.3359,33.099],[-16.3358,33.0989],[-16.3348,33.0978],[-16.3349,33.0978],[-16.3354,33.0979],[-16.3363,33.0988],[-16.3363,33.0989],[-16.3365,33.0989],[-16.3366,33.0992],[-16.3368,33.0992],[-16.3369,33.0992],[-16.3371,33.0992],[-16.3383,33.099],[-16.3384,33.099],[-16.3387,33.0991],[-16.3382,33.0984],[-16.3383,33.0984],[-16.3383,33.0981],[-16.3386,33.0975],[-16.3386,33.0974],[-16.3385,33.0974],[-16.3384,33.0973],[-16.3384,33.0972],[-16.3387,33.0971],[-16.3388,33.0971],[-16.3389,33.0971],[-16.3393,33.097],[-16.3393,33.0971],[-16.3394,33.0972],[-16.3394,33.0973],[-16.3398,33.0976],[-16.3401,33.0976],[-16.3404,33.0976],[-16.3409,33.0975],[-16.3414,33.0976],[-16.3415,33.0976],[-16.3418,33.0977],[-16.342,33.0976],[-16.3421,33.0976],[-16.3426,33.0976],[-16.3429,33.0973],[-16.3429,33.0972],[-16.3424,33.0968],[-16.3429,33.0967],[-16.343,33.0966],[-16.3435,33.0964],[-16.3434,33.0964],[-16.3435,33.0963],[-16.3434,33.0961],[-16.3431,33.096],[-16.3433,33.0958],[-16.3434,33.0957],[-16.3438,33.0957],[-16.3441,33.0957],[-16.3442,33.0949],[-16.3443,33.0949],[-16.3445,33.0948],[-16.3446,33.0949],[-16.3447,33.0949],[-16.3447,33.0948],[-16.3449,33.0949],[-16.345,33.0948],[-16.3451,33.095],[-16.3454,33.0949],[-16.3455,33.0949],[-16.3455,33.095],[-16.3456,33.095],[-16.3459,33.0949],[-16.3462,33.0947],[-16.3461,33.0947],[-16.3463,33.0945],[-16.3464,33.0946],[-16.3467,33.0948],[-16.3467,33.0947],[-16.3468,33.0947],[-16.3471,33.0948],[-16.3471,33.0947],[-16.3472,33.0947],[-16.3472,33.0943],[-16.3476,33.0941],[-16.3477,33.0939],[-16.3484,33.0937],[-16.3486,33.0933],[-16.3485,33.0933],[-16.3491,33.0928],[-16.349,33.0927],[-16.3491,33.0926],[-16.3498,33.0923],[-16.35,33.0925],[-16.35,33.0923],[-16.3504,33.0925],[-16.3507,33.093],[-16.3512,33.0928],[-16.3513,33.0928],[-16.3514,33.0931],[-16.3517,33.0929],[-16.3518,33.093],[-16.3525,33.0929],[-16.3525,33.0928],[-16.3525,33.0927],[-16.3529,33.0928],[-16.353,33.093],[-16.353,33.0931],[-16.3533,33.0928],[-16.3535,33.0927],[-16.3536,33.0928],[-16.3537,33.0928],[-16.3538,33.0928],[-16.3539,33.0927],[-16.3538,33.0926],[-16.3538,33.0925],[-16.3537,33.0925],[-16.354,33.0923],[-16.3532,33.0919],[-16.3531,33.0918],[-16.3532,33.0917],[-16.353,33.0912],[-16.3534,33.0913],[-16.353,33.0909],[-16.3533,33.0908],[-16.3537,33.0911],[-16.3538,33.0911],[-16.3541,33.091],[-16.3544,33.091],[-16.3539,33.0907],[-16.3541,33.0905],[-16.3542,33.0905],[-16.3543,33.0905],[-16.3545,33.0905],[-16.3545,33.0906],[-16.3547,33.0906],[-16.3551,33.0903],[-16.3553,33.0905],[-16.3555,33.0902],[-16.3555,33.0901],[-16.3559,33.0898],[-16.3557,33.0898],[-16.3556,33.0898],[-16.3556,33.0896],[-16.3564,33.0894],[-16.3563,33.0887],[-16.3562,33.0887],[-16.3561,33.0886],[-16.356,33.0886],[-16.3562,33.0881],[-16.3567,33.0879],[-16.3568,33.0878],[-16.357,33.0879],[-16.3571,33.088],[-16.3572,33.088],[-16.3575,33.0881],[-16.3577,33.0882],[-16.3578,33.0878],[-16.3579,33.0878],[-16.358,33.0876],[-16.357,33.0874],[-16.3572,33.0868],[-16.3582,33.0864],[-16.3582,33.0863],[-16.3583,33.0858],[-16.3582,33.0858],[-16.3581,33.0857],[-16.3583,33.0855],[-16.3584,33.0854],[-16.3584,33.0853],[-16.3585,33.0853],[-16.3581,33.085],[-16.3586,33.085],[-16.3595,33.0852],[-16.3597,33.0844],[-16.3599,33.0843],[-16.36,33.084],[-16.3601,33.084],[-16.3601,33.0839],[-16.3601,33.0838],[-16.3601,33.0837],[-16.3602,33.0833],[-16.3601,33.0832],[-16.3601,33.0831],[-16.3606,33.0831],[-16.3606,33.0832],[-16.361,33.0836],[-16.3611,33.0836],[-16.3612,33.0836],[-16.3613,33.0836],[-16.3614,33.0836],[-16.3614,33.0835],[-16.3615,33.0835],[-16.3616,33.0835],[-16.3616,33.0836],[-16.3619,33.0834],[-16.3622,33.0834],[-16.3623,33.0834],[-16.363,33.0836],[-16.3631,33.0836],[-16.3631,33.0837],[-16.3632,33.0837],[-16.3633,33.0837],[-16.3636,33.0836],[-16.3637,33.0836],[-16.3639,33.0835],[-16.3639,33.0834],[-16.3639,33.0833],[-16.3639,33.0832],[-16.3636,33.0831],[-16.3637,33.083],[-16.364,33.0829],[-16.3642,33.083],[-16.3642,33.0831],[-16.3643,33.0831],[-16.3644,33.0831],[-16.3646,33.0831],[-16.3648,33.083],[-16.3652,33.0829],[-16.3653,33.0832],[-16.3654,33.083],[-16.3654,33.0827],[-16.3655,33.0826],[-16.3657,33.0824],[-16.3658,33.0824],[-16.3659,33.0827],[-16.3658,33.0829],[-16.3658,33.083],[-16.366,33.0828],[-16.3665,33.0825],[-16.3665,33.0824],[-16.3666,33.0823],[-16.3667,33.0823],[-16.3667,33.0822],[-16.3668,33.0822],[-16.3669,33.0821],[-16.367,33.0821],[-16.3676,33.0824],[-16.3677,33.0824],[-16.3678,33.0821],[-16.3679,33.0821],[-16.3679,33.082],[-16.3681,33.0819],[-16.3682,33.0819],[-16.3682,33.0818],[-16.3683,33.0818],[-16.3684,33.0818],[-16.3684,33.0819],[-16.3685,33.0821],[-16.3686,33.0821],[-16.3688,33.082],[-16.3697,33.0822],[-16.3697,33.0823],[-16.3702,33.0825],[-16.3706,33.0822],[-16.3706,33.0821],[-16.3708,33.0818],[-16.3709,33.0818],[-16.3712,33.0817],[-16.3711,33.0818],[-16.3712,33.0818],[-16.3713,33.0817],[-16.3717,33.0813],[-16.3718,33.0812],[-16.3718,33.0811],[-16.3718,33.081],[-16.3718,33.0809],[-16.3718,33.0808],[-16.3718,33.0807],[-16.3718,33.0806],[-16.3718,33.0804],[-16.3711,33.0805],[-16.3708,33.0792],[-16.3709,33.0791],[-16.3708,33.0791],[-16.3709,33.0785],[-16.3707,33.0784],[-16.3706,33.0784],[-16.3706,33.0783],[-16.3706,33.0782],[-16.3706,33.0781],[-16.3705,33.0781],[-16.3703,33.0778],[-16.3708,33.0772],[-16.372,33.0773],[-16.372,33.0768],[-16.3729,33.0767],[-16.3729,33.0768],[-16.373,33.0767],[-16.3738,33.0765],[-16.3738,33.0766],[-16.3739,33.0766],[-16.3743,33.0766],[-16.3745,33.0765],[-16.3745,33.0764],[-16.3746,33.0762],[-16.375,33.0761],[-16.3751,33.0761],[-16.3751,33.076],[-16.3752,33.0761],[-16.3756,33.0761],[-16.3757,33.0761],[-16.376,33.076],[-16.3761,33.0761],[-16.3761,33.0762],[-16.3762,33.0763],[-16.3765,33.0758],[-16.3765,33.0757],[-16.3764,33.0757],[-16.3763,33.0756],[-16.3763,33.0755],[-16.3761,33.0753],[-16.376,33.0753],[-16.3759,33.0752],[-16.3758,33.0749],[-16.3757,33.0749],[-16.3756,33.0749],[-16.3754,33.0745],[-16.3761,33.0743],[-16.3768,33.0748],[-16.3774,33.0745],[-16.3773,33.0739],[-16.3773,33.0738],[-16.3772,33.0732],[-16.3771,33.0732],[-16.3767,33.0731],[-16.3765,33.073],[-16.3764,33.0729],[-16.3763,33.0729],[-16.3761,33.0728],[-16.376,33.0728],[-16.3755,33.0727],[-16.3756,33.0727],[-16.3757,33.0725],[-16.3758,33.0724],[-16.3757,33.0724],[-16.3757,33.0723],[-16.3756,33.0723],[-16.3755,33.0723],[-16.3755,33.0722],[-16.3756,33.0722],[-16.3754,33.072],[-16.3752,33.072],[-16.375,33.0719],[-16.3749,33.0718],[-16.375,33.0718],[-16.3751,33.0716],[-16.3747,33.0714],[-16.3747,33.0713],[-16.3746,33.0713],[-16.3745,33.0713],[-16.3745,33.0712],[-16.3744,33.0712],[-16.3743,33.0713],[-16.3741,33.0709],[-16.374,33.071],[-16.3739,33.0708],[-16.3738,33.0706],[-16.3738,33.0705],[-16.3737,33.0705],[-16.3737,33.0704],[-16.3742,33.07],[-16.3742,33.0699],[-16.3743,33.0698],[-16.3743,33.0697],[-16.3744,33.0697],[-16.3744,33.0696],[-16.3746,33.0695],[-16.3746,33.0694],[-16.3748,33.0693],[-16.3747,33.0691],[-16.3753,33.0686],[-16.3753,33.0685],[-16.3752,33.0685],[-16.3749,33.0685],[-16.3746,33.0683],[-16.375,33.0683],[-16.3751,33.0683],[-16.3753,33.0681],[-16.3754,33.0681],[-16.3759,33.0682],[-16.3764,33.0676],[-16.3761,33.0675],[-16.3764,33.0671],[-16.3764,33.067],[-16.3764,33.0669],[-16.3764,33.0667],[-16.3763,33.0666],[-16.3762,33.0663],[-16.3763,33.0662],[-16.3763,33.0661],[-16.3762,33.0661],[-16.3758,33.0662],[-16.3759,33.0658],[-16.376,33.0656],[-16.376,33.0655],[-16.3759,33.0655],[-16.3759,33.0654],[-16.3758,33.0653],[-16.3762,33.0652],[-16.3763,33.0652],[-16.3764,33.0651],[-16.3764,33.0652],[-16.3765,33.0652],[-16.3765,33.0651],[-16.3765,33.065],[-16.3766,33.0644],[-16.3766,33.0643],[-16.3767,33.0642],[-16.3768,33.0641],[-16.3768,33.0642],[-16.3769,33.0641],[-16.3771,33.0639],[-16.3771,33.0637],[-16.3771,33.0636],[-16.3772,33.0633],[-16.3771,33.0633],[-16.377,33.0634],[-16.3768,33.0634],[-16.3766,33.0633],[-16.3766,33.063],[-16.3764,33.063],[-16.3763,33.063],[-16.3763,33.0628],[-16.3763,33.0627],[-16.3763,33.0625],[-16.3762,33.0625],[-16.3761,33.0625],[-16.3762,33.0622],[-16.3761,33.0622],[-16.3761,33.0621],[-16.3762,33.0621],[-16.3762,33.062],[-16.3762,33.0619],[-16.3762,33.0615],[-16.3762,33.0614],[-16.3761,33.0614],[-16.3761,33.0613],[-16.3761,33.0612],[-16.3761,33.0611],[-16.376,33.0611],[-16.376,33.0603],[-16.376,33.0597],[-16.3761,33.0597],[-16.3763,33.0594],[-16.3763,33.0593],[-16.3768,33.0585],[-16.3768,33.0584],[-16.3769,33.0584],[-16.3772,33.0584],[-16.3773,33.0584],[-16.3779,33.0584],[-16.3779,33.0585],[-16.3779,33.0586],[-16.378,33.0587],[-16.3781,33.0587],[-16.3781,33.0586],[-16.3782,33.0586],[-16.3782,33.0585],[-16.3783,33.0585],[-16.3783,33.0584],[-16.3786,33.0581],[-16.3786,33.058],[-16.3787,33.058],[-16.3787,33.0581],[-16.3788,33.0581],[-16.3789,33.058],[-16.379,33.0581],[-16.3791,33.0582],[-16.3795,33.058],[-16.3795,33.0579],[-16.3796,33.0575],[-16.3795,33.0574],[-16.3796,33.0574],[-16.3798,33.0572],[-16.3798,33.0571],[-16.3795,33.057],[-16.3796,33.0569],[-16.3797,33.0569],[-16.3797,33.0568],[-16.3801,33.0565],[-16.3801,33.0564],[-16.3802,33.0564],[-16.3803,33.0563],[-16.3803,33.0562],[-16.3803,33.0561],[-16.3801,33.056],[-16.3798,33.056],[-16.3797,33.056],[-16.3796,33.0559],[-16.3793,33.0558],[-16.3792,33.0558],[-16.3792,33.0557],[-16.3791,33.0557],[-16.3791,33.0558],[-16.3787,33.0559],[-16.3786,33.0559],[-16.3787,33.0557],[-16.379,33.0553],[-16.3789,33.0553],[-16.3788,33.0553],[-16.3786,33.0549],[-16.3785,33.0548],[-16.3791,33.0548],[-16.3791,33.0549],[-16.3794,33.0547],[-16.3795,33.0546],[-16.3798,33.0543],[-16.3797,33.0543],[-16.3796,33.0542],[-16.3797,33.0542],[-16.3796,33.054],[-16.3796,33.0539],[-16.3797,33.0539],[-16.3797,33.0537],[-16.3798,33.0537],[-16.3799,33.0536],[-16.3799,33.0535],[-16.3805,33.0535],[-16.3806,33.0534],[-16.3808,33.0536],[-16.3809,33.0538],[-16.3809,33.0539],[-16.381,33.0539],[-16.3811,33.0536],[-16.3811,33.0537],[-16.3813,33.0545],[-16.3813,33.0546],[-16.3815,33.0545],[-16.3817,33.0544],[-16.3817,33.0545],[-16.3818,33.0544],[-16.3819,33.0544],[-16.3822,33.0541],[-16.3831,33.0529],[-16.3832,33.0524],[-16.3832,33.052],[-16.3833,33.052],[-16.3835,33.0519],[-16.3833,33.0519],[-16.3832,33.0518],[-16.3829,33.0512],[-16.3833,33.0507],[-16.3836,33.0502],[-16.3837,33.0502],[-16.3842,33.05],[-16.3843,33.0499],[-16.3844,33.0499],[-16.3844,33.0498],[-16.3846,33.0498],[-16.3846,33.0497],[-16.385,33.0494],[-16.3852,33.0495],[-16.3855,33.0498],[-16.3856,33.0498],[-16.386,33.0498],[-16.386,33.0497],[-16.3861,33.0497],[-16.3862,33.0492],[-16.3862,33.0491],[-16.3862,33.049],[-16.3862,33.0489],[-16.3863,33.0489],[-16.3863,33.0487],[-16.3864,33.0483],[-16.3864,33.0482],[-16.3865,33.0482],[-16.3866,33.0479],[-16.3868,33.0474],[-16.3878,33.0461],[-16.3879,33.0461],[-16.3883,33.0458],[-16.3884,33.0458],[-16.3884,33.0457],[-16.3885,33.0458],[-16.3886,33.0458],[-16.3886,33.0457],[-16.3887,33.0457],[-16.3887,33.0458],[-16.3889,33.0456],[-16.3892,33.0452],[-16.3893,33.0451],[-16.3893,33.045],[-16.3893,33.0448],[-16.3893,33.0447],[-16.3892,33.0443],[-16.3892,33.0442],[-16.3891,33.0442],[-16.3891,33.0441],[-16.3892,33.0441],[-16.3892,33.0439],[-16.3891,33.0439],[-16.3891,33.0438],[-16.3892,33.0438],[-16.3892,33.0437],[-16.389,33.0436],[-16.389,33.0435],[-16.3889,33.0435],[-16.3887,33.0431],[-16.3886,33.0428],[-16.3887,33.0428],[-16.3886,33.0427],[-16.3886,33.0426],[-16.3886,33.0425],[-16.3885,33.0426],[-16.3885,33.0425],[-16.3885,33.0423],[-16.3886,33.0422],[-16.3887,33.0422],[-16.3887,33.0421],[-16.3891,33.042],[-16.3892,33.0419],[-16.3893,33.0419],[-16.3894,33.0418],[-16.3895,33.0418],[-16.3898,33.0424],[-16.3901,33.0423],[-16.3903,33.0423],[-16.3909,33.0422],[-16.3909,33.0421],[-16.3915,33.042],[-16.3916,33.042],[-16.3917,33.042],[-16.3918,33.0421],[-16.392,33.0421],[-16.392,33.0422],[-16.3921,33.0422],[-16.3923,33.0421],[-16.3924,33.0421],[-16.3922,33.0426],[-16.3922,33.0427],[-16.3921,33.0428],[-16.392,33.0428],[-16.3921,33.0429],[-16.3922,33.043],[-16.3928,33.0424],[-16.3929,33.0423],[-16.3929,33.0424],[-16.3929,33.043],[-16.393,33.0431],[-16.3929,33.0431],[-16.3929,33.0432],[-16.393,33.0432],[-16.3932,33.0431],[-16.3934,33.043],[-16.3934,33.0429],[-16.3935,33.0428],[-16.3936,33.0426],[-16.3937,33.0426],[-16.3938,33.0426],[-16.3938,33.0425],[-16.3945,33.0423],[-16.3946,33.0423],[-16.3946,33.0424],[-16.3947,33.0425],[-16.3946,33.0425],[-16.3947,33.0426],[-16.3957,33.0426],[-16.3957,33.0425],[-16.3961,33.0422],[-16.3961,33.0421],[-16.3964,33.0411],[-16.3964,33.041],[-16.3965,33.0409],[-16.3965,33.041],[-16.3977,33.0408],[-16.3978,33.0407],[-16.3977,33.0407],[-16.3978,33.0406],[-16.3978,33.0404],[-16.3978,33.0403],[-16.3978,33.0402],[-16.3978,33.0399],[-16.3978,33.0397],[-16.3977,33.0398],[-16.3977,33.0397],[-16.3975,33.0397],[-16.3971,33.0398],[-16.397,33.0399],[-16.3969,33.0399],[-16.3967,33.04],[-16.3965,33.0397],[-16.3965,33.0396],[-16.3962,33.0397],[-16.3959,33.0399],[-16.3958,33.0398],[-16.3958,33.0397],[-16.3957,33.0397],[-16.3955,33.0398],[-16.3954,33.0398],[-16.3955,33.0395],[-16.3953,33.0394],[-16.3952,33.0391],[-16.3952,33.039],[-16.3951,33.039],[-16.3951,33.0389],[-16.3949,33.039],[-16.3951,33.0382],[-16.395,33.0382],[-16.3951,33.038],[-16.3951,33.0379],[-16.395,33.0377],[-16.395,33.0376],[-16.395,33.0375],[-16.3948,33.0373],[-16.3948,33.0372],[-16.3948,33.0371],[-16.3947,33.037],[-16.394,33.0369],[-16.3939,33.0366],[-16.3939,33.0365],[-16.3939,33.0364],[-16.3938,33.0361],[-16.3938,33.0359],[-16.3939,33.0359],[-16.3935,33.0348],[-16.3934,33.0348],[-16.3927,33.035],[-16.3927,33.0349],[-16.3928,33.0346],[-16.3927,33.0337],[-16.3926,33.0336],[-16.3925,33.0336],[-16.3924,33.0336],[-16.3923,33.0335],[-16.3927,33.0331],[-16.3925,33.0324],[-16.3919,33.0322],[-16.3919,33.0321],[-16.3918,33.0321],[-16.3918,33.032],[-16.3918,33.0319],[-16.3916,33.0318],[-16.3915,33.0318],[-16.3914,33.0321],[-16.3913,33.0321],[-16.3914,33.0311],[-16.3913,33.0311],[-16.391,33.0312],[-16.3909,33.0312],[-16.39,33.0317],[-16.3902,33.0315],[-16.3903,33.0313],[-16.3902,33.0313],[-16.3899,33.0313],[-16.3898,33.0314],[-16.3897,33.0314],[-16.3896,33.0316],[-16.3895,33.0316],[-16.3894,33.0316],[-16.3892,33.0318],[-16.3891,33.032],[-16.3891,33.0321],[-16.3885,33.0316],[-16.3884,33.0316],[-16.3882,33.0322],[-16.3881,33.0322],[-16.3878,33.0327],[-16.3873,33.0325],[-16.3874,33.0325],[-16.3875,33.0316],[-16.3875,33.0315],[-16.3873,33.0312],[-16.3872,33.031],[-16.3869,33.0309],[-16.3869,33.0304],[-16.3859,33.0299],[-16.3859,33.03],[-16.3855,33.03],[-16.3847,33.031],[-16.3846,33.031],[-16.3836,33.0305],[-16.3843,33.0298],[-16.3844,33.0298],[-16.3844,33.0297],[-16.3843,33.0295],[-16.3844,33.0295],[-16.3843,33.0292],[-16.3843,33.029],[-16.3841,33.029],[-16.3837,33.0289],[-16.3837,33.0288],[-16.3836,33.0288],[-16.3836,33.0287],[-16.3835,33.0287],[-16.3828,33.0282],[-16.3826,33.028],[-16.3826,33.0279],[-16.3826,33.0277],[-16.3827,33.0276],[-16.3828,33.0268],[-16.3827,33.0268],[-16.3825,33.0266],[-16.3825,33.0265],[-16.3823,33.0267],[-16.3823,33.0266],[-16.3822,33.0266],[-16.3822,33.0261],[-16.3821,33.026],[-16.3819,33.0258],[-16.3817,33.0256],[-16.3815,33.0253],[-16.3816,33.0251],[-16.3814,33.0251],[-16.3814,33.025],[-16.3813,33.0247],[-16.3813,33.0246],[-16.3814,33.0246],[-16.3798,33.0242]]]]}}
