{"type":"FeatureCollection","_provenance":{"authority":"ISTAT (comune geometry, openpolis/geojson-italy) / MASAF disciplinari (comune membership)","licence":"CC BY 4.0","method":"comune-union: ISTAT comuni dissolved per disciplinare comune lists (comune-level approximation; interior rings dropped, 5dp). Partial-territory comuni are included whole.","reviewed_at":"2026-09-07"},"features":[{"type":"Feature","properties":{"name":"verdicchio-di-matelica","comuni_count":8},"geometry":{"type":"MultiPolygon","coordinates":[[[[12.96258,43.20747],[12.9635,43.20674],[12.96087,43.20607],[12.95157,43.19772],[12.94997,43.19588],[12.94981,43.19559],[12.9498,43.19529],[12.94987,43.19492],[12.95,43.19457],[12.95284,43.18716],[12.95534,43.18349],[12.95935,43.17881],[12.961,43.17715],[12.96291,43.17276],[12.96343,43.17146],[12.96375,43.17065],[12.96404,43.16992],[12.96434,43.16908],[12.9692,43.16976],[12.98314,43.16405],[12.98618,43.16306],[12.9877,43.16203],[12.99215,43.15586],[12.99448,43.15229],[12.99462,43.15204],[12.99471,43.15179],[12.99563,43.14798],[12.99574,43.14748],[12.99577,43.14716],[12.99569,43.14672],[12.99549,43.14632],[12.99524,43.14589],[12.9949,43.1454],[12.99319,43.13659],[12.99445,43.13339],[12.99492,43.12875],[12.995,43.12678],[12.99283,43.12276],[12.99257,43.12244],[12.99215,43.12222],[12.98904,43.12136],[12.98841,43.12126],[12.98666,43.12125],[12.98197,43.11841],[12.98661,43.11455],[12.9882,43.10579],[12.98822,43.10557],[12.9879,43.1026],[12.98787,43.10237],[12.98781,43.10208],[12.98771,43.10182],[12.98751,43.10145],[12.9868,43.10029],[12.98653,43.09993],[12.99013,43.09724],[13,43.09413],[13.00202,43.09357],[13.00499,43.09356],[13.00742,43.09424],[13.00929,43.09473],[13.01126,43.09478],[13.01542,43.09289],[13.01689,43.09212],[13.01716,43.09197],[13.0174,43.0918],[13.01886,43.09063],[13.02228,43.095],[13.02507,43.09748],[13.04167,43.10749],[13.04334,43.10627],[13.04617,43.09974],[13.05074,43.09224],[13.05812,43.09251],[13.06244,43.09225],[13.06407,43.09195],[13.06422,43.09186],[13.06431,43.09169],[13.06444,43.09141],[13.06448,43.09129],[13.06453,43.09116],[13.06457,43.09087],[13.06432,43.08838],[13.06378,43.08656],[13.06359,43.08637],[13.06354,43.08632],[13.06306,43.08572],[13.06289,43.0855],[13.06263,43.08516],[13.06255,43.08506],[13.06252,43.08502],[13.06235,43.08327],[13.06217,43.08043],[13.06367,43.07828],[13.06492,43.07778],[13.06849,43.0765],[13.07038,43.07662],[13.07514,43.07836],[13.08081,43.07866],[13.08422,43.07892],[13.09154,43.07953],[13.09483,43.07983],[13.10354,43.08335],[13.11185,43.08772],[13.11748,43.09035],[13.12531,43.09186],[13.12333,43.09302],[13.12315,43.09314],[13.12298,43.09335],[13.12295,43.09355],[13.12315,43.09453],[13.12387,43.09633],[13.124,43.0966],[13.12461,43.09733],[13.12578,43.09869],[13.13317,43.10334],[13.13945,43.10688],[13.14592,43.10865],[13.15226,43.10917],[13.16263,43.11011],[13.1665,43.11167],[13.16542,43.11303],[13.16232,43.11586],[13.15904,43.11988],[13.15628,43.13072],[13.15616,43.13126],[13.15591,43.13264],[13.15554,43.13735],[13.1592,43.14386],[13.16128,43.14397],[13.16457,43.14626],[13.16577,43.14721],[13.16715,43.14865],[13.16733,43.1489],[13.16734,43.14912],[13.16723,43.14982],[13.16589,43.15735],[13.16481,43.16296],[13.15566,43.16213],[13.14741,43.16291],[13.1421,43.16375],[13.14009,43.16616],[13.13836,43.17351],[13.1267,43.1814],[13.12306,43.18264],[13.12286,43.18275],[13.12274,43.18293],[13.12268,43.18311],[13.12267,43.18336],[13.12269,43.18354],[13.12403,43.1898],[13.12871,43.19855],[13.13164,43.20176],[13.13555,43.20482],[13.13517,43.20482],[13.13464,43.20485],[13.13418,43.2049],[13.13202,43.20526],[13.13162,43.20534],[13.13056,43.20557],[13.1304,43.2059],[13.13024,43.20628],[13.13017,43.20656],[13.13017,43.2071],[13.13019,43.20738],[13.13034,43.20764],[13.12688,43.21311],[13.12246,43.21676],[13.11379,43.22242],[13.1084,43.22151],[13.10229,43.22013],[13.10168,43.22232],[13.10163,43.22264],[13.10165,43.22297],[13.10196,43.22592],[13.10299,43.23178],[13.10356,43.23425],[13.10466,43.23841],[13.1056,43.24747],[13.10079,43.25337],[13.09495,43.26394],[13.09604,43.26918],[13.09746,43.27154],[13.09814,43.2745],[13.0985,43.2765],[13.0991,43.28111],[13.09916,43.28164],[13.0991,43.28221],[13.09834,43.28241],[13.09564,43.28297],[13.09001,43.28399],[13.08756,43.28439],[13.08895,43.28806],[13.08896,43.28847],[13.08861,43.29052],[13.08853,43.29097],[13.08803,43.29345],[13.08569,43.29534],[13.08387,43.2967],[13.08275,43.29743],[13.07986,43.29915],[13.07697,43.30074],[13.07203,43.30575],[13.06864,43.31051],[13.06904,43.31626],[13.0675,43.32033],[13.06535,43.32327],[13.06318,43.32512],[13.06085,43.32861],[13.06081,43.32892],[13.0608,43.32905],[13.06069,43.32929],[13.06054,43.32957],[13.06047,43.32967],[13.06038,43.3298],[13.05933,43.33108],[13.05917,43.33123],[13.059,43.33134],[13.05724,43.33174],[13.05589,43.33201],[13.05144,43.33287],[13.04052,43.33606],[13.03564,43.33984],[13.04389,43.34261],[13.04624,43.35262],[13.04621,43.35308],[13.0462,43.35354],[13.04623,43.35404],[13.04638,43.35452],[13.04645,43.35475],[13.04656,43.35505],[13.04673,43.3555],[13.04695,43.35598],[13.04804,43.35767],[13.04858,43.3584],[13.04889,43.35869],[13.05417,43.36286],[13.05995,43.36613],[13.06113,43.36627],[13.06161,43.36638],[13.06192,43.36652],[13.06225,43.36684],[13.06242,43.36717],[13.06366,43.36967],[13.06388,43.37793],[13.06219,43.38116],[13.06182,43.38201],[13.06007,43.38481],[13.05961,43.38547],[13.05931,43.38585],[13.05808,43.3873],[13.05765,43.38772],[13.05693,43.38838],[13.05416,43.40358],[13.05349,43.41119],[13.05314,43.4138],[13.04832,43.41795],[13.04377,43.42185],[13.03887,43.42316],[13.03439,43.42186],[13.03424,43.42145],[13.03404,43.42111],[13.03384,43.42088],[13.03357,43.42059],[13.03329,43.42037],[13.03325,43.42034],[13.0303,43.41933],[13.02858,43.41887],[13.02716,43.41871],[13.02549,43.41901],[13.02434,43.41966],[13.02302,43.42086],[13.02062,43.42368],[13.0204,43.42431],[13.02043,43.42547],[13.02016,43.42642],[13.01963,43.42718],[13.01771,43.42883],[13.01648,43.42935],[13.01176,43.43056],[13.00752,43.42969],[12.99701,43.42709],[12.99468,43.42437],[12.99624,43.4234],[12.9965,43.42322],[12.99676,43.42298],[12.99693,43.42269],[12.99707,43.4224],[12.99713,43.42202],[12.99708,43.42171],[12.99695,43.42141],[12.99672,43.42109],[12.9962,43.42051],[12.99588,43.42029],[12.99539,43.42006],[12.99456,43.41983],[12.9942,43.41977],[12.99397,43.41974],[12.99041,43.4154],[12.98673,43.4098],[12.98842,43.40431],[12.99134,43.39874],[12.98848,43.3941],[12.98802,43.39351],[12.98756,43.39203],[12.98747,43.39102],[12.98734,43.38956],[12.98725,43.38749],[12.98726,43.38705],[12.9874,43.38655],[12.98756,43.38625],[12.98887,43.38414],[12.98916,43.38375],[12.98957,43.38339],[12.99053,43.38275],[12.991,43.38246],[12.99859,43.37624],[12.99669,43.37417],[12.99111,43.37065],[12.97683,43.37155],[12.97248,43.37617],[12.97116,43.37859],[12.96938,43.38203],[12.9671,43.38719],[12.96558,43.39133],[12.96391,43.39589],[12.96353,43.39639],[12.96316,43.39669],[12.96277,43.39687],[12.95894,43.39823],[12.95512,43.39953],[12.95089,43.40062],[12.95042,43.4007],[12.94955,43.40074],[12.9491,43.40074],[12.94872,43.40071],[12.94833,43.40064],[12.94265,43.39905],[12.93642,43.39322],[12.93127,43.39007],[12.92398,43.3881],[12.91354,43.38328],[12.90903,43.37852],[12.9069,43.37636],[12.90564,43.37519],[12.90522,43.37483],[12.90517,43.37479],[12.90475,43.37446],[12.90396,43.37407],[12.90335,43.37379],[12.90275,43.37369],[12.90308,43.37488],[12.90355,43.3764],[12.90372,43.37676],[12.90378,43.37709],[12.90382,43.37733],[12.90384,43.37777],[12.90366,43.37994],[12.90313,43.3813],[12.89956,43.38462],[12.89558,43.38731],[12.88889,43.39424],[12.88853,43.39545],[12.88124,43.3917],[12.87512,43.3886],[12.87116,43.38808],[12.86682,43.38763],[12.85995,43.38821],[12.85965,43.38825],[12.85931,43.3883],[12.85922,43.38832],[12.85884,43.38839],[12.85821,43.3886],[12.85786,43.38875],[12.85753,43.38895],[12.85729,43.38911],[12.85706,43.38929],[12.85689,43.38943],[12.85669,43.38959],[12.85647,43.38979],[12.85629,43.38997],[12.85459,43.39173],[12.8535,43.39308],[12.85334,43.39471],[12.85248,43.39672],[12.85246,43.39674],[12.85232,43.39691],[12.85201,43.39697],[12.85162,43.39701],[12.84961,43.39695],[12.84942,43.39687],[12.84923,43.39671],[12.84905,43.39639],[12.84845,43.39512],[12.84785,43.39324],[12.84785,43.39303],[12.84785,43.39297],[12.8479,43.39245],[12.84817,43.39139],[12.84852,43.39043],[12.84839,43.38851],[12.84743,43.38658],[12.84607,43.38423],[12.84294,43.38147],[12.83557,43.37813],[12.83363,43.37745],[12.8334,43.37739],[12.83308,43.37731],[12.82945,43.37694],[12.82182,43.37787],[12.81335,43.37898],[12.81279,43.37914],[12.81231,43.37924],[12.81193,43.37929],[12.81078,43.37935],[12.80778,43.37949],[12.80315,43.37966],[12.80123,43.37952],[12.79189,43.37856],[12.79145,43.37849],[12.78967,43.37802],[12.78896,43.37778],[12.78701,43.37562],[12.78364,43.37342],[12.78069,43.37243],[12.77546,43.37122],[12.76758,43.36875],[12.75863,43.36557],[12.75934,43.36435],[12.76174,43.364],[12.76258,43.36377],[12.76482,43.36312],[12.76529,43.36292],[12.76719,43.36189],[12.77006,43.35996],[12.77098,43.35824],[12.77166,43.35508],[12.77246,43.352],[12.77272,43.35102],[12.77273,43.35099],[12.77287,43.35063],[12.77308,43.35031],[12.7731,43.35029],[12.77442,43.34919],[12.77568,43.34821],[12.77797,43.34665],[12.77823,43.34648],[12.77858,43.34625],[12.77877,43.34619],[12.78053,43.34569],[12.78213,43.34556],[12.78252,43.34248],[12.78249,43.34117],[12.78892,43.33835],[12.79109,43.3373],[12.79139,43.33707],[12.79172,43.33681],[12.79227,43.33629],[12.793,43.33556],[12.79316,43.33537],[12.79334,43.33513],[12.794,43.33425],[12.79406,43.33413],[12.79411,43.33405],[12.79922,43.3198],[12.80175,43.30961],[12.80222,43.30757],[12.80239,43.30646],[12.80242,43.30555],[12.80243,43.30489],[12.80243,43.30471],[12.80222,43.30311],[12.80116,43.29577],[12.80099,43.29479],[12.79974,43.29116],[12.79959,43.29078],[12.79905,43.29039],[12.79815,43.28991],[12.79741,43.28958],[12.79651,43.28929],[12.79575,43.28914],[12.79498,43.28892],[12.79358,43.28826],[12.79255,43.2877],[12.79219,43.28742],[12.79168,43.28701],[12.78957,43.28484],[12.78924,43.28448],[12.78901,43.28404],[12.78893,43.28358],[12.78898,43.28323],[12.78924,43.28291],[12.79532,43.27832],[12.80368,43.27126],[12.80572,43.27052],[12.81352,43.26875],[12.81398,43.26875],[12.81482,43.26872],[12.81532,43.26864],[12.81806,43.26811],[12.8188,43.26796],[12.8235,43.26684],[12.82869,43.26061],[12.82918,43.25686],[12.82858,43.25611],[12.82827,43.25567],[12.82673,43.25347],[12.82666,43.25332],[12.8265,43.25289],[12.82634,43.25223],[12.82581,43.24968],[12.82575,43.24848],[12.82835,43.23922],[12.83157,43.23212],[12.83209,43.23169],[12.83243,43.23141],[12.83296,43.23096],[12.83327,43.23067],[12.83351,43.23043],[12.83412,43.22977],[12.83442,43.22939],[12.83472,43.22898],[12.83649,43.22584],[12.83722,43.2245],[12.83842,43.22044],[12.83846,43.2202],[12.83848,43.21993],[12.83847,43.21974],[12.83782,43.21884],[12.8366,43.21753],[12.84315,43.21364],[12.84568,43.21228],[12.84814,43.21108],[12.85058,43.20994],[12.85105,43.20992],[12.85129,43.20996],[12.85144,43.20999],[12.86234,43.21125],[12.86153,43.21204],[12.86142,43.21222],[12.86134,43.2124],[12.86134,43.21269],[12.86144,43.21297],[12.8616,43.21317],[12.86269,43.2138],[12.86822,43.21531],[12.87244,43.2176],[12.87726,43.22189],[12.88668,43.22464],[12.89144,43.22455],[12.89179,43.22456],[12.89211,43.22468],[12.89235,43.22478],[12.89386,43.22614],[12.8944,43.22673],[12.89473,43.22713],[12.8925,43.22097],[12.89251,43.2206],[12.89282,43.21975],[12.89485,43.21601],[12.8981,43.21006],[12.89911,43.21003],[12.90284,43.21066],[12.90345,43.21077],[12.90391,43.21095],[12.90548,43.21159],[12.90599,43.2119],[12.91507,43.2123],[12.92507,43.21168],[12.94164,43.20949],[12.95023,43.20481],[12.95536,43.2085],[12.95394,43.21327],[12.95485,43.21561],[12.95499,43.21583],[12.95513,43.216],[12.95529,43.21616],[12.95548,43.21634],[12.95597,43.2167],[12.96258,43.20747]]]]}},{"type":"Feature","properties":{"name":"conero","comuni_count":7},"geometry":{"type":"MultiPolygon","coordinates":[[[[13.41918,43.53563],[13.41945,43.53482],[13.42016,43.53248],[13.42045,43.5315],[13.42031,43.53094],[13.41867,43.52858],[13.41659,43.52669],[13.41533,43.52552],[13.41383,43.52162],[13.41382,43.52159],[13.41377,43.52141],[13.41394,43.52108],[13.41412,43.52089],[13.41611,43.51903],[13.4147,43.5162],[13.4146,43.51608],[13.41451,43.51598],[13.41448,43.51595],[13.41382,43.51529],[13.41338,43.515],[13.4129,43.51472],[13.40999,43.51329],[13.40101,43.50565],[13.39214,43.50289],[13.38636,43.50079],[13.38256,43.49866],[13.37802,43.49555],[13.37458,43.4952],[13.357,43.50065],[13.34951,43.5015],[13.34746,43.50047],[13.34776,43.49563],[13.35333,43.49125],[13.35869,43.48549],[13.35502,43.48224],[13.34894,43.48117],[13.34382,43.47863],[13.3427,43.47721],[13.34357,43.47116],[13.34694,43.47297],[13.35415,43.47566],[13.36709,43.47709],[13.37482,43.47717],[13.37891,43.47715],[13.38315,43.47692],[13.38588,43.47631],[13.40243,43.47435],[13.40263,43.47444],[13.40276,43.4745],[13.40307,43.47461],[13.40349,43.47476],[13.40434,43.47503],[13.40579,43.47535],[13.40684,43.47541],[13.40811,43.47265],[13.40843,43.4714],[13.40927,43.46754],[13.40936,43.46462],[13.40924,43.46123],[13.41655,43.45662],[13.41654,43.44901],[13.41403,43.43889],[13.41386,43.43561],[13.41735,43.43493],[13.41812,43.43481],[13.41851,43.43475],[13.42142,43.43442],[13.42707,43.43383],[13.42832,43.4337],[13.42925,43.43361],[13.43005,43.4336],[13.43438,43.43382],[13.43512,43.43387],[13.43461,43.43584],[13.43449,43.43738],[13.44329,43.44308],[13.44804,43.4458],[13.45035,43.4443],[13.46018,43.43827],[13.4703,43.43886],[13.47753,43.43735],[13.48085,43.43643],[13.48462,43.43692],[13.50889,43.44094],[13.51093,43.44347],[13.51343,43.44361],[13.51726,43.4437],[13.52314,43.44197],[13.53007,43.44012],[13.5368,43.43987],[13.5551,43.44116],[13.56031,43.44083],[13.56078,43.44081],[13.56107,43.4408],[13.56978,43.44149],[13.584,43.44287],[13.58552,43.44312],[13.58686,43.44339],[13.58885,43.44441],[13.58915,43.4446],[13.58938,43.44474],[13.58983,43.44505],[13.59021,43.44528],[13.59036,43.44536],[13.59041,43.44539],[13.59115,43.44579],[13.59252,43.44647],[13.59266,43.44654],[13.59316,43.44676],[13.59372,43.44701],[13.59404,43.44715],[13.59408,43.44717],[13.59445,43.44723],[13.59481,43.44715],[13.5951,43.44705],[13.59539,43.44685],[13.5957,43.44655],[13.60352,43.45615],[13.60172,43.45784],[13.60159,43.45802],[13.60151,43.4591],[13.60155,43.45923],[13.60165,43.4595],[13.60185,43.45971],[13.60399,43.46134],[13.60543,43.46236],[13.60603,43.46274],[13.60618,43.46284],[13.60656,43.46304],[13.60705,43.46328],[13.60734,43.46339],[13.60775,43.46355],[13.60806,43.46366],[13.60846,43.46379],[13.60919,43.464],[13.61011,43.4641],[13.61046,43.46404],[13.62109,43.46632],[13.62125,43.46638],[13.62168,43.46652],[13.62204,43.46666],[13.62246,43.46683],[13.62252,43.46687],[13.6227,43.46698],[13.62298,43.46721],[13.62378,43.46812],[13.62401,43.46839],[13.62425,43.4688],[13.62445,43.46878],[13.62515,43.46877],[13.62529,43.46878],[13.62634,43.46896],[13.62639,43.46897],[13.62697,43.46907],[13.62796,43.46929],[13.63148,43.47078],[13.63249,43.47149],[13.63278,43.4717],[13.6328,43.47172],[13.63307,43.47197],[13.63315,43.47207],[13.63929,43.47399],[13.6423,43.47424],[13.63934,43.4785],[13.63102,43.4901],[13.62997,43.49157],[13.62939,43.49239],[13.6274,43.49527],[13.62685,43.49608],[13.62513,43.49954],[13.62387,43.50222],[13.623,43.50492],[13.62312,43.50645],[13.62315,43.50686],[13.62442,43.50916],[13.62562,43.51117],[13.62565,43.51141],[13.62483,43.51462],[13.6246,43.51517],[13.62424,43.51571],[13.62369,43.51998],[13.62229,43.52595],[13.62172,43.53474],[13.62265,43.53539],[13.62292,43.53561],[13.62336,43.53598],[13.62389,43.53646],[13.62509,43.5378],[13.62681,43.53988],[13.62702,43.54021],[13.62762,43.54245],[13.62813,43.54447],[13.62754,43.54758],[13.62721,43.54831],[13.62554,43.55033],[13.61346,43.55675],[13.60907,43.55904],[13.60826,43.5591],[13.60695,43.5592],[13.60514,43.55945],[13.60464,43.55957],[13.60062,43.56157],[13.59068,43.56426],[13.59046,43.56413],[13.59009,43.56407],[13.58926,43.56408],[13.58852,43.5641],[13.58662,43.56438],[13.58564,43.56471],[13.58094,43.56637],[13.57948,43.56689],[13.57923,43.56698],[13.57838,43.56738],[13.57766,43.56777],[13.57587,43.56881],[13.5751,43.56939],[13.57265,43.57131],[13.57088,43.57328],[13.57085,43.57332],[13.56991,43.57447],[13.56988,43.57451],[13.56939,43.57527],[13.56937,43.57531],[13.56889,43.57623],[13.56837,43.57731],[13.56724,43.58006],[13.56573,43.58442],[13.56567,43.58611],[13.56618,43.58719],[13.55989,43.59418],[13.55169,43.60289],[13.54439,43.60836],[13.53625,43.61436],[13.52621,43.62158],[13.52179,43.62265],[13.51577,43.62414],[13.51489,43.62438],[13.51248,43.6256],[13.51194,43.62591],[13.51192,43.62595],[13.51154,43.62677],[13.51151,43.62701],[13.51183,43.62757],[13.51173,43.62765],[13.51076,43.6284],[13.50687,43.6305],[13.5066,43.63057],[13.50373,43.63123],[13.50305,43.63138],[13.50261,43.63147],[13.4997,43.63062],[13.49989,43.63001],[13.49971,43.62549],[13.50682,43.62484],[13.50862,43.62293],[13.50912,43.62214],[13.50913,43.6221],[13.50918,43.62177],[13.50921,43.62156],[13.50905,43.621],[13.50859,43.62037],[13.50429,43.61554],[13.50316,43.61617],[13.5031,43.61773],[13.49951,43.62065],[13.49577,43.62242],[13.49531,43.62254],[13.49525,43.62254],[13.49515,43.62249],[13.4951,43.62244],[13.49261,43.61998],[13.49063,43.6165],[13.49206,43.6131],[13.49015,43.61113],[13.48997,43.61097],[13.48898,43.61025],[13.48797,43.60953],[13.48514,43.60817],[13.48469,43.60796],[13.48421,43.60774],[13.48159,43.60681],[13.4796,43.60691],[13.47664,43.60726],[13.46897,43.60821],[13.45711,43.60992],[13.45664,43.61001],[13.45402,43.61051],[13.45388,43.61055],[13.45291,43.61078],[13.43682,43.61527],[13.43072,43.61728],[13.42916,43.61784],[13.42773,43.61837],[13.42363,43.62011],[13.42272,43.6205],[13.41855,43.61542],[13.41643,43.60713],[13.41632,43.60309],[13.4142,43.60086],[13.40555,43.60063],[13.40134,43.60081],[13.4011,43.60109],[13.40107,43.60113],[13.40077,43.60158],[13.40045,43.60214],[13.39642,43.60393],[13.38306,43.60659],[13.38163,43.60303],[13.38023,43.5998],[13.38585,43.59381],[13.39105,43.59067],[13.39171,43.59034],[13.39219,43.59033],[13.39283,43.59065],[13.39346,43.59113],[13.39379,43.59148],[13.39383,43.59152],[13.39391,43.5918],[13.39396,43.59198],[13.39376,43.5925],[13.39374,43.59254],[13.39338,43.593],[13.3927,43.59341],[13.39224,43.59465],[13.39324,43.59644],[13.39824,43.59813],[13.3989,43.59828],[13.39994,43.59807],[13.40047,43.5979],[13.4012,43.5976],[13.40392,43.59574],[13.40394,43.5957],[13.40415,43.59528],[13.40411,43.59471],[13.40359,43.58985],[13.4033,43.58908],[13.40313,43.58874],[13.40309,43.58868],[13.40299,43.58848],[13.40295,43.58842],[13.40262,43.58793],[13.40149,43.58663],[13.40144,43.58662],[13.40126,43.58658],[13.40104,43.58653],[13.40069,43.58654],[13.40034,43.58654],[13.39959,43.58658],[13.39476,43.57637],[13.39363,43.571],[13.39576,43.56779],[13.39821,43.56119],[13.40146,43.5506],[13.40393,43.542],[13.41091,43.5373],[13.41588,43.53522],[13.41918,43.53563]]]]}},{"type":"Feature","properties":{"name":"offida","comuni_count":9},"geometry":{"type":"MultiPolygon","coordinates":[[[[13.8283,42.9659],[13.82783,42.96811],[13.82055,42.97397],[13.81818,42.98023],[13.81826,42.98022],[13.81908,42.98034],[13.81942,42.9804],[13.81954,42.98042],[13.82276,42.98095],[13.82279,42.98108],[13.82286,42.9814],[13.82291,42.98182],[13.82287,42.98212],[13.82263,42.98361],[13.82109,42.99108],[13.82057,42.99246],[13.81892,42.99284],[13.81868,42.99575],[13.8204,43.00394],[13.82188,43.00653],[13.81966,43.01409],[13.81641,43.0242],[13.81548,43.02568],[13.81013,43.02818],[13.80664,43.03131],[13.80604,43.03174],[13.80568,43.03191],[13.80483,43.03208],[13.79417,43.03412],[13.7881,43.03524],[13.7863,43.03753],[13.78166,43.04482],[13.78163,43.04487],[13.78158,43.04494],[13.78028,43.04733],[13.78043,43.05297],[13.78063,43.05411],[13.78614,43.05576],[13.791,43.05739],[13.793,43.05809],[13.79438,43.05859],[13.79572,43.05912],[13.79678,43.05959],[13.79698,43.05971],[13.79702,43.05996],[13.79679,43.06211],[13.7945,43.06284],[13.79315,43.06345],[13.7865,43.07143],[13.78606,43.07245],[13.78588,43.0729],[13.78535,43.07583],[13.78525,43.07645],[13.78517,43.07705],[13.78516,43.07719],[13.7851,43.07862],[13.78517,43.07978],[13.77664,43.07655],[13.77218,43.07481],[13.75188,43.06866],[13.74588,43.0669],[13.7445,43.06652],[13.74445,43.06651],[13.74418,43.06643],[13.74389,43.06636],[13.74327,43.06619],[13.74313,43.06615],[13.73227,43.0637],[13.73071,43.06334],[13.72856,43.0628],[13.72823,43.06269],[13.72765,43.06248],[13.72679,43.06217],[13.72258,43.06062],[13.72104,43.05995],[13.72085,43.05986],[13.72065,43.05975],[13.70986,43.0539],[13.70122,43.04937],[13.70054,43.04899],[13.70397,43.04711],[13.70539,43.04731],[13.70585,43.04735],[13.70623,43.04738],[13.70754,43.04727],[13.7112,43.044],[13.71162,43.03996],[13.71289,43.0256],[13.7132,43.0236],[13.71342,43.02206],[13.70963,43.01808],[13.70696,43.01607],[13.70371,43.01394],[13.70304,43.01383],[13.69939,43.01374],[13.69748,43.01376],[13.69132,43.01234],[13.68404,43.00736],[13.68371,43.00618],[13.67753,43.00735],[13.67819,43.00464],[13.67542,43.00282],[13.67379,43.00205],[13.67157,43.001],[13.66679,42.999],[13.65785,42.98988],[13.65737,42.98933],[13.65676,42.98831],[13.65635,42.98317],[13.65649,42.98092],[13.65982,42.97421],[13.66313,42.971],[13.66214,42.97126],[13.65939,42.97125],[13.6557,42.97104],[13.6544,42.97096],[13.65173,42.9706],[13.6431,42.96922],[13.64196,42.96896],[13.64178,42.96891],[13.64154,42.96884],[13.64108,42.96854],[13.6407,42.96821],[13.63982,42.96734],[13.63957,42.96707],[13.63937,42.96683],[13.6393,42.96674],[13.63918,42.96656],[13.63907,42.96638],[13.6321,42.96326],[13.6234,42.96155],[13.61117,42.95971],[13.60796,42.95889],[13.60587,42.95932],[13.6029,42.95879],[13.59049,42.95413],[13.58481,42.95191],[13.58467,42.94908],[13.58572,42.94296],[13.58436,42.93593],[13.5842,42.93529],[13.58334,42.93324],[13.58295,42.93257],[13.58078,42.92919],[13.58056,42.92886],[13.58026,42.92855],[13.57994,42.92832],[13.57944,42.92814],[13.57911,42.92803],[13.57898,42.92801],[13.57867,42.92797],[13.57823,42.92799],[13.5781,42.92738],[13.57746,42.92438],[13.57728,42.92255],[13.57726,42.92043],[13.57728,42.92028],[13.57729,42.92019],[13.57736,42.92015],[13.57761,42.91997],[13.57855,42.91932],[13.57944,42.91882],[13.57978,42.91867],[13.58031,42.9185],[13.5808,42.91842],[13.58176,42.91837],[13.58339,42.91838],[13.58547,42.91839],[13.58769,42.91858],[13.58803,42.91867],[13.58852,42.9188],[13.58895,42.91888],[13.5899,42.91903],[13.5922,42.91909],[13.59246,42.91907],[13.59377,42.91888],[13.59621,42.91798],[13.59739,42.91695],[13.59971,42.91398],[13.60146,42.91151],[13.60148,42.91144],[13.60157,42.91119],[13.60235,42.9071],[13.60242,42.90664],[13.6027,42.90467],[13.61213,42.89699],[13.6174,42.89383],[13.61922,42.88796],[13.61967,42.88652],[13.61987,42.88621],[13.62042,42.88567],[13.62068,42.88556],[13.62537,42.88631],[13.62829,42.88697],[13.62877,42.88728],[13.62951,42.88767],[13.63069,42.88828],[13.63151,42.88854],[13.63489,42.88932],[13.63658,42.88969],[13.63678,42.88953],[13.63708,42.88922],[13.63721,42.88901],[13.63731,42.88876],[13.63863,42.88395],[13.65195,42.8741],[13.65242,42.87099],[13.65262,42.87059],[13.65366,42.8696],[13.65385,42.86944],[13.65428,42.86927],[13.65458,42.86915],[13.65472,42.8691],[13.65998,42.86899],[13.66299,42.86963],[13.6633,42.8714],[13.66472,42.87324],[13.67116,42.87395],[13.67431,42.87359],[13.67661,42.87234],[13.67959,42.86995],[13.6869,42.86437],[13.69714,42.85861],[13.70098,42.85852],[13.70513,42.85891],[13.70923,42.85941],[13.71539,42.86125],[13.72385,42.86434],[13.72413,42.86446],[13.72468,42.86472],[13.72472,42.86475],[13.72504,42.865],[13.72515,42.86511],[13.72532,42.86526],[13.72537,42.86531],[13.72542,42.86535],[13.73088,42.8663],[13.73088,42.86982],[13.73399,42.88398],[13.73408,42.88426],[13.73424,42.88449],[13.73454,42.88465],[13.73588,42.88536],[13.7403,42.88635],[13.74051,42.88639],[13.74146,42.88656],[13.74193,42.88654],[13.74205,42.88653],[13.74224,42.88643],[13.74561,42.88388],[13.75008,42.88175],[13.75196,42.88092],[13.75222,42.88093],[13.75309,42.88106],[13.75434,42.88518],[13.75722,42.88672],[13.75867,42.88704],[13.76118,42.88838],[13.76217,42.88893],[13.76366,42.89069],[13.76412,42.89227],[13.76416,42.89496],[13.76381,42.8958],[13.7629,42.8963],[13.7627,42.8964],[13.76167,42.8969],[13.76152,42.89697],[13.76136,42.89704],[13.76103,42.89716],[13.76008,42.89747],[13.76166,42.90481],[13.76447,42.9069],[13.7644,42.90704],[13.7617,42.91378],[13.76169,42.91433],[13.7617,42.91467],[13.76174,42.91502],[13.7618,42.91535],[13.76181,42.91544],[13.76195,42.91579],[13.76196,42.91582],[13.76222,42.91608],[13.76234,42.91613],[13.76257,42.91624],[13.79254,42.92322],[13.79609,42.92204],[13.79663,42.92194],[13.797,42.92191],[13.7977,42.92191],[13.79845,42.92195],[13.79898,42.92203],[13.80241,42.9229],[13.80399,42.92413],[13.80822,42.9269],[13.82154,42.93483],[13.8307,42.93497],[13.83196,42.93722],[13.83222,42.93752],[13.83809,42.93711],[13.84901,42.93589],[13.84891,42.93729],[13.84785,42.9403],[13.84538,42.94221],[13.84852,42.95423],[13.84858,42.95437],[13.84845,42.95448],[13.84764,42.95501],[13.847,42.95522],[13.84461,42.95587],[13.84283,42.95628],[13.83763,42.95716],[13.83615,42.95711],[13.83509,42.9571],[13.83456,42.95713],[13.83443,42.95713],[13.83366,42.95723],[13.83321,42.95735],[13.83291,42.95745],[13.83198,42.95834],[13.83179,42.95852],[13.82993,42.96112],[13.82978,42.96446],[13.8283,42.9659]]]]}}]}