{"type":"Feature","properties":{"reg_name":"Marche","slug":"marche","_provenance":{"authority":"ISTAT (openpolis/geojson-italy limits_IT_regions)","licence":"CC BY 4.0","method":"mapshaper 6% simplify, interior rings dropped, 5dp"}},"geometry":{"type":"MultiPolygon","coordinates":[[[[12.50082,43.51963],[12.56426,43.4598],[12.60476,43.43798],[12.62516,43.42066],[12.66318,43.43683],[12.70938,43.42512],[12.71527,43.44609],[12.73576,43.46375],[12.76745,43.45985],[12.76591,43.42604],[12.77443,43.40197],[12.74681,43.39045],[12.74969,43.37806],[12.79109,43.3373],[12.80223,43.30757],[12.78924,43.28448],[12.82476,43.26657],[12.83661,43.21753],[12.86234,43.21125],[12.86824,43.19521],[12.86249,43.16597],[12.83236,43.1473],[12.843,43.12234],[12.87547,43.12344],[12.88503,43.09964],[12.89733,43.09348],[12.88993,43.05888],[12.90671,43.0354],[12.88801,43.00952],[12.90817,42.98487],[12.89582,42.96459],[12.94806,42.94147],[12.94933,42.92996],[12.97679,42.92568],[12.96839,42.90068],[12.97615,42.8698],[12.99024,42.87112],[13.00252,42.89557],[13.03778,42.90754],[13.05278,42.9198],[13.08073,42.89953],[13.11225,42.88933],[13.15456,42.83462],[13.18756,42.83448],[13.2309,42.854],[13.24794,42.84947],[13.26403,42.80824],[13.24512,42.77263],[13.21651,42.77148],[13.1942,42.7585],[13.1893,42.73876],[13.25415,42.72145],[13.2645,42.74018],[13.28776,42.73922],[13.31886,42.72273],[13.34116,42.70176],[13.38881,42.6873],[13.4274,42.70643],[13.45211,42.73391],[13.4888,42.73367],[13.50422,42.74708],[13.50232,42.77097],[13.52911,42.79534],[13.53448,42.81664],[13.57146,42.80051],[13.6244,42.81654],[13.63552,42.8033],[13.6636,42.80713],[13.6993,42.82262],[13.72486,42.85572],[13.77408,42.85949],[13.81612,42.87752],[13.91516,42.89587],[13.89299,42.9367],[13.87268,42.98735],[13.85241,43.05449],[13.8447,43.09673],[13.80365,43.17232],[13.77773,43.23427],[13.73536,43.30838],[13.70989,43.33681],[13.67091,43.42389],[13.62295,43.50326],[13.62554,43.55033],[13.57289,43.57107],[13.56556,43.58913],[13.53161,43.61954],[13.51489,43.62438],[13.48159,43.60681],[13.45291,43.61078],[13.41382,43.62372],[13.37542,43.64398],[13.35511,43.64815],[13.30796,43.66842],[13.21979,43.7177],[13.1285,43.77682],[13.06757,43.82192],[13.02204,43.84982],[12.98632,43.86534],[12.90733,43.923],[12.88219,43.92884],[12.79759,43.96517],[12.75564,43.96195],[12.72791,43.92418],[12.73483,43.89602],[12.72265,43.88057],[12.72363,43.86124],[12.6823,43.8528],[12.68132,43.82807],[12.62327,43.82115],[12.601,43.85051],[12.60256,43.86343],[12.5844,43.8841],[12.54169,43.86403],[12.49934,43.8736],[12.4874,43.89647],[12.46239,43.89377],[12.44569,43.87081],[12.40061,43.87277],[12.39095,43.845],[12.39854,43.82636],[12.36619,43.81333],[12.34979,43.7996],[12.31589,43.80564],[12.28485,43.79479],[12.28276,43.76628],[12.32707,43.75101],[12.36819,43.7151],[12.33012,43.70704],[12.32077,43.69467],[12.27348,43.67596],[12.25108,43.67257],[12.23266,43.6556],[12.20369,43.65174],[12.18722,43.63604],[12.20991,43.62103],[12.22528,43.59392],[12.26318,43.58907],[12.35116,43.61148],[12.3735,43.58429],[12.34495,43.55363],[12.31291,43.5431],[12.33318,43.52358],[12.36674,43.53409],[12.39904,43.51322],[12.41794,43.53489],[12.43319,43.53841],[12.45739,43.51731],[12.48053,43.52745],[12.50082,43.51963]]]]}}