{"type":"Feature","properties":{"reg_name":"Molise","slug":"molise","_provenance":{"authority":"ISTAT (openpolis/geojson-italy limits_IT_regions)","licence":"CC BY 4.0","method":"mapshaper 6% simplify, interior rings dropped, 5dp"}},"geometry":{"type":"MultiPolygon","coordinates":[[[[14.41933,41.43515],[14.45397,41.42791],[14.47799,41.41017],[14.48861,41.39071],[14.55152,41.37939],[14.56633,41.39213],[14.60304,41.36396],[14.63378,41.38743],[14.67144,41.40664],[14.69962,41.41084],[14.71728,41.40083],[14.7647,41.41737],[14.77396,41.44553],[14.79018,41.45255],[14.84312,41.42661],[14.8677,41.42782],[14.88442,41.44478],[14.94641,41.45597],[14.98227,41.46907],[15.00762,41.48639],[14.96639,41.51901],[14.93703,41.52786],[14.93833,41.55073],[14.94854,41.57375],[14.94702,41.60968],[14.93488,41.62162],[14.9559,41.6434],[14.9887,41.63781],[14.99145,41.62908],[15.02269,41.62185],[15.0447,41.64035],[15.04831,41.65552],[15.06956,41.66007],[15.10607,41.68561],[15.1336,41.69797],[15.14339,41.71128],[15.12114,41.72023],[15.10284,41.74128],[15.11004,41.75378],[15.09737,41.76593],[15.11514,41.78956],[15.11644,41.81454],[15.10027,41.83379],[15.10366,41.84674],[15.1388,41.87928],[15.13143,41.90302],[15.13805,41.92665],[15.0894,41.93845],[14.99359,42.00479],[14.9157,42.01775],[14.85916,42.03451],[14.77955,42.06983],[14.76171,42.04169],[14.78225,42.03511],[14.76582,42.01809],[14.72716,42.00325],[14.67024,41.9482],[14.66376,41.91629],[14.64132,41.89934],[14.61424,41.88919],[14.59864,41.85347],[14.56798,41.81812],[14.55077,41.81659],[14.53335,41.79159],[14.49909,41.77278],[14.48955,41.76097],[14.45452,41.76501],[14.46514,41.77718],[14.45474,41.79581],[14.4457,41.83782],[14.37589,41.87847],[14.34349,41.86895],[14.3245,41.89566],[14.30274,41.89422],[14.2793,41.90952],[14.26637,41.8958],[14.22687,41.8748],[14.21687,41.85377],[14.15562,41.83961],[14.14716,41.8273],[14.16465,41.80947],[14.17069,41.77971],[14.20191,41.767],[14.19396,41.74802],[14.15868,41.74702],[14.11526,41.73693],[14.06957,41.73723],[14.05348,41.71961],[14.05325,41.7017],[14.02692,41.7027],[14.01918,41.68236],[13.99441,41.69369],[13.95644,41.69567],[13.96736,41.67403],[13.98829,41.65383],[13.99667,41.62414],[14.01099,41.60754],[13.99781,41.57943],[14.02366,41.56103],[14.02216,41.52701],[13.99503,41.51309],[13.97291,41.49404],[13.99278,41.48208],[13.97791,41.46249],[14.00578,41.45283],[14.00502,41.425],[14.01769,41.42342],[14.04239,41.39278],[14.08477,41.40003],[14.10749,41.41643],[14.07837,41.44708],[14.12527,41.50737],[14.15164,41.48266],[14.1673,41.49442],[14.20485,41.49993],[14.24163,41.49666],[14.24942,41.48455],[14.27756,41.48585],[14.32716,41.45344],[14.34218,41.45408],[14.41933,41.43515]]]]}}