{"type":"FeatureCollection","_provenance":{"authority":"ISTAT (comune geometry, openpolis/geojson-italy) / MASAF disciplinari (comune membership)","licence":"CC BY 4.0","method":"comune-union: ISTAT comuni dissolved per disciplinare comune lists (comune-level approximation; interior rings dropped, 5dp). Partial-territory comuni are included whole.","reviewed_at":"2026-09-07"},"features":[{"type":"Feature","properties":{"name":"biferno","comuni_count":42},"geometry":{"type":"MultiPolygon","coordinates":[[[[14.7652,41.83472],[14.76469,41.83495],[14.76432,41.83503],[14.76404,41.83505],[14.76332,41.83503],[14.7628,41.83491],[14.76063,41.83433],[14.75654,41.8331],[14.75376,41.83219],[14.75158,41.8314],[14.75052,41.83049],[14.74271,41.81909],[14.74235,41.81755],[14.74199,41.81166],[14.74241,41.80502],[14.74254,41.79684],[14.74327,41.79595],[14.73883,41.79161],[14.73594,41.79053],[14.71738,41.77717],[14.71249,41.76935],[14.71054,41.76398],[14.70352,41.76268],[14.70256,41.76253],[14.70144,41.76248],[14.70109,41.76253],[14.70067,41.76263],[14.69791,41.76343],[14.68675,41.76278],[14.67392,41.75835],[14.6717,41.75803],[14.67103,41.75785],[14.66592,41.75509],[14.66432,41.75404],[14.66169,41.7519],[14.66107,41.75137],[14.65704,41.75322],[14.64309,41.75561],[14.64032,41.75589],[14.63744,41.75603],[14.63504,41.75566],[14.63038,41.75446],[14.62974,41.75365],[14.62957,41.75311],[14.62948,41.75286],[14.62731,41.74331],[14.62727,41.743],[14.62716,41.74237],[14.6271,41.74202],[14.627,41.74166],[14.6269,41.74142],[14.62636,41.74043],[14.62614,41.74006],[14.62398,41.73682],[14.62367,41.7364],[14.62274,41.7353],[14.62253,41.73506],[14.62164,41.73429],[14.63249,41.72553],[14.63219,41.72524],[14.63199,41.72502],[14.63158,41.72457],[14.63145,41.7244],[14.63115,41.72389],[14.63096,41.72354],[14.6308,41.72312],[14.63073,41.7229],[14.63072,41.72265],[14.63058,41.71329],[14.63408,41.70877],[14.63422,41.70753],[14.62637,41.70121],[14.62038,41.69575],[14.61362,41.68914],[14.61336,41.68863],[14.61303,41.68811],[14.61276,41.6877],[14.61229,41.68705],[14.61202,41.68669],[14.61167,41.68628],[14.61151,41.68613],[14.61139,41.68603],[14.61126,41.68591],[14.61069,41.6856],[14.60523,41.68276],[14.60121,41.6819],[14.60103,41.68187],[14.60073,41.6819],[14.59946,41.6822],[14.59886,41.68241],[14.5987,41.6825],[14.59853,41.6826],[14.59825,41.68286],[14.59812,41.68303],[14.59802,41.68327],[14.59797,41.68351],[14.59516,41.68431],[14.58827,41.68335],[14.58539,41.68171],[14.5851,41.68152],[14.58498,41.68142],[14.5848,41.68125],[14.58462,41.68103],[14.58378,41.68],[14.5836,41.67973],[14.58355,41.67957],[14.58375,41.67957],[14.58432,41.67956],[14.58602,41.67926],[14.58637,41.67914],[14.58946,41.67781],[14.58981,41.6776],[14.59007,41.67743],[14.59029,41.67724],[14.59054,41.67697],[14.59104,41.67603],[14.59116,41.67563],[14.59125,41.67529],[14.5949,41.6593],[14.59752,41.64545],[14.59765,41.64431],[14.59755,41.64185],[14.59734,41.64135],[14.5972,41.64114],[14.59688,41.6407],[14.59589,41.63943],[14.59845,41.63861],[14.60118,41.63847],[14.61622,41.64148],[14.63023,41.64733],[14.63343,41.64871],[14.6359,41.64695],[14.64452,41.64036],[14.64611,41.63906],[14.64724,41.63821],[14.64891,41.63729],[14.65283,41.63523],[14.65419,41.63466],[14.66257,41.63243],[14.66822,41.63247],[14.68177,41.63393],[14.69527,41.6295],[14.69778,41.62883],[14.6999,41.62977],[14.70261,41.63198],[14.71184,41.64478],[14.71187,41.64982],[14.71157,41.64992],[14.71112,41.65047],[14.71037,41.6514],[14.71016,41.65179],[14.71014,41.65184],[14.70997,41.65216],[14.7098,41.6525],[14.70963,41.65289],[14.70945,41.65336],[14.70939,41.65373],[14.70941,41.65404],[14.70987,41.65623],[14.71096,41.65736],[14.71116,41.65755],[14.71148,41.65777],[14.71173,41.65792],[14.71202,41.65803],[14.71772,41.66024],[14.71855,41.66049],[14.71906,41.66057],[14.71934,41.66061],[14.71951,41.66063],[14.72004,41.66065],[14.72112,41.66063],[14.72207,41.66047],[14.72304,41.66031],[14.72887,41.66149],[14.7377,41.66458],[14.73818,41.66494],[14.73851,41.66515],[14.73873,41.66528],[14.73898,41.66542],[14.7403,41.66587],[14.74495,41.66644],[14.74649,41.66657],[14.74691,41.66653],[14.74735,41.66649],[14.74782,41.66643],[14.74814,41.66633],[14.73861,41.65926],[14.74108,41.65752],[14.74817,41.65319],[14.7644,41.65448],[14.7699,41.65494],[14.7689,41.65741],[14.76454,41.65903],[14.761,41.66115],[14.75986,41.66249],[14.75981,41.66318],[14.75983,41.66428],[14.7599,41.66469],[14.76023,41.66622],[14.75977,41.67369],[14.75823,41.67667],[14.75763,41.67904],[14.75802,41.68358],[14.75853,41.6857],[14.75898,41.68607],[14.75921,41.68631],[14.75936,41.68664],[14.75939,41.68697],[14.75934,41.68812],[14.75921,41.68881],[14.75896,41.68981],[14.75877,41.69024],[14.75778,41.69227],[14.75005,41.701],[14.74589,41.70501],[14.74249,41.70803],[14.73908,41.70994],[14.73749,41.71145],[14.73469,41.71425],[14.73425,41.71662],[14.73422,41.72206],[14.7324,41.72648],[14.73293,41.72939],[14.73322,41.72953],[14.73386,41.73001],[14.73409,41.73028],[14.73428,41.73054],[14.7345,41.73089],[14.73474,41.7313],[14.73495,41.73168],[14.73534,41.73241],[14.73546,41.73271],[14.73576,41.73362],[14.73586,41.73398],[14.73587,41.73409],[14.73589,41.73427],[14.73582,41.73447],[14.73567,41.73463],[14.73526,41.7349],[14.73678,41.73711],[14.73886,41.73856],[14.73908,41.74035],[14.74168,41.7418],[14.74666,41.74236],[14.75787,41.74658],[14.76952,41.75477],[14.77252,41.75796],[14.77817,41.76475],[14.78447,41.77192],[14.78607,41.77304],[14.78765,41.77371],[14.79087,41.7749],[14.79549,41.77699],[14.79934,41.78069],[14.80085,41.7823],[14.80119,41.7831],[14.80104,41.78498],[14.80365,41.79305],[14.80648,41.79667],[14.80996,41.80026],[14.81387,41.8007],[14.8187,41.79607],[14.8228,41.79123],[14.82354,41.79111],[14.82411,41.7911],[14.82492,41.79117],[14.82734,41.79167],[14.83164,41.79342],[14.83272,41.79387],[14.83343,41.79427],[14.83369,41.79632],[14.83311,41.79775],[14.83043,41.80359],[14.82987,41.8048],[14.82931,41.80572],[14.82829,41.8069],[14.82902,41.81142],[14.83613,41.81761],[14.84658,41.82273],[14.85151,41.82282],[14.8544,41.82559],[14.85582,41.82488],[14.86477,41.81577],[14.86839,41.80596],[14.86841,41.80487],[14.86841,41.80468],[14.868,41.8024],[14.86772,41.8013],[14.86628,41.8005],[14.86572,41.79294],[14.87677,41.78119],[14.88043,41.77625],[14.88215,41.77396],[14.88615,41.76932],[14.8881,41.76718],[14.89003,41.76574],[14.89176,41.76531],[14.8925,41.76516],[14.89815,41.76441],[14.90387,41.76475],[14.90372,41.76333],[14.9016,41.74892],[14.90097,41.74476],[14.8993,41.73565],[14.90462,41.73609],[14.91508,41.73573],[14.92221,41.73394],[14.92445,41.73343],[14.92594,41.73316],[14.92621,41.73319],[14.93003,41.73387],[14.93156,41.73434],[14.93435,41.73253],[14.9496,41.72556],[14.95066,41.72517],[14.9534,41.72454],[14.95436,41.72436],[14.95664,41.72423],[14.9574,41.72421],[14.95685,41.7221],[14.95677,41.72172],[14.95707,41.71519],[14.95733,41.71479],[14.95757,41.71459],[14.95795,41.71435],[14.95939,41.71372],[14.96007,41.71348],[14.96012,41.71347],[14.96018,41.71348],[14.96041,41.71356],[14.96073,41.71365],[14.96101,41.71367],[14.96191,41.71361],[14.96202,41.7136],[14.96218,41.71359],[14.9624,41.71358],[14.96479,41.71294],[14.96518,41.71281],[14.96624,41.71244],[14.9667,41.71224],[14.97246,41.70941],[14.97314,41.70903],[14.97336,41.70889],[14.97362,41.70872],[14.97388,41.70854],[14.97457,41.70805],[14.97527,41.70744],[14.97569,41.707],[14.97613,41.70638],[14.97322,41.70528],[14.96079,41.70175],[14.95278,41.70021],[14.95047,41.70061],[14.94972,41.70067],[14.94934,41.70064],[14.9489,41.70048],[14.94303,41.69832],[14.93971,41.69708],[14.93858,41.69662],[14.9383,41.69649],[14.9377,41.68902],[14.9313,41.68115],[14.92972,41.67963],[14.9317,41.67556],[14.93313,41.67301],[14.94482,41.66125],[14.94719,41.65898],[14.94801,41.65808],[14.94837,41.65752],[14.94931,41.65537],[14.95026,41.65317],[14.95086,41.65104],[14.95233,41.64426],[14.95234,41.6412],[14.95249,41.63855],[14.95344,41.63776],[14.95545,41.64225],[14.96403,41.64339],[14.97897,41.6397],[14.98051,41.63981],[14.98182,41.63969],[14.98247,41.63961],[14.98308,41.63954],[14.9835,41.63949],[14.98523,41.63909],[14.98677,41.63859],[14.9887,41.63781],[14.98875,41.63773],[14.98877,41.63771],[14.98915,41.63716],[14.98952,41.63632],[14.98957,41.63621],[14.98956,41.63404],[14.98955,41.63329],[15.00634,41.62306],[15.00811,41.62238],[15.00914,41.62212],[15.01136,41.6219],[15.01153,41.62189],[15.01271,41.62184],[15.02218,41.62188],[15.02596,41.6226],[15.02397,41.6264],[15.02356,41.6275],[15.02348,41.62827],[15.02353,41.62861],[15.02355,41.62872],[15.0236,41.62902],[15.02364,41.62916],[15.02386,41.62999],[15.02425,41.63107],[15.02546,41.6341],[15.02585,41.63445],[15.02599,41.63457],[15.03116,41.63744],[15.03417,41.63802],[15.03471,41.63781],[15.0371,41.63728],[15.04041,41.63672],[15.04196,41.63662],[15.0422,41.63664],[15.04317,41.63669],[15.04439,41.63682],[15.04449,41.63683],[15.04518,41.63695],[15.04545,41.63755],[15.04526,41.63866],[15.04522,41.63889],[15.04507,41.63929],[15.0447,41.64035],[15.04681,41.65086],[15.04707,41.65278],[15.04798,41.65478],[15.04831,41.65552],[15.04849,41.65576],[15.04858,41.65587],[15.04923,41.65647],[15.04934,41.65656],[15.04991,41.65703],[15.05025,41.65731],[15.05307,41.6589],[15.05411,41.65947],[15.05419,41.65949],[15.05465,41.65961],[15.0548,41.65964],[15.0557,41.65975],[15.05828,41.65997],[15.05843,41.65998],[15.05902,41.66002],[15.05963,41.65992],[15.05986,41.65988],[15.06007,41.65984],[15.06022,41.6598],[15.06075,41.65968],[15.0608,41.65965],[15.06146,41.65933],[15.06154,41.65926],[15.06173,41.65911],[15.0693,41.66068],[15.07338,41.66517],[15.08062,41.66736],[15.08578,41.66992],[15.08996,41.672],[15.08605,41.67484],[15.08597,41.67493],[15.08585,41.67506],[15.08585,41.67545],[15.08713,41.67816],[15.08776,41.6793],[15.0885,41.68057],[15.08854,41.68064],[15.08889,41.68114],[15.08928,41.68154],[15.08937,41.68163],[15.08993,41.68182],[15.09047,41.68182],[15.09107,41.68178],[15.0911,41.68176],[15.09144,41.68159],[15.09323,41.6798],[15.09346,41.67948],[15.09351,41.67941],[15.09379,41.6785],[15.0938,41.67847],[15.09389,41.67811],[15.09394,41.67788],[15.09401,41.67684],[15.09412,41.67562],[15.09443,41.67469],[15.09447,41.67458],[15.09466,41.67418],[15.09517,41.67382],[15.10081,41.67184],[15.10175,41.67184],[15.10246,41.67206],[15.10386,41.67292],[15.10402,41.67305],[15.10404,41.67307],[15.10405,41.6731],[15.10408,41.67315],[15.1041,41.67319],[15.10428,41.67358],[15.10502,41.67534],[15.10512,41.67571],[15.1052,41.67598],[15.10505,41.67654],[15.10502,41.67661],[15.1049,41.67689],[15.10476,41.67722],[15.1045,41.67747],[15.10422,41.67773],[15.10406,41.67801],[15.10398,41.67817],[15.10392,41.67826],[15.10376,41.67862],[15.10372,41.67872],[15.10366,41.67886],[15.10363,41.67894],[15.1035,41.67939],[15.10349,41.67948],[15.10344,41.68011],[15.10347,41.6803],[15.10354,41.68087],[15.10376,41.68163],[15.10381,41.68178],[15.10396,41.68207],[15.10421,41.68252],[15.10607,41.68561],[15.10666,41.68584],[15.11041,41.68811],[15.1127,41.69009],[15.11411,41.69132],[15.11506,41.69217],[15.11659,41.6934],[15.11707,41.69375],[15.11775,41.69411],[15.11824,41.6943],[15.12076,41.69524],[15.12112,41.69536],[15.12138,41.69545],[15.12192,41.69562],[15.12201,41.69564],[15.12245,41.69578],[15.12307,41.6959],[15.12352,41.69599],[15.12423,41.69612],[15.12981,41.69732],[15.1368,41.69981],[15.15529,41.70674],[15.15926,41.70791],[15.1605,41.70862],[15.1611,41.70903],[15.1615,41.70939],[15.16154,41.70959],[15.16156,41.70971],[15.15756,41.71186],[15.15644,41.71188],[15.15099,41.71083],[15.14571,41.71154],[15.1353,41.71534],[15.12189,41.72022],[15.12092,41.72075],[15.1197,41.72268],[15.11896,41.7239],[15.11655,41.72784],[15.11637,41.72812],[15.11623,41.72834],[15.11577,41.72901],[15.10887,41.7354],[15.10284,41.74128],[15.10232,41.74195],[15.10188,41.74276],[15.1018,41.74452],[15.10184,41.74532],[15.10194,41.74632],[15.10209,41.74675],[15.10215,41.74692],[15.10241,41.74762],[15.10311,41.74883],[15.10328,41.74904],[15.10393,41.749],[15.10555,41.7488],[15.10675,41.74863],[15.10782,41.7484],[15.10889,41.74818],[15.11049,41.7479],[15.1116,41.74773],[15.11221,41.74772],[15.11363,41.74799],[15.11655,41.74897],[15.11526,41.75093],[15.09861,41.76517],[15.09876,41.77159],[15.1011,41.77976],[15.10243,41.78241],[15.10626,41.78464],[15.10722,41.78518],[15.10998,41.78624],[15.11004,41.78625],[15.11091,41.7863],[15.11321,41.78799],[15.11468,41.78917],[15.11701,41.79918],[15.11605,41.8042],[15.11576,41.8044],[15.11522,41.80504],[15.11491,41.80554],[15.11439,41.80638],[15.1142,41.80677],[15.11382,41.80771],[15.11373,41.80822],[15.11382,41.80869],[15.11438,41.81045],[15.11479,41.81092],[15.11584,41.8124],[15.11624,41.81313],[15.11636,41.81373],[15.11643,41.81434],[15.11645,41.81454],[15.11621,41.81499],[15.11511,41.8171],[15.11235,41.82005],[15.11129,41.82085],[15.11095,41.82073],[15.11039,41.82075],[15.10938,41.8209],[15.109,41.82113],[15.1088,41.8213],[15.10806,41.82242],[15.10518,41.82907],[15.10455,41.83114],[15.10301,41.83137],[15.1015,41.83207],[15.10046,41.83356],[15.10089,41.83688],[15.10099,41.83748],[15.10121,41.83824],[15.10366,41.84626],[15.10458,41.84766],[15.10594,41.84952],[15.10799,41.84934],[15.10978,41.84933],[15.11202,41.84983],[15.11258,41.84996],[15.11378,41.85032],[15.11415,41.8505],[15.11425,41.85055],[15.11467,41.85078],[15.11883,41.85403],[15.11921,41.85589],[15.11889,41.85712],[15.1193,41.85717],[15.11962,41.85727],[15.11992,41.85749],[15.12184,41.85912],[15.12413,41.86128],[15.12513,41.86233],[15.12556,41.86449],[15.12548,41.86693],[15.12538,41.86836],[15.12972,41.8737],[15.14059,41.8791],[15.1376,41.88795],[15.1357,41.89196],[15.13167,41.90343],[15.1351,41.91345],[15.13539,41.91442],[15.13545,41.91464],[15.13554,41.91502],[15.13555,41.91506],[15.13555,41.91509],[15.13556,41.91514],[15.13559,41.91539],[15.1356,41.91565],[15.1356,41.91627],[15.13541,41.91757],[15.13523,41.91877],[15.13513,41.91895],[15.13501,41.91932],[15.135,41.91939],[15.13494,41.91974],[15.13492,41.92018],[15.13496,41.9211],[15.13519,41.92208],[15.13532,41.92265],[15.13541,41.92297],[15.13542,41.923],[15.13557,41.92341],[15.13564,41.92361],[15.13599,41.92429],[15.13617,41.92464],[15.13699,41.92577],[15.13721,41.92602],[15.13728,41.92611],[15.13749,41.92633],[15.13769,41.92645],[15.13791,41.92657],[15.13805,41.92665],[15.13752,41.92813],[15.13091,41.92885],[15.12209,41.93011],[15.11443,41.93145],[15.10566,41.93341],[15.1013,41.93444],[15.09976,41.93482],[15.09894,41.93506],[15.09724,41.93558],[15.09051,41.93768],[15.08941,41.9381],[15.08112,41.94152],[15.08067,41.94171],[15.07962,41.94225],[15.07747,41.94363],[15.07667,41.94415],[15.0679,41.95127],[15.0619,41.95658],[15.06081,41.95829],[15.06043,41.95873],[15.05819,41.96044],[15.05357,41.96378],[15.05206,41.96457],[15.04588,41.96744],[15.0431,41.96867],[15.03388,41.97565],[15.03381,41.97597],[15.03275,41.97684],[15.03244,41.97701],[15.03,41.97831],[15.02746,41.97826],[15.02753,41.97844],[15.02763,41.97878],[15.02781,41.9796],[15.02721,41.9811],[15.02243,41.98395],[15.01785,41.98552],[15.0166,41.98564],[15.01604,41.98565],[15.01402,41.9863],[15.01074,41.98782],[15.00981,41.98826],[15.00568,41.9905],[15.0039,41.99164],[15.00354,41.99187],[15.00296,41.99245],[15.00254,41.99297],[15.00196,41.99374],[15.00113,41.99523],[15.00082,41.99608],[15.00048,41.99717],[14.99927,42.00319],[14.99918,42.00464],[14.99918,42.00529],[14.99935,42.00554],[15.00064,42.00564],[15.00477,42.00578],[15.00778,42.00333],[15.0077,42.00325],[15.00719,42.00287],[15.0076,42.00239],[15.00881,42.00283],[15.00876,42.00316],[15.0048,42.0065],[14.99864,42.00614],[14.99558,42.00531],[14.99502,42.00509],[14.99422,42.00513],[14.98106,42.00677],[14.9755,42.00752],[14.96206,42.00944],[14.9586,42.00994],[14.95462,42.01053],[14.93433,42.01456],[14.93274,42.01477],[14.92993,42.01516],[14.92932,42.01527],[14.92907,42.01532],[14.92833,42.01547],[14.90815,42.01951],[14.90021,42.02137],[14.89958,42.02152],[14.89321,42.02326],[14.89228,42.02352],[14.88981,42.02422],[14.88954,42.0243],[14.88919,42.0244],[14.87619,42.02884],[14.8597,42.03468],[14.84546,42.03994],[14.83345,42.04472],[14.82793,42.04681],[14.82244,42.0493],[14.81456,42.05307],[14.80498,42.05818],[14.79785,42.06321],[14.79437,42.06566],[14.79246,42.06646],[14.79188,42.06669],[14.78574,42.0685],[14.77917,42.07025],[14.77723,42.06838],[14.77692,42.06808],[14.77621,42.0674],[14.77532,42.06642],[14.77268,42.0635],[14.77242,42.0632],[14.77224,42.06291],[14.77203,42.06255],[14.77184,42.06217],[14.77171,42.06178],[14.76754,42.05387],[14.7623,42.0446],[14.7639,42.04163],[14.77439,42.03932],[14.78225,42.03511],[14.78264,42.03477],[14.78285,42.03431],[14.78296,42.03396],[14.78301,42.03379],[14.78292,42.03318],[14.7828,42.03297],[14.78274,42.03286],[14.78261,42.03264],[14.78222,42.03202],[14.78163,42.03131],[14.78159,42.03126],[14.7812,42.03081],[14.78104,42.03062],[14.78098,42.03055],[14.78061,42.03016],[14.7804,42.02993],[14.78015,42.02967],[14.77845,42.02797],[14.77728,42.02697],[14.77655,42.02636],[14.77597,42.02589],[14.76616,42.01845],[14.75845,42.01632],[14.75207,42.01343],[14.74922,42.01082],[14.74716,42.00897],[14.74681,42.00881],[14.74629,42.00858],[14.74621,42.00855],[14.74598,42.00846],[14.7452,42.00815],[14.74499,42.00807],[14.74399,42.00774],[14.74173,42.00744],[14.73926,42.00723],[14.73825,42.00722],[14.73604,42.00683],[14.73314,42.00607],[14.73063,42.00507],[14.728,42.00369],[14.72716,42.00325],[14.72413,42.00046],[14.72371,42],[14.71406,41.99005],[14.71171,41.98718],[14.70781,41.98295],[14.70266,41.97868],[14.70114,41.9768],[14.70062,41.9742],[14.69544,41.97041],[14.69037,41.96717],[14.68556,41.96195],[14.68202,41.95804],[14.68075,41.95667],[14.68023,41.95611],[14.67967,41.95552],[14.67925,41.95509],[14.67909,41.95492],[14.67862,41.95445],[14.67818,41.95404],[14.67492,41.95128],[14.67443,41.95094],[14.67321,41.95014],[14.67293,41.94998],[14.67249,41.94972],[14.67235,41.94963],[14.67024,41.9482],[14.66984,41.94784],[14.66896,41.947],[14.66864,41.94663],[14.66799,41.94568],[14.66774,41.94529],[14.66643,41.9432],[14.66623,41.94278],[14.66596,41.94217],[14.66554,41.94111],[14.66547,41.94062],[14.66537,41.93967],[14.66532,41.93898],[14.66541,41.93825],[14.6655,41.93791],[14.66568,41.93743],[14.66616,41.93643],[14.66636,41.93619],[14.66651,41.93601],[14.6668,41.93542],[14.66693,41.93513],[14.667,41.93498],[14.66703,41.93464],[14.66707,41.93433],[14.66714,41.93368],[14.66715,41.93355],[14.66712,41.93264],[14.66638,41.9289],[14.66629,41.92855],[14.66613,41.92805],[14.6659,41.92754],[14.66486,41.92097],[14.66376,41.91629],[14.6579,41.91297],[14.65707,41.91244],[14.65537,41.91135],[14.65483,41.91094],[14.65451,41.91056],[14.65311,41.90837],[14.65259,41.90724],[14.65243,41.90689],[14.65241,41.90684],[14.64165,41.9004],[14.63313,41.89716],[14.62978,41.89654],[14.62768,41.89593],[14.62685,41.89568],[14.62279,41.8942],[14.62273,41.89417],[14.62198,41.89381],[14.62139,41.89352],[14.61978,41.89266],[14.6182,41.89168],[14.61787,41.89147],[14.61424,41.88919],[14.61226,41.88277],[14.6116,41.88071],[14.61146,41.88042],[14.61134,41.88016],[14.61106,41.87978],[14.61099,41.87967],[14.60832,41.87595],[14.60451,41.87073],[14.60396,41.87009],[14.60824,41.86746],[14.61012,41.86513],[14.61096,41.86374],[14.61879,41.84992],[14.62065,41.8441],[14.62935,41.83933],[14.63797,41.8355],[14.63824,41.83498],[14.63841,41.83408],[14.6401,41.83344],[14.64657,41.8317],[14.65043,41.831],[14.65487,41.82963],[14.65737,41.82847],[14.6597,41.82723],[14.66375,41.82468],[14.66608,41.82243],[14.67017,41.82127],[14.67665,41.82469],[14.68018,41.82661],[14.6836,41.82863],[14.68396,41.82886],[14.6867,41.83068],[14.68739,41.83127],[14.68835,41.83241],[14.68771,41.83329],[14.6859,41.83412],[14.68459,41.83595],[14.68436,41.83627],[14.68402,41.83685],[14.68397,41.83709],[14.6839,41.83807],[14.68397,41.8383],[14.69025,41.85358],[14.69354,41.86012],[14.69558,41.86059],[14.70891,41.86439],[14.71145,41.86777],[14.71735,41.87144],[14.71887,41.87234],[14.71915,41.87249],[14.71943,41.87254],[14.72079,41.87261],[14.71922,41.86852],[14.71931,41.86541],[14.72314,41.86091],[14.72565,41.85931],[14.72618,41.85926],[14.72921,41.85894],[14.72973,41.85884],[14.73067,41.85861],[14.73112,41.8585],[14.73118,41.85849],[14.73163,41.85828],[14.75045,41.84762],[14.76214,41.84063],[14.76323,41.83996],[14.76414,41.83935],[14.76463,41.83882],[14.76508,41.83824],[14.76516,41.83801],[14.76529,41.83766],[14.76542,41.83715],[14.76555,41.83596],[14.76553,41.83504],[14.76538,41.83482],[14.7652,41.83472]]],[[[14.62823,41.52931],[14.6259,41.52808],[14.62569,41.52572],[14.62561,41.52438],[14.6256,41.51661],[14.63143,41.50723],[14.6348,41.50551],[14.63518,41.50541],[14.63987,41.50029],[14.6461,41.49186],[14.64737,41.48907],[14.64711,41.48842],[14.64574,41.48701],[14.64714,41.48719],[14.64761,41.48723],[14.64811,41.48715],[14.65377,41.48623],[14.65414,41.48609],[14.65544,41.4856],[14.65712,41.48503],[14.65968,41.48446],[14.66009,41.48437],[14.66045,41.4843],[14.6615,41.48412],[14.66207,41.48406],[14.66323,41.48398],[14.66364,41.48396],[14.66635,41.48396],[14.66864,41.48399],[14.66895,41.48401],[14.6725,41.4835],[14.67588,41.48418],[14.67902,41.48504],[14.68463,41.4855],[14.69298,41.486],[14.69524,41.48566],[14.69663,41.48543],[14.69707,41.48491],[14.70225,41.49101],[14.70366,41.4936],[14.70376,41.49383],[14.70382,41.49414],[14.70375,41.49486],[14.70371,41.49514],[14.70363,41.49542],[14.70277,41.49689],[14.70244,41.49737],[14.70217,41.4977],[14.70174,41.49792],[14.70116,41.49828],[14.70087,41.49851],[14.70038,41.49898],[14.69947,41.50002],[14.69921,41.50038],[14.69902,41.50082],[14.69878,41.50142],[14.69855,41.50205],[14.69862,41.50226],[14.70374,41.50669],[14.70499,41.50704],[14.70609,41.5078],[14.71017,41.51209],[14.71754,41.52001],[14.72134,41.52302],[14.72602,41.52759],[14.72821,41.53024],[14.72889,41.53143],[14.72913,41.53183],[14.72935,41.53208],[14.7295,41.53223],[14.72995,41.53255],[14.73017,41.53271],[14.73054,41.53287],[14.73086,41.53297],[14.73651,41.53431],[14.73686,41.53437],[14.73896,41.53465],[14.73924,41.53452],[14.74053,41.53371],[14.74086,41.53241],[14.74068,41.5312],[14.74097,41.52799],[14.74117,41.52766],[14.74141,41.52741],[14.74192,41.52701],[14.7423,41.52689],[14.74419,41.52652],[14.75503,41.5251],[14.75592,41.52518],[14.75769,41.52637],[14.75783,41.52648],[14.75801,41.52663],[14.75833,41.52695],[14.75896,41.52763],[14.75907,41.52785],[14.75916,41.52806],[14.75917,41.52849],[14.75965,41.52952],[14.76202,41.53054],[14.7622,41.5306],[14.76361,41.53072],[14.76418,41.53075],[14.76489,41.53077],[14.76561,41.53078],[14.7676,41.53065],[14.77286,41.5304],[14.77306,41.53042],[14.77344,41.53047],[14.77385,41.53062],[14.7739,41.53064],[14.77438,41.53094],[14.77465,41.53115],[14.77475,41.53138],[14.77477,41.53165],[14.77488,41.53543],[14.77379,41.53791],[14.77225,41.53985],[14.77052,41.54471],[14.77058,41.54511],[14.77064,41.54537],[14.77067,41.54548],[14.77094,41.54592],[14.77321,41.54432],[14.78607,41.53738],[14.78763,41.53659],[14.7887,41.5362],[14.78947,41.53622],[14.7984,41.54266],[14.80262,41.54916],[14.8029,41.54995],[14.80309,41.55042],[14.80333,41.5509],[14.80345,41.55107],[14.80419,41.55168],[14.80689,41.55376],[14.80772,41.55435],[14.80811,41.55458],[14.80857,41.5548],[14.80878,41.55489],[14.80892,41.55495],[14.80924,41.55506],[14.80931,41.55509],[14.80995,41.55523],[14.81025,41.55525],[14.81062,41.55525],[14.81145,41.55516],[14.81181,41.55492],[14.81204,41.55472],[14.81238,41.55435],[14.82342,41.54251],[14.83116,41.53425],[14.83241,41.53071],[14.83374,41.52884],[14.83446,41.52799],[14.83534,41.52919],[14.83804,41.53157],[14.84689,41.53459],[14.85,41.53534],[14.85115,41.53532],[14.85218,41.53507],[14.85316,41.53476],[14.85764,41.53254],[14.85799,41.53234],[14.85841,41.53208],[14.85873,41.53182],[14.85935,41.53104],[14.85949,41.53052],[14.86476,41.52273],[14.86892,41.5222],[14.8742,41.52029],[14.87531,41.51968],[14.88296,41.51481],[14.88469,41.51355],[14.88544,41.51264],[14.8879,41.50817],[14.88797,41.50447],[14.88804,41.49595],[14.88516,41.49235],[14.88346,41.48857],[14.88246,41.48506],[14.88293,41.47998],[14.88325,41.47724],[14.88477,41.47479],[14.88595,41.47337],[14.88618,41.47316],[14.88645,41.47293],[14.88673,41.47272],[14.89389,41.46737],[14.90147,41.46194],[14.90408,41.46017],[14.90395,41.45971],[14.90349,41.45913],[14.90317,41.45883],[14.90084,41.45672],[14.89833,41.45541],[14.89387,41.45105],[14.89339,41.44781],[14.89608,41.44799],[14.90828,41.45096],[14.91543,41.45168],[14.93064,41.45268],[14.94641,41.45597],[14.94689,41.45608],[14.94736,41.45626],[14.95144,41.45801],[14.95534,41.46099],[14.95834,41.46332],[14.96441,41.46583],[14.97633,41.46845],[14.98227,41.46907],[14.98243,41.46922],[14.98258,41.46935],[14.98266,41.46946],[14.98284,41.46969],[14.98305,41.46997],[14.98326,41.47026],[14.98422,41.47196],[14.98437,41.47228],[14.9844,41.47234],[14.98456,41.47295],[14.9846,41.47334],[14.98454,41.47375],[14.98448,41.47405],[14.98447,41.47409],[14.9843,41.47434],[14.98967,41.47987],[15.00099,41.48475],[15.00762,41.48639],[15.00524,41.48907],[15.00207,41.49211],[14.99885,41.49441],[14.9955,41.49662],[14.99071,41.49936],[14.98475,41.50225],[14.97928,41.50569],[14.97363,41.51133],[14.96928,41.51572],[14.96639,41.51901],[14.96539,41.51918],[14.95821,41.52057],[14.95299,41.52225],[14.94695,41.52173],[14.94574,41.52178],[14.94553,41.5218],[14.94512,41.52183],[14.94422,41.52215],[14.94046,41.52361],[14.93998,41.52395],[14.93983,41.52406],[14.93938,41.52443],[14.93924,41.52455],[14.93898,41.52477],[14.93857,41.5252],[14.93737,41.52709],[14.93715,41.52748],[14.93707,41.52772],[14.93703,41.52786],[14.93588,41.54244],[14.93746,41.54831],[14.93833,41.55073],[14.94083,41.55605],[14.94215,41.55892],[14.94392,41.5603],[14.94428,41.56079],[14.94456,41.56128],[14.94555,41.56328],[14.94567,41.56375],[14.94575,41.5641],[14.94805,41.57404],[14.94782,41.57429],[14.94581,41.57678],[14.94585,41.57918],[14.94676,41.58403],[14.94814,41.58689],[14.94952,41.59178],[14.94734,41.59617],[14.94736,41.6077],[14.9464,41.60992],[14.94256,41.6113],[14.9397,41.61313],[14.93652,41.61566],[14.93475,41.61807],[14.9341,41.61945],[14.93068,41.62075],[14.92722,41.61975],[14.92437,41.61831],[14.92222,41.61721],[14.91947,41.61549],[14.91631,41.61329],[14.91491,41.61234],[14.91282,41.61092],[14.91235,41.61061],[14.91195,41.61044],[14.90854,41.60999],[14.89639,41.61181],[14.8866,41.61342],[14.87783,41.61411],[14.86304,41.61404],[14.85748,41.6135],[14.84981,41.60917],[14.84864,41.6068],[14.84761,41.60262],[14.84749,41.60229],[14.84712,41.60177],[14.84674,41.60143],[14.84633,41.60108],[14.84603,41.60083],[14.84552,41.60058],[14.84514,41.60041],[14.84392,41.60015],[14.84026,41.5994],[14.83984,41.59932],[14.83872,41.59928],[14.83472,41.59704],[14.82896,41.5896],[14.82883,41.58932],[14.82825,41.58848],[14.82778,41.58794],[14.8267,41.58703],[14.82618,41.5866],[14.82592,41.5864],[14.82338,41.58459],[14.82293,41.58434],[14.82191,41.58393],[14.82032,41.58347],[14.81903,41.5832],[14.81679,41.58279],[14.81545,41.58277],[14.81023,41.58272],[14.80894,41.58331],[14.80426,41.59095],[14.80419,41.591],[14.80409,41.59105],[14.80396,41.59111],[14.80361,41.59125],[14.80313,41.59141],[14.80094,41.59196],[14.79928,41.59212],[14.79814,41.59185],[14.79842,41.59232],[14.8013,41.59855],[14.80208,41.60074],[14.80208,41.60458],[14.80055,41.60809],[14.79911,41.60947],[14.79491,41.61181],[14.78936,41.61416],[14.78702,41.61412],[14.78201,41.61412],[14.78158,41.61413],[14.78077,41.61429],[14.7787,41.6148],[14.77693,41.61539],[14.7686,41.6119],[14.76852,41.61161],[14.7679,41.61081],[14.76749,41.6104],[14.76508,41.60881],[14.76455,41.60846],[14.76419,41.60839],[14.76387,41.60834],[14.76379,41.60833],[14.76348,41.60831],[14.76175,41.60841],[14.76019,41.60854],[14.74821,41.6115],[14.74243,41.61496],[14.74151,41.61329],[14.7373,41.60704],[14.73261,41.60037],[14.72924,41.5956],[14.72088,41.58821],[14.71948,41.58926],[14.7083,41.59692],[14.69918,41.60044],[14.69267,41.60153],[14.68706,41.60139],[14.68255,41.59886],[14.67659,41.59396],[14.66608,41.58945],[14.66109,41.59108],[14.65482,41.59213],[14.6541,41.59222],[14.65372,41.59224],[14.6532,41.59219],[14.65279,41.59208],[14.65245,41.59197],[14.65206,41.59183],[14.65136,41.59136],[14.65113,41.59114],[14.65091,41.59089],[14.64066,41.58906],[14.63207,41.59024],[14.62844,41.5899],[14.62136,41.58325],[14.61637,41.57672],[14.61441,41.5735],[14.614,41.57287],[14.61385,41.5727],[14.61364,41.57246],[14.61325,41.572],[14.61215,41.57095],[14.60803,41.56916],[14.60883,41.5678],[14.61118,41.5646],[14.61345,41.56207],[14.61369,41.56178],[14.61382,41.5616],[14.61444,41.56067],[14.61457,41.56039],[14.61466,41.5602],[14.61472,41.55995],[14.61469,41.55973],[14.61465,41.55955],[14.61215,41.55686],[14.61032,41.55495],[14.60822,41.55368],[14.60699,41.55142],[14.60895,41.54499],[14.60963,41.54489],[14.61075,41.54471],[14.61348,41.5447],[14.61587,41.54491],[14.61816,41.54382],[14.61898,41.5411],[14.61915,41.5398],[14.61522,41.53427],[14.62823,41.52931]]],[[[14.62422,41.59458],[14.6258,41.59455],[14.626,41.595],[14.62666,41.59731],[14.62674,41.59781],[14.62675,41.59794],[14.62678,41.59825],[14.62747,41.60602],[14.62764,41.60809],[14.62782,41.6106],[14.62787,41.61178],[14.62789,41.61238],[14.6279,41.61284],[14.62777,41.61427],[14.62751,41.61435],[14.62392,41.61498],[14.61815,41.61556],[14.61762,41.6156],[14.61475,41.61562],[14.61434,41.61551],[14.61163,41.6157],[14.60879,41.61625],[14.60268,41.61756],[14.60133,41.61798],[14.59899,41.61875],[14.59782,41.61926],[14.59313,41.6145],[14.59321,41.6135],[14.59838,41.60647],[14.59863,41.60615],[14.59894,41.6058],[14.59965,41.60512],[14.59977,41.60499],[14.5999,41.60487],[14.60024,41.60466],[14.60047,41.60454],[14.60085,41.60437],[14.6013,41.60428],[14.60168,41.60421],[14.60245,41.60412],[14.60726,41.60361],[14.60928,41.6038],[14.61045,41.60393],[14.61073,41.60409],[14.61136,41.60438],[14.61176,41.60455],[14.61225,41.60463],[14.61426,41.60493],[14.61628,41.60489],[14.61836,41.60476],[14.61869,41.60464],[14.61898,41.60452],[14.62301,41.60192],[14.62314,41.6018],[14.6232,41.60171],[14.62326,41.60154],[14.62371,41.60027],[14.62459,41.59721],[14.62459,41.59631],[14.62422,41.59458]]]]}}]}