{"type":"FeatureCollection","_provenance":{"authority":"Direção-Geral do Território — CAOP 2025 (freguesia and concelho geometry) / DL 173/2009 and Portaria 296/2010 (membership)","licence":"CC BY 4.0","attribution":"Direção-Geral do Território","method":"freguesia-union: CAOP 2025 freguesias dissolved per the freguesia lists in the statutes, resolved through an explicit concordance (data/wine-map/portugal-subregion-membership.json). mapshaper 6% Visvalingam simplify with keep-shapes, interior rings dropped, 5dp, parts under ~0.1 km2 dropped. Where a statute names a freguesia only in part, or names individual quintas, the whole present-day unit is included and the exception is recorded in properties.partial.","caveat":"DL 173/2009 states that the Douro outlines correspond to the administrative boundaries in force in 1921, so present-day freguesia geometry approximates the legal area even before the 2013 amalgamations.","reviewed_at":"2026-09-10"},"features":[{"type":"Feature","properties":{"name":"minho","units":57,"statute_names":15,"whole_concelhos":46,"legal":"DL 449/99 art. 2: (a) 43 whole concelhos, (c) Arouca, Castelo de Paiva and Vale de Cambra whole, (b) 14 named freguesias of Resende, (d) the freguesia of Ossela in Oliveira de Azemeis.","partial":{"Resende":"the statute names 14 freguesias, i.e. all of Resende except Barro, which is Douro (Baixo Corgo) under DL 173/2009","Oliveira de Azemeis / Ossela":"only this one freguesia of the concelho"}},"geometry":{"type":"MultiPolygon","coordinates":[[[[-8.33944,42.08415],[-8.34638,42.08621],[-8.34864,42.088],[-8.3566,42.09027],[-8.36018,42.08967],[-8.36315,42.09044],[-8.36755,42.08863],[-8.37104,42.08831],[-8.37169,42.08656],[-8.37534,42.08377],[-8.3756,42.08225],[-8.38164,42.07635],[-8.38369,42.07703],[-8.39015,42.07508],[-8.39361,42.08018],[-8.40484,42.08043],[-8.40746,42.07866],[-8.4132,42.0768],[-8.41947,42.07311],[-8.42894,42.07229],[-8.43117,42.07285],[-8.43336,42.07648],[-8.43978,42.08141],[-8.44302,42.08238],[-8.45118,42.08269],[-8.4627,42.0812],[-8.47225,42.08138],[-8.47976,42.08068],[-8.48609,42.08191],[-8.49159,42.08079],[-8.49942,42.07821],[-8.50368,42.07766],[-8.51111,42.07804],[-8.51805,42.07956],[-8.52114,42.07933],[-8.52642,42.07705],[-8.52829,42.07265],[-8.52624,42.06938],[-8.52541,42.06372],[-8.52908,42.06061],[-8.54684,42.05399],[-8.5593,42.05256],[-8.57037,42.0529],[-8.58124,42.05187],[-8.58575,42.05238],[-8.59197,42.05636],[-8.59536,42.05687],[-8.59951,42.05501],[-8.60381,42.05405],[-8.62203,42.05197],[-8.63009,42.05016],[-8.63678,42.04749],[-8.64128,42.04425],[-8.64258,42.04114],[-8.64644,42.03651],[-8.65375,42.03348],[-8.65762,42.0301],[-8.65916,42.026],[-8.65758,42.02151],[-8.65745,42.01776],[-8.66045,42.00529],[-8.66136,42.00332],[-8.67036,41.99911],[-8.67732,41.99207],[-8.68191,41.99058],[-8.68691,41.99053],[-8.69071,41.98892],[-8.69598,41.98503],[-8.70158,41.98303],[-8.71614,41.98016],[-8.72562,41.97607],[-8.73517,41.97141],[-8.74597,41.96455],[-8.7488,41.95914],[-8.74661,41.95035],[-8.74773,41.94314],[-8.75628,41.93313],[-8.77222,41.92482],[-8.78575,41.91737],[-8.79374,41.915],[-8.80343,41.91514],[-8.81838,41.91129],[-8.82461,41.90592],[-8.82708,41.90045],[-8.83821,41.88939],[-8.84895,41.8795],[-8.85253,41.87524],[-8.85751,41.87277],[-8.86373,41.87103],[-8.86646,41.86926],[-8.87153,41.8639],[-8.86737,41.85354],[-8.86736,41.84926],[-8.86874,41.84516],[-8.87286,41.84384],[-8.87609,41.84037],[-8.87657,41.83662],[-8.87648,41.82857],[-8.87378,41.82758],[-8.87485,41.82319],[-8.87405,41.82031],[-8.87055,41.81586],[-8.87063,41.8134],[-8.86656,41.81428],[-8.86462,41.81299],[-8.86652,41.80662],[-8.86832,41.80349],[-8.87315,41.80001],[-8.87426,41.79604],[-8.87183,41.79056],[-8.8725,41.7849],[-8.87155,41.78066],[-8.87279,41.77368],[-8.8768,41.7666],[-8.87871,41.7622],[-8.87819,41.7564],[-8.88106,41.75269],[-8.87958,41.74841],[-8.87803,41.74758],[-8.87828,41.74276],[-8.8754,41.73946],[-8.87515,41.7365],[-8.87172,41.73062],[-8.87198,41.72667],[-8.86911,41.72608],[-8.86705,41.72257],[-8.86733,41.7209],[-8.86339,41.71259],[-8.85678,41.70052],[-8.85289,41.6992],[-8.84889,41.69258],[-8.84641,41.68197],[-8.84134,41.68389],[-8.83873,41.68336],[-8.83637,41.68046],[-8.8331,41.67926],[-8.82916,41.67653],[-8.82573,41.67013],[-8.82511,41.66587],[-8.82619,41.65303],[-8.82733,41.64965],[-8.82472,41.6448],[-8.82476,41.6432],[-8.82209,41.63993],[-8.81996,41.63542],[-8.82001,41.62852],[-8.81947,41.6265],[-8.81557,41.62292],[-8.8131,41.61857],[-8.81157,41.61157],[-8.80855,41.60624],[-8.80729,41.59548],[-8.80592,41.5907],[-8.80639,41.58794],[-8.80457,41.58143],[-8.80226,41.57877],[-8.80212,41.576],[-8.79905,41.57162],[-8.79936,41.56568],[-8.79812,41.56153],[-8.79549,41.55727],[-8.79338,41.5485],[-8.79387,41.54402],[-8.79291,41.53942],[-8.79082,41.5336],[-8.7923,41.53076],[-8.79275,41.52703],[-8.78927,41.51993],[-8.787,41.51369],[-8.78816,41.50779],[-8.79093,41.5021],[-8.78833,41.49963],[-8.78595,41.4951],[-8.78489,41.48956],[-8.78067,41.48573],[-8.7774,41.48134],[-8.77641,41.478],[-8.77643,41.47197],[-8.77646,41.46477],[-8.77869,41.45655],[-8.77849,41.45068],[-8.78002,41.44241],[-8.78467,41.43294],[-8.78433,41.42665],[-8.78605,41.42031],[-8.78891,41.41668],[-8.78781,41.41182],[-8.78661,41.41183],[-8.78087,41.40574],[-8.77892,41.4005],[-8.78073,41.39522],[-8.77851,41.39492],[-8.77508,41.39141],[-8.77543,41.38744],[-8.77215,41.38441],[-8.76972,41.38003],[-8.76741,41.37391],[-8.76332,41.37242],[-8.7678,41.37215],[-8.76597,41.36953],[-8.7617,41.36789],[-8.76089,41.36188],[-8.75749,41.35919],[-8.75505,41.35455],[-8.75426,41.34602],[-8.75509,41.3432],[-8.75321,41.34111],[-8.74606,41.33968],[-8.74114,41.33616],[-8.73987,41.33275],[-8.73939,41.32326],[-8.7414,41.3109],[-8.73829,41.30171],[-8.73829,41.29908],[-8.73542,41.29272],[-8.73365,41.29091],[-8.73204,41.28189],[-8.72975,41.27864],[-8.72986,41.27253],[-8.72862,41.27034],[-8.72761,41.26848],[-8.72883,41.26517],[-8.72495,41.26067],[-8.72411,41.25622],[-8.72458,41.25216],[-8.72716,41.24384],[-8.72913,41.24258],[-8.72454,41.23804],[-8.72393,41.23317],[-8.72244,41.23186],[-8.72247,41.22832],[-8.71809,41.22572],[-8.71595,41.22003],[-8.7165,41.21622],[-8.71587,41.20978],[-8.71709,41.20708],[-8.71637,41.20317],[-8.7115,41.19837],[-8.71248,41.19695],[-8.70998,41.19487],[-8.70686,41.19004],[-8.7058,41.18611],[-8.69857,41.17919],[-8.69409,41.17713],[-8.69012,41.1734],[-8.68423,41.17365],[-8.67886,41.17149],[-8.67535,41.17208],[-8.66824,41.17691],[-8.66726,41.17858],[-8.66408,41.17901],[-8.66185,41.17696],[-8.65306,41.17881],[-8.64263,41.18432],[-8.64132,41.18405],[-8.63266,41.17926],[-8.62182,41.18035],[-8.61605,41.18426],[-8.60353,41.18586],[-8.59898,41.18368],[-8.59688,41.18375],[-8.59606,41.18194],[-8.59118,41.18009],[-8.58781,41.17963],[-8.58411,41.18136],[-8.58204,41.18051],[-8.57643,41.18096],[-8.56919,41.17823],[-8.56604,41.17576],[-8.56776,41.17413],[-8.56743,41.17121],[-8.57019,41.17009],[-8.57075,41.16814],[-8.56604,41.16565],[-8.56601,41.16138],[-8.55873,41.15614],[-8.55771,41.15807],[-8.55474,41.15962],[-8.55474,41.15321],[-8.55897,41.15038],[-8.56241,41.14946],[-8.56369,41.14637],[-8.56825,41.14673],[-8.57021,41.14478],[-8.57352,41.14406],[-8.57576,41.13996],[-8.57376,41.13714],[-8.57121,41.13007],[-8.56883,41.12619],[-8.56676,41.12482],[-8.55409,41.12368],[-8.55014,41.12269],[-8.54772,41.12106],[-8.54025,41.11238],[-8.53597,41.10599],[-8.53178,41.10361],[-8.52737,41.0998],[-8.52201,41.08765],[-8.52115,41.08305],[-8.51777,41.07627],[-8.51385,41.07263],[-8.50919,41.07098],[-8.50405,41.0703],[-8.49306,41.07137],[-8.48537,41.07317],[-8.47884,41.07543],[-8.47371,41.07593],[-8.47045,41.07531],[-8.46678,41.07322],[-8.4621,41.06738],[-8.45804,41.06116],[-8.45107,41.05581],[-8.44874,41.05346],[-8.44306,41.04943],[-8.43157,41.03759],[-8.42838,41.03659],[-8.42948,41.03278],[-8.433,41.0292],[-8.43122,41.02607],[-8.42667,41.02072],[-8.41901,41.01843],[-8.41567,41.01523],[-8.40829,41.01333],[-8.40321,41.01318],[-8.40108,41.01213],[-8.39677,41.01245],[-8.39356,41.00821],[-8.38885,41.00453],[-8.38922,41.00138],[-8.39041,40.99817],[-8.39529,40.9948],[-8.39739,40.99005],[-8.40147,40.98764],[-8.40378,40.9847],[-8.40784,40.98311],[-8.41363,40.97954],[-8.41486,40.97642],[-8.41797,40.97204],[-8.42191,40.97122],[-8.42683,40.97263],[-8.42836,40.97059],[-8.42658,40.96681],[-8.42887,40.96332],[-8.42958,40.96033],[-8.43268,40.95988],[-8.43156,40.95728],[-8.43354,40.95559],[-8.4332,40.95302],[-8.42774,40.94784],[-8.43255,40.94371],[-8.42918,40.94005],[-8.42908,40.93811],[-8.43183,40.93569],[-8.42845,40.93433],[-8.42206,40.93409],[-8.41828,40.92978],[-8.41358,40.9276],[-8.40871,40.92787],[-8.40601,40.92436],[-8.40336,40.92276],[-8.39982,40.91862],[-8.39869,40.91514],[-8.39619,40.91272],[-8.39374,40.90532],[-8.38752,40.90587],[-8.38539,40.90363],[-8.3876,40.89948],[-8.39666,40.89494],[-8.39943,40.89301],[-8.40213,40.88778],[-8.40178,40.88451],[-8.39473,40.87987],[-8.39731,40.87711],[-8.39938,40.87296],[-8.4038,40.87077],[-8.41259,40.87403],[-8.41486,40.87329],[-8.41444,40.8691],[-8.42038,40.86752],[-8.42449,40.86726],[-8.42457,40.86361],[-8.43987,40.85085],[-8.44897,40.84899],[-8.44886,40.84516],[-8.45004,40.84417],[-8.44957,40.83717],[-8.4513,40.83435],[-8.44988,40.82743],[-8.44872,40.82662],[-8.44776,40.81547],[-8.44996,40.8125],[-8.44641,40.8123],[-8.4443,40.81034],[-8.44239,40.80301],[-8.43914,40.80034],[-8.43618,40.79981],[-8.43425,40.80168],[-8.43073,40.8028],[-8.43475,40.80056],[-8.43341,40.79872],[-8.42719,40.79479],[-8.42232,40.78991],[-8.41721,40.78873],[-8.41265,40.78905],[-8.40716,40.78801],[-8.39881,40.78805],[-8.3943,40.79432],[-8.39093,40.79698],[-8.38607,40.79589],[-8.38371,40.79863],[-8.36901,40.79992],[-8.36738,40.79945],[-8.36336,40.7934],[-8.35766,40.78792],[-8.34542,40.78049],[-8.33863,40.77676],[-8.32924,40.77863],[-8.32422,40.78564],[-8.31851,40.78658],[-8.31322,40.78573],[-8.31022,40.78059],[-8.30444,40.7771],[-8.30256,40.7771],[-8.29605,40.78304],[-8.28523,40.78476],[-8.28536,40.78088],[-8.28132,40.77845],[-8.28166,40.77543],[-8.27706,40.76839],[-8.27356,40.76817],[-8.27337,40.76317],[-8.26914,40.76728],[-8.26781,40.77321],[-8.26599,40.77438],[-8.26505,40.7774],[-8.2675,40.7811],[-8.2627,40.7837],[-8.2586,40.78802],[-8.25657,40.78842],[-8.25499,40.79137],[-8.25664,40.79386],[-8.25713,40.79838],[-8.25578,40.80024],[-8.24996,40.80341],[-8.24731,40.80417],[-8.24342,40.80726],[-8.24429,40.81145],[-8.24085,40.81569],[-8.23735,40.82321],[-8.23676,40.82749],[-8.24056,40.83269],[-8.24415,40.83985],[-8.24815,40.84469],[-8.24948,40.84951],[-8.25313,40.85293],[-8.25509,40.85584],[-8.24596,40.85909],[-8.23152,40.86469],[-8.22188,40.85758],[-8.21459,40.85478],[-8.20533,40.84808],[-8.19051,40.84612],[-8.17795,40.85759],[-8.17645,40.85953],[-8.17096,40.86305],[-8.16948,40.86515],[-8.16594,40.86588],[-8.1592,40.86229],[-8.15513,40.859],[-8.14924,40.85516],[-8.14276,40.8543],[-8.13971,40.85191],[-8.13538,40.84977],[-8.13117,40.84883],[-8.12488,40.84945],[-8.11705,40.85236],[-8.1133,40.85267],[-8.10994,40.85467],[-8.10642,40.85517],[-8.10304,40.86687],[-8.10763,40.8722],[-8.11014,40.87361],[-8.11199,40.87843],[-8.11113,40.88201],[-8.11589,40.88667],[-8.11559,40.89033],[-8.11975,40.89195],[-8.1203,40.89317],[-8.12459,40.89437],[-8.12796,40.89815],[-8.1269,40.90235],[-8.12482,40.90358],[-8.12369,40.90847],[-8.12453,40.91103],[-8.12273,40.91636],[-8.12042,40.91794],[-8.1229,40.92491],[-8.12717,40.92843],[-8.12701,40.93241],[-8.12995,40.93453],[-8.13061,40.94036],[-8.13204,40.942],[-8.1326,40.948],[-8.13152,40.95061],[-8.12223,40.95467],[-8.11731,40.96301],[-8.11528,40.96558],[-8.10972,40.97046],[-8.10705,40.97119],[-8.1042,40.97376],[-8.10046,40.97518],[-8.10142,40.97831],[-8.10023,40.98002],[-8.09232,40.98578],[-8.08917,40.98756],[-8.08743,40.98578],[-8.08331,40.98588],[-8.07736,40.98348],[-8.06907,40.98354],[-8.0612,40.98172],[-8.05105,40.98653],[-8.04805,40.98446],[-8.04043,40.98472],[-8.04023,40.98228],[-8.03464,40.97612],[-8.02806,40.97098],[-8.02352,40.96681],[-8.01964,40.96474],[-8.01097,40.96641],[-8.00425,40.96708],[-8.00249,40.96809],[-7.99761,40.96724],[-7.99414,40.96975],[-7.99072,40.97091],[-7.99079,40.97316],[-7.98634,40.97465],[-7.98289,40.97452],[-7.98089,40.97588],[-7.97824,40.97465],[-7.97422,40.97615],[-7.97046,40.97237],[-7.96693,40.97347],[-7.96733,40.97669],[-7.96529,40.97723],[-7.9637,40.97983],[-7.95639,40.98462],[-7.95011,40.99201],[-7.94999,40.99477],[-7.95119,40.9993],[-7.94703,41.00366],[-7.94692,41.00636],[-7.94406,41.01242],[-7.93979,41.01574],[-7.93553,41.01726],[-7.92833,41.0158],[-7.92442,41.01627],[-7.92146,41.01975],[-7.91568,41.01997],[-7.91462,41.02317],[-7.91106,41.02818],[-7.91143,41.03104],[-7.90937,41.03813],[-7.9082,41.04023],[-7.90432,41.0476],[-7.89745,41.05297],[-7.89356,41.05702],[-7.89009,41.05734],[-7.88359,41.06545],[-7.87977,41.07183],[-7.87853,41.07289],[-7.87894,41.07716],[-7.87053,41.08797],[-7.86847,41.094],[-7.86945,41.09717],[-7.86702,41.09963],[-7.86326,41.1004],[-7.86031,41.10273],[-7.8694,41.1091],[-7.87623,41.11594],[-7.88602,41.11936],[-7.8891,41.12102],[-7.89166,41.12022],[-7.89434,41.12173],[-7.89751,41.11997],[-7.9076,41.11905],[-7.91186,41.11989],[-7.91229,41.12488],[-7.91146,41.12702],[-7.91264,41.12915],[-7.91244,41.13299],[-7.9136,41.13496],[-7.91239,41.13854],[-7.90874,41.14272],[-7.90119,41.14727],[-7.90217,41.14908],[-7.9006,41.15238],[-7.9037,41.15474],[-7.89672,41.15818],[-7.89284,41.15952],[-7.88956,41.16294],[-7.89712,41.16706],[-7.89584,41.16798],[-7.89684,41.17104],[-7.89894,41.17286],[-7.89268,41.18079],[-7.89035,41.18276],[-7.89028,41.18633],[-7.88797,41.18909],[-7.88995,41.19582],[-7.89034,41.20244],[-7.8933,41.20603],[-7.89409,41.20924],[-7.89208,41.21066],[-7.89177,41.2137],[-7.88828,41.2178],[-7.88638,41.223],[-7.88178,41.23064],[-7.87908,41.23217],[-7.87937,41.23713],[-7.87785,41.24091],[-7.87558,41.24205],[-7.87979,41.24556],[-7.88697,41.24847],[-7.89573,41.24893],[-7.89494,41.24993],[-7.89582,41.25548],[-7.89423,41.26071],[-7.89693,41.26445],[-7.89639,41.26754],[-7.90265,41.27138],[-7.90888,41.27269],[-7.91621,41.27262],[-7.9151,41.27429],[-7.91413,41.28052],[-7.91859,41.28403],[-7.91942,41.28736],[-7.92137,41.29032],[-7.91788,41.29216],[-7.91539,41.29763],[-7.90764,41.30267],[-7.89901,41.30746],[-7.89744,41.30965],[-7.8984,41.31203],[-7.89582,41.31573],[-7.89201,41.31725],[-7.88642,41.31818],[-7.87778,41.32164],[-7.87008,41.32553],[-7.8655,41.32583],[-7.8614,41.32767],[-7.85296,41.32774],[-7.83987,41.33973],[-7.83428,41.3435],[-7.83094,41.34719],[-7.8196,41.36446],[-7.81929,41.36699],[-7.82164,41.37865],[-7.81645,41.38897],[-7.81594,41.39184],[-7.80797,41.39348],[-7.80577,41.39329],[-7.8007,41.39782],[-7.79488,41.39989],[-7.78869,41.41141],[-7.78167,41.41259],[-7.77323,41.41056],[-7.76785,41.40587],[-7.76704,41.40363],[-7.75818,41.40449],[-7.75446,41.40576],[-7.74728,41.40536],[-7.74498,41.40684],[-7.74273,41.4108],[-7.73763,41.41528],[-7.73484,41.42199],[-7.73464,41.42566],[-7.73299,41.43107],[-7.73234,41.43593],[-7.72922,41.43872],[-7.72652,41.44391],[-7.72845,41.4461],[-7.7337,41.45623],[-7.74283,41.45787],[-7.75172,41.46216],[-7.75498,41.46632],[-7.76614,41.46945],[-7.77069,41.47204],[-7.77709,41.47657],[-7.77925,41.48128],[-7.78256,41.48578],[-7.78278,41.48966],[-7.77997,41.49216],[-7.77432,41.49496],[-7.77216,41.49707],[-7.76704,41.49827],[-7.75974,41.49676],[-7.75667,41.49768],[-7.74983,41.51274],[-7.74745,41.51527],[-7.74174,41.519],[-7.72739,41.51305],[-7.72681,41.5113],[-7.71773,41.50657],[-7.71339,41.51486],[-7.70599,41.51879],[-7.70833,41.52191],[-7.71619,41.52554],[-7.72237,41.53244],[-7.73148,41.53427],[-7.73454,41.53579],[-7.73852,41.54123],[-7.742,41.54275],[-7.74672,41.54358],[-7.75027,41.54572],[-7.75305,41.54848],[-7.75162,41.55538],[-7.754,41.55918],[-7.74883,41.5607],[-7.7508,41.56412],[-7.74856,41.56553],[-7.7434,41.56402],[-7.73518,41.56482],[-7.73238,41.56897],[-7.73382,41.57125],[-7.72923,41.57583],[-7.72282,41.57886],[-7.72818,41.57985],[-7.7286,41.58293],[-7.73091,41.58724],[-7.73204,41.59114],[-7.7323,41.59751],[-7.7338,41.59948],[-7.72662,41.60161],[-7.72375,41.60415],[-7.71874,41.60691],[-7.71773,41.60861],[-7.71738,41.61921],[-7.71562,41.62114],[-7.70456,41.6261],[-7.70407,41.63165],[-7.7091,41.63484],[-7.71302,41.64044],[-7.71515,41.63941],[-7.71933,41.63937],[-7.72547,41.6461],[-7.7275,41.64598],[-7.72838,41.64928],[-7.73223,41.65239],[-7.73835,41.64953],[-7.7431,41.65052],[-7.75216,41.64711],[-7.75451,41.64511],[-7.75671,41.64082],[-7.75868,41.6323],[-7.75987,41.62342],[-7.76071,41.6206],[-7.76651,41.61396],[-7.76932,41.60904],[-7.77344,41.60382],[-7.77517,41.60036],[-7.78327,41.59418],[-7.78802,41.58692],[-7.79779,41.58887],[-7.80209,41.58865],[-7.80416,41.58463],[-7.80638,41.58552],[-7.81215,41.5785],[-7.81611,41.58121],[-7.82003,41.58053],[-7.81509,41.5854],[-7.81626,41.58681],[-7.81999,41.58778],[-7.82325,41.5943],[-7.82738,41.59856],[-7.82952,41.60222],[-7.8361,41.60675],[-7.83677,41.60886],[-7.8394,41.61087],[-7.84647,41.61386],[-7.85091,41.61507],[-7.85196,41.61187],[-7.85734,41.60142],[-7.86319,41.5995],[-7.86594,41.59547],[-7.87292,41.59205],[-7.87841,41.58859],[-7.88372,41.58807],[-7.89081,41.59325],[-7.89443,41.59185],[-7.89603,41.58966],[-7.90034,41.58734],[-7.90561,41.58697],[-7.91226,41.58796],[-7.92504,41.59186],[-7.92956,41.59468],[-7.93212,41.59527],[-7.94111,41.59456],[-7.94671,41.59608],[-7.95274,41.59313],[-7.95504,41.59476],[-7.96247,41.60213],[-7.96649,41.60392],[-7.9776,41.60297],[-7.98184,41.6008],[-7.98699,41.60079],[-7.98954,41.6019],[-7.99661,41.60308],[-7.99961,41.6081],[-8.00088,41.6162],[-8.00302,41.62088],[-8.00178,41.62908],[-8.00124,41.6409],[-7.99766,41.64242],[-7.9964,41.6472],[-7.99439,41.64792],[-7.99451,41.65093],[-7.99894,41.65335],[-7.99474,41.66364],[-7.98877,41.66649],[-7.98531,41.67039],[-7.98154,41.67806],[-7.98468,41.68182],[-7.9868,41.68115],[-7.98954,41.6826],[-7.99408,41.68652],[-7.99729,41.68783],[-7.99937,41.6866],[-8.00184,41.68821],[-8.00443,41.68704],[-8.00591,41.68908],[-8.00962,41.69057],[-8.01205,41.68945],[-8.01775,41.68907],[-8.0207,41.69415],[-8.0225,41.69479],[-8.02465,41.69798],[-8.02905,41.69769],[-8.0373,41.70075],[-8.03891,41.70059],[-8.04267,41.69664],[-8.048,41.69279],[-8.05917,41.69296],[-8.06527,41.6918],[-8.0718,41.69386],[-8.07376,41.69549],[-8.08093,41.69521],[-8.08628,41.69241],[-8.09395,41.69161],[-8.09795,41.69017],[-8.10072,41.6909],[-8.10406,41.6891],[-8.10876,41.69097],[-8.11199,41.68809],[-8.11553,41.68971],[-8.11947,41.68924],[-8.11853,41.69227],[-8.11622,41.69508],[-8.10902,41.70194],[-8.09444,41.70717],[-8.09348,41.70986],[-8.08782,41.71329],[-8.08638,41.7158],[-8.08453,41.72238],[-8.08174,41.72509],[-8.08207,41.73271],[-8.07934,41.7394],[-8.07662,41.74069],[-8.07832,41.74237],[-8.07808,41.74635],[-8.0765,41.7498],[-8.07289,41.75099],[-8.07036,41.75347],[-8.07082,41.75561],[-8.06428,41.75809],[-8.06113,41.76259],[-8.06234,41.76764],[-8.06181,41.77065],[-8.06363,41.77374],[-8.0629,41.77598],[-8.06058,41.77733],[-8.0626,41.78015],[-8.06261,41.78304],[-8.06423,41.78613],[-8.06085,41.78725],[-8.06149,41.78967],[-8.05953,41.7915],[-8.05728,41.79811],[-8.04872,41.7997],[-8.0451,41.80392],[-8.04515,41.81041],[-8.04889,41.81401],[-8.05038,41.81878],[-8.05319,41.82023],[-8.05519,41.81679],[-8.05766,41.81572],[-8.06357,41.81636],[-8.0655,41.81744],[-8.06989,41.81586],[-8.07274,41.81346],[-8.07889,41.81361],[-8.07908,41.81252],[-8.08525,41.81081],[-8.08728,41.81248],[-8.09329,41.81113],[-8.09392,41.80804],[-8.10234,41.8104],[-8.10455,41.81179],[-8.11502,41.8117],[-8.11665,41.81266],[-8.12101,41.81138],[-8.1236,41.80884],[-8.1309,41.80886],[-8.14743,41.81474],[-8.15433,41.81798],[-8.16501,41.81811],[-8.16344,41.83165],[-8.16177,41.86098],[-8.16638,41.86236],[-8.16617,41.86444],[-8.16851,41.87082],[-8.1693,41.87653],[-8.17172,41.87909],[-8.17792,41.87662],[-8.18137,41.87652],[-8.18288,41.87501],[-8.1934,41.87644],[-8.19952,41.8738],[-8.20082,41.87484],[-8.20047,41.87885],[-8.19796,41.87952],[-8.20052,41.88276],[-8.20129,41.88811],[-8.20437,41.89094],[-8.20487,41.89285],[-8.21543,41.89879],[-8.21428,41.90119],[-8.21694,41.90638],[-8.21585,41.90802],[-8.2169,41.91315],[-8.21254,41.9179],[-8.21022,41.9236],[-8.205,41.92613],[-8.20237,41.92986],[-8.20278,41.93195],[-8.19778,41.93754],[-8.19789,41.93953],[-8.19222,41.94312],[-8.18909,41.94754],[-8.18669,41.94815],[-8.1805,41.95235],[-8.17977,41.95388],[-8.17486,41.95514],[-8.17637,41.95863],[-8.17365,41.96242],[-8.16951,41.96304],[-8.16925,41.9662],[-8.16688,41.96805],[-8.16283,41.97595],[-8.16354,41.97873],[-8.16302,41.98269],[-8.15784,41.98422],[-8.14339,41.9875],[-8.14076,41.98868],[-8.13035,42.00357],[-8.12472,42.00662],[-8.11503,42.00486],[-8.11035,42.0073],[-8.09968,42.00934],[-8.09314,42.01176],[-8.08603,42.01649],[-8.08277,42.02825],[-8.0835,42.03308],[-8.08446,42.04733],[-8.0872,42.05354],[-8.08818,42.05759],[-8.0932,42.06463],[-8.0966,42.07226],[-8.10589,42.07592],[-8.1187,42.08231],[-8.12147,42.08278],[-8.12349,42.08116],[-8.13797,42.07579],[-8.14965,42.07932],[-8.15963,42.07577],[-8.16474,42.07234],[-8.17038,42.06731],[-8.17525,42.06544],[-8.18205,42.06502],[-8.18615,42.07259],[-8.18809,42.07386],[-8.18544,42.07623],[-8.18652,42.08141],[-8.18492,42.08333],[-8.18674,42.08729],[-8.18627,42.08996],[-8.18792,42.09239],[-8.18589,42.09822],[-8.1886,42.10777],[-8.18878,42.11121],[-8.19208,42.11566],[-8.19115,42.11825],[-8.19246,42.12012],[-8.19351,42.12913],[-8.18879,42.13352],[-8.18961,42.13519],[-8.18759,42.13709],[-8.19032,42.13882],[-8.19081,42.14263],[-8.19322,42.14669],[-8.19539,42.1482],[-8.19638,42.15272],[-8.19875,42.15431],[-8.20145,42.15232],[-8.20034,42.14883],[-8.20661,42.14102],[-8.20953,42.13989],[-8.21789,42.13864],[-8.22192,42.13407],[-8.22572,42.13287],[-8.23001,42.13279],[-8.23341,42.13379],[-8.24013,42.13909],[-8.24552,42.13977],[-8.25364,42.13668],[-8.25676,42.13249],[-8.25559,42.12725],[-8.25829,42.12192],[-8.26306,42.12088],[-8.26797,42.12328],[-8.27366,42.12407],[-8.28068,42.11933],[-8.28913,42.11447],[-8.29072,42.11187],[-8.29455,42.11127],[-8.29553,42.10861],[-8.3039,42.10388],[-8.3138,42.10302],[-8.31651,42.10468],[-8.31968,42.10203],[-8.32369,42.10028],[-8.32487,42.09663],[-8.3242,42.09194],[-8.32526,42.08952],[-8.33189,42.08383],[-8.33944,42.08415]]]]}},{"type":"Feature","properties":{"name":"bairrada","units":35,"statute_names":32,"whole_concelhos":3,"legal":"Portaria 212/2014 art. 3: Anadia, Mealhada and Oliveira do Bairro whole, plus named freguesias of Agueda, Aveiro, Cantanhede, Coimbra and Vagos.","partial":{"Agueda / Travasso e Ois da Ribeira":"statute names only Ois da Ribeira; CAOP still carries this as one union, so Travasso is included with it","Aveiro / Requeixo, Nossa Senhora de Fatima e Nariz":"statute names only Nariz; CAOP still carries this as one union","Coimbra / Antuzede e Vil de Matos":"statute names only Vil de Matos; CAOP still carries this as one union","_note":"Agueda's Agueda/Borralha/Barro/Aguada de Baixo/Belazaima do Chao and Vagos' Covao do Lobo and Santa Catarina were 2013 unions that CAOP 2025 shows de-merged, so those are now included exactly as the statute names them rather than as whole unions."}},"geometry":{"type":"MultiPolygon","coordinates":[[[[-8.31149,40.49591],[-8.30485,40.49782],[-8.30296,40.49885],[-8.30754,40.50475],[-8.30791,40.50645],[-8.31019,40.50834],[-8.31525,40.51385],[-8.31606,40.51535],[-8.33217,40.53189],[-8.33349,40.53544],[-8.33557,40.53768],[-8.33479,40.53955],[-8.33689,40.54186],[-8.34005,40.54819],[-8.34015,40.5538],[-8.34087,40.55466],[-8.3491,40.55377],[-8.35179,40.5507],[-8.35414,40.55067],[-8.351,40.54278],[-8.35414,40.54142],[-8.36193,40.54086],[-8.37003,40.54116],[-8.38047,40.54497],[-8.38163,40.54807],[-8.38075,40.55049],[-8.38295,40.55172],[-8.38054,40.55448],[-8.37791,40.55487],[-8.3726,40.56194],[-8.37478,40.5641],[-8.38189,40.56892],[-8.38478,40.57153],[-8.3829,40.57349],[-8.38131,40.57757],[-8.38284,40.57855],[-8.38784,40.57827],[-8.38647,40.58036],[-8.38839,40.58384],[-8.38687,40.58806],[-8.38326,40.59037],[-8.38469,40.5925],[-8.38103,40.59605],[-8.38069,40.59791],[-8.37353,40.59924],[-8.3768,40.60072],[-8.37513,40.60318],[-8.37709,40.60564],[-8.3776,40.60861],[-8.37518,40.60926],[-8.38097,40.61389],[-8.38487,40.61568],[-8.3893,40.62309],[-8.39463,40.62801],[-8.40518,40.63239],[-8.401,40.63288],[-8.3988,40.63434],[-8.39364,40.63383],[-8.38909,40.63164],[-8.37873,40.62805],[-8.37552,40.63058],[-8.37148,40.63263],[-8.36978,40.63556],[-8.36286,40.63945],[-8.35889,40.64358],[-8.35597,40.64373],[-8.35253,40.64717],[-8.35997,40.6505],[-8.36304,40.65345],[-8.36404,40.65547],[-8.364,40.65939],[-8.36806,40.66193],[-8.37219,40.66668],[-8.3741,40.66809],[-8.37957,40.66491],[-8.38224,40.66597],[-8.38426,40.66438],[-8.38732,40.66516],[-8.3904,40.66495],[-8.39552,40.6692],[-8.4004,40.665],[-8.4038,40.66643],[-8.40475,40.66463],[-8.40734,40.66473],[-8.41032,40.66275],[-8.41545,40.66314],[-8.42561,40.65799],[-8.42509,40.65195],[-8.42784,40.64859],[-8.43365,40.64445],[-8.43831,40.64463],[-8.44042,40.64081],[-8.44142,40.63743],[-8.4495,40.63827],[-8.45102,40.63649],[-8.45658,40.63524],[-8.45994,40.63515],[-8.45906,40.63153],[-8.46173,40.62818],[-8.46006,40.62527],[-8.46041,40.6207],[-8.45632,40.61732],[-8.45379,40.61241],[-8.45298,40.60966],[-8.44956,40.6086],[-8.44759,40.60495],[-8.44988,40.60112],[-8.44617,40.59953],[-8.45045,40.59568],[-8.45223,40.59592],[-8.45914,40.59417],[-8.46252,40.59424],[-8.47089,40.59581],[-8.4744,40.59821],[-8.4788,40.59751],[-8.48193,40.59861],[-8.48609,40.59705],[-8.48995,40.59708],[-8.49148,40.59626],[-8.49565,40.5977],[-8.49944,40.60162],[-8.50355,40.60436],[-8.50467,40.60179],[-8.50862,40.60308],[-8.51294,40.60323],[-8.5152,40.60601],[-8.5205,40.60947],[-8.52343,40.60936],[-8.5222,40.60561],[-8.52284,40.60362],[-8.52527,40.60275],[-8.52567,40.60066],[-8.53383,40.60013],[-8.53903,40.59851],[-8.54389,40.59822],[-8.54459,40.59894],[-8.54922,40.59859],[-8.55203,40.60146],[-8.55689,40.59989],[-8.56291,40.59695],[-8.56685,40.59694],[-8.57158,40.59819],[-8.57856,40.59558],[-8.58604,40.59455],[-8.58701,40.59165],[-8.59173,40.58629],[-8.59633,40.58317],[-8.60149,40.58365],[-8.61106,40.5725],[-8.61506,40.5742],[-8.61875,40.57371],[-8.624,40.57389],[-8.62482,40.57173],[-8.62976,40.57209],[-8.63381,40.57131],[-8.6379,40.56627],[-8.64855,40.56581],[-8.65006,40.56745],[-8.65603,40.56696],[-8.65693,40.56569],[-8.66409,40.56674],[-8.66678,40.56837],[-8.6702,40.56742],[-8.67686,40.56244],[-8.67565,40.5577],[-8.6744,40.55595],[-8.67077,40.55478],[-8.67076,40.55145],[-8.67379,40.54901],[-8.67484,40.54536],[-8.67438,40.5392],[-8.67149,40.53778],[-8.66793,40.53712],[-8.66697,40.5331],[-8.66954,40.53118],[-8.669,40.52935],[-8.66529,40.52764],[-8.66365,40.52499],[-8.66568,40.5242],[-8.66528,40.5207],[-8.66266,40.51984],[-8.66122,40.51778],[-8.66554,40.51643],[-8.66524,40.51377],[-8.66371,40.51247],[-8.66013,40.51145],[-8.66176,40.50677],[-8.65953,40.50422],[-8.65599,40.50264],[-8.65131,40.50145],[-8.65171,40.49842],[-8.65455,40.49565],[-8.65542,40.49112],[-8.65432,40.48805],[-8.65563,40.48158],[-8.65793,40.47871],[-8.65633,40.4759],[-8.6547,40.47127],[-8.66337,40.46836],[-8.66014,40.46058],[-8.65429,40.46299],[-8.65197,40.46125],[-8.65054,40.45708],[-8.65042,40.45238],[-8.65281,40.45109],[-8.65519,40.44689],[-8.65815,40.44417],[-8.66089,40.42795],[-8.66274,40.4285],[-8.67777,40.43491],[-8.68334,40.43633],[-8.68512,40.432],[-8.68226,40.42744],[-8.68197,40.42419],[-8.68372,40.42374],[-8.68696,40.42482],[-8.69101,40.42449],[-8.69265,40.42313],[-8.69243,40.42032],[-8.69114,40.41864],[-8.6899,40.41442],[-8.68818,40.41334],[-8.68724,40.40792],[-8.68747,40.40687],[-8.69124,40.40294],[-8.69646,40.40023],[-8.69937,40.39471],[-8.69862,40.39231],[-8.70184,40.38855],[-8.70172,40.38178],[-8.70338,40.37942],[-8.70365,40.37559],[-8.70561,40.37251],[-8.70823,40.37161],[-8.71346,40.371],[-8.72118,40.37215],[-8.72566,40.37212],[-8.72515,40.3703],[-8.71998,40.36706],[-8.71983,40.36481],[-8.72316,40.36044],[-8.7239,40.35797],[-8.72207,40.35456],[-8.72517,40.35144],[-8.72445,40.35003],[-8.72594,40.34698],[-8.72481,40.34224],[-8.72527,40.33836],[-8.72427,40.33697],[-8.72777,40.3355],[-8.72751,40.33308],[-8.73341,40.32909],[-8.7339,40.32564],[-8.74271,40.32014],[-8.74216,40.31807],[-8.74392,40.31677],[-8.74575,40.31125],[-8.7295,40.30823],[-8.72755,40.30666],[-8.72191,40.30527],[-8.71306,40.30535],[-8.6978,40.30444],[-8.69252,40.30389],[-8.68732,40.30175],[-8.68375,40.30177],[-8.67816,40.29997],[-8.6656,40.29925],[-8.6544,40.29952],[-8.65086,40.29803],[-8.65036,40.29991],[-8.64423,40.30184],[-8.63803,40.30129],[-8.63622,40.30034],[-8.63377,40.30356],[-8.62876,40.29643],[-8.63157,40.29295],[-8.62374,40.2879],[-8.61437,40.28224],[-8.61324,40.28055],[-8.61606,40.27757],[-8.61826,40.27684],[-8.61481,40.27416],[-8.60784,40.27274],[-8.60017,40.27562],[-8.59752,40.2776],[-8.59656,40.27992],[-8.59391,40.2817],[-8.58796,40.28265],[-8.58307,40.28608],[-8.57373,40.28923],[-8.57245,40.29116],[-8.56973,40.29217],[-8.56607,40.29224],[-8.5616,40.29012],[-8.5653,40.28699],[-8.56317,40.28078],[-8.56187,40.27495],[-8.56293,40.27374],[-8.56053,40.27169],[-8.56032,40.26698],[-8.55284,40.25773],[-8.55346,40.25343],[-8.5513,40.25181],[-8.54652,40.25163],[-8.54502,40.24912],[-8.54126,40.2453],[-8.53096,40.25141],[-8.5207,40.25572],[-8.51673,40.25538],[-8.51272,40.2528],[-8.50466,40.24998],[-8.50119,40.24684],[-8.50084,40.24932],[-8.50158,40.25414],[-8.50048,40.25599],[-8.49825,40.254],[-8.49491,40.24949],[-8.50023,40.24195],[-8.49442,40.23426],[-8.48964,40.23603],[-8.48203,40.23304],[-8.47855,40.23405],[-8.47094,40.23943],[-8.46577,40.23881],[-8.46642,40.24274],[-8.45724,40.24554],[-8.45148,40.24847],[-8.44428,40.24879],[-8.44231,40.24981],[-8.44366,40.25307],[-8.44385,40.25761],[-8.44126,40.25717],[-8.43665,40.26215],[-8.43374,40.26361],[-8.43073,40.26364],[-8.4265,40.26612],[-8.422,40.26506],[-8.41802,40.2651],[-8.41755,40.2715],[-8.41951,40.27233],[-8.41559,40.27425],[-8.40969,40.28165],[-8.4065,40.28222],[-8.40285,40.2803],[-8.3977,40.28062],[-8.39425,40.28228],[-8.3905,40.28249],[-8.38849,40.28373],[-8.38948,40.28564],[-8.38858,40.28828],[-8.38965,40.29058],[-8.38898,40.2931],[-8.38598,40.29691],[-8.38543,40.29928],[-8.38812,40.3094],[-8.3896,40.31249],[-8.38706,40.31308],[-8.38543,40.31521],[-8.38285,40.31587],[-8.38253,40.31757],[-8.3754,40.31658],[-8.3737,40.31959],[-8.37174,40.31931],[-8.36785,40.32613],[-8.36904,40.32884],[-8.37585,40.33637],[-8.37533,40.3413],[-8.37122,40.34318],[-8.36966,40.34477],[-8.35786,40.34741],[-8.35468,40.36186],[-8.35617,40.36713],[-8.35899,40.36892],[-8.35945,40.37158],[-8.3584,40.3756],[-8.35441,40.37798],[-8.35601,40.38077],[-8.35423,40.38523],[-8.35536,40.39087],[-8.35379,40.39187],[-8.35415,40.39561],[-8.35021,40.39694],[-8.35213,40.39994],[-8.35196,40.40325],[-8.35401,40.40539],[-8.35464,40.40889],[-8.34586,40.4105],[-8.34348,40.41252],[-8.33805,40.41881],[-8.34045,40.42189],[-8.34483,40.42304],[-8.34447,40.42486],[-8.34006,40.42913],[-8.33779,40.42979],[-8.33497,40.43413],[-8.3264,40.44005],[-8.32094,40.43942],[-8.31758,40.4412],[-8.31924,40.44468],[-8.31976,40.45067],[-8.31813,40.45427],[-8.31904,40.45745],[-8.32139,40.46001],[-8.32294,40.46338],[-8.32811,40.46728],[-8.32903,40.47051],[-8.33187,40.47158],[-8.33427,40.47455],[-8.33469,40.479],[-8.33579,40.48095],[-8.33382,40.48528],[-8.33554,40.48579],[-8.33126,40.48934],[-8.33027,40.49299],[-8.32584,40.49174],[-8.32355,40.49269],[-8.314,40.49491],[-8.31149,40.49591]]]]}},{"type":"Feature","properties":{"name":"palmela","units":4,"statute_names":1,"whole_concelhos":3,"legal":"Portaria 783/2009 art. 2: the municipalities of Montijo, Palmela and Setubal, and the freguesia of Castelo in Sesimbra.","partial":{}},"geometry":{"type":"MultiPolygon","coordinates":[[[[-8.95333,38.65217],[-8.95153,38.64856],[-8.94835,38.64466],[-8.94779,38.64075],[-8.94619,38.63784],[-8.94845,38.63351],[-8.94772,38.63268],[-8.94881,38.63075],[-8.95294,38.62615],[-8.95052,38.62561],[-8.95148,38.62359],[-8.95158,38.62051],[-8.9541,38.6183],[-8.95947,38.62454],[-8.9657,38.63027],[-8.96777,38.63188],[-8.9795,38.63605],[-8.98188,38.6348],[-8.98199,38.63188],[-8.9841,38.62552],[-8.97761,38.60827],[-8.98977,38.60725],[-8.99286,38.60623],[-8.99468,38.60624],[-8.999,38.60467],[-9.00544,38.60374],[-9.00649,38.60288],[-9.01245,38.60121],[-9.01248,38.59791],[-9.01204,38.59583],[-8.9978,38.59516],[-8.99714,38.59307],[-8.99869,38.59266],[-9.00761,38.59313],[-9.01312,38.59255],[-9.01773,38.58827],[-9.01901,38.58592],[-9.01679,38.5853],[-9.01873,38.58132],[-9.02283,38.58179],[-9.02326,38.57959],[-9.02585,38.57828],[-9.02926,38.57813],[-9.03173,38.5801],[-9.03418,38.58072],[-9.03717,38.57963],[-9.03535,38.57685],[-9.0346,38.57213],[-9.0326,38.56786],[-9.03162,38.56496],[-9.03263,38.55972],[-9.03365,38.55817],[-9.03424,38.55459],[-9.0356,38.55186],[-9.03795,38.55079],[-9.04092,38.54709],[-9.04158,38.54502],[-9.0434,38.54251],[-9.04488,38.54144],[-9.04499,38.53867],[-9.04787,38.53886],[-9.05105,38.53748],[-9.05324,38.53483],[-9.05983,38.53342],[-9.06259,38.53369],[-9.0659,38.53329],[-9.07088,38.53414],[-9.07456,38.53315],[-9.07718,38.53404],[-9.07962,38.53564],[-9.08278,38.53565],[-9.08313,38.53486],[-9.08834,38.53489],[-9.09053,38.53455],[-9.09369,38.53313],[-9.0961,38.53537],[-9.1006,38.53543],[-9.09871,38.54457],[-9.10077,38.55137],[-9.10646,38.55525],[-9.11202,38.56122],[-9.1144,38.56422],[-9.11834,38.56453],[-9.1205,38.56749],[-9.1238,38.57546],[-9.12988,38.575],[-9.13579,38.57488],[-9.14073,38.57574],[-9.14573,38.57576],[-9.1547,38.57434],[-9.16284,38.57222],[-9.18268,38.56379],[-9.18335,38.56032],[-9.18661,38.55852],[-9.18399,38.55105],[-9.18782,38.55032],[-9.18559,38.54148],[-9.18462,38.536],[-9.18355,38.53169],[-9.18285,38.52742],[-9.18254,38.52152],[-9.18337,38.50472],[-9.18387,38.49194],[-9.18441,38.48845],[-9.18657,38.48099],[-9.18891,38.47363],[-9.19016,38.47059],[-9.19177,38.46824],[-9.19358,38.46414],[-9.19395,38.46208],[-9.19901,38.45661],[-9.19907,38.45355],[-9.20182,38.45238],[-9.20216,38.45],[-9.2058,38.44893],[-9.20751,38.44508],[-9.20753,38.44364],[-9.21063,38.44066],[-9.2097,38.43935],[-9.20981,38.43718],[-9.21267,38.43391],[-9.215,38.43024],[-9.21739,38.42843],[-9.21716,38.42509],[-9.21476,38.42382],[-9.21615,38.42241],[-9.21848,38.42185],[-9.21745,38.41897],[-9.21963,38.41792],[-9.21986,38.41483],[-9.22264,38.41439],[-9.22099,38.41277],[-9.21577,38.41271],[-9.20787,38.41147],[-9.20176,38.40967],[-9.19822,38.40915],[-9.19604,38.40952],[-9.19374,38.41152],[-9.19078,38.41219],[-9.18921,38.4134],[-9.18777,38.41685],[-9.18801,38.41767],[-9.18594,38.41901],[-9.18108,38.42075],[-9.1777,38.42347],[-9.17531,38.42621],[-9.17407,38.42689],[-9.17197,38.42653],[-9.1689,38.42966],[-9.16613,38.42963],[-9.16021,38.43091],[-9.15755,38.4309],[-9.1491,38.43006],[-9.1455,38.43087],[-9.13781,38.42888],[-9.13276,38.43069],[-9.13122,38.43084],[-9.13075,38.43271],[-9.1236,38.43338],[-9.11796,38.43337],[-9.11355,38.43455],[-9.11061,38.43661],[-9.11218,38.43822],[-9.1125,38.44013],[-9.11038,38.43974],[-9.1097,38.44242],[-9.10975,38.44568],[-9.11114,38.44673],[-9.10711,38.44806],[-9.10685,38.44934],[-9.10521,38.4506],[-9.10032,38.45053],[-9.09732,38.45143],[-9.0974,38.45318],[-9.09386,38.45352],[-9.09204,38.45173],[-9.09203,38.45023],[-9.08918,38.44554],[-9.08679,38.4443],[-9.08578,38.44099],[-9.08379,38.44112],[-9.085,38.43743],[-9.08239,38.4364],[-9.07464,38.43617],[-9.07094,38.43516],[-9.0659,38.43547],[-9.06395,38.43512],[-9.06395,38.43728],[-9.06143,38.44066],[-9.05748,38.44114],[-9.05339,38.44022],[-9.04848,38.44234],[-9.04714,38.4435],[-9.04462,38.44387],[-9.04189,38.44708],[-9.03933,38.44717],[-9.03819,38.44792],[-9.03502,38.44821],[-9.02881,38.44656],[-9.02552,38.44837],[-9.02536,38.44939],[-9.02324,38.4501],[-9.02198,38.4513],[-9.0192,38.45244],[-9.01765,38.45408],[-9.01097,38.45608],[-9.00678,38.4559],[-9.00229,38.45875],[-8.9986,38.45986],[-8.9906,38.4651],[-8.98993,38.46772],[-8.98826,38.46804],[-8.9843,38.47295],[-8.98259,38.47387],[-8.98423,38.47623],[-8.98172,38.47868],[-8.9794,38.47964],[-8.97622,38.48026],[-8.97282,38.48011],[-8.96944,38.48054],[-8.96907,38.4831],[-8.96672,38.48412],[-8.96089,38.48484],[-8.95623,38.48467],[-8.95371,38.48494],[-8.94264,38.48408],[-8.9408,38.48578],[-8.93408,38.48834],[-8.93365,38.49136],[-8.9307,38.49485],[-8.92869,38.49974],[-8.92761,38.50382],[-8.92666,38.50397],[-8.92573,38.50677],[-8.92472,38.50674],[-8.9227,38.50905],[-8.91824,38.51084],[-8.91287,38.5025],[-8.90971,38.5046],[-8.90424,38.50534],[-8.89419,38.50475],[-8.88713,38.50188],[-8.8783,38.49647],[-8.87453,38.49447],[-8.87151,38.49172],[-8.86277,38.48463],[-8.85965,38.48254],[-8.85544,38.4802],[-8.84521,38.47613],[-8.83951,38.47347],[-8.81789,38.46424],[-8.80848,38.46204],[-8.80094,38.46217],[-8.79933,38.46196],[-8.78545,38.46211],[-8.7662,38.46471],[-8.75369,38.47056],[-8.74662,38.47902],[-8.73139,38.49766],[-8.73173,38.50091],[-8.74133,38.5122],[-8.73421,38.51614],[-8.72893,38.51661],[-8.72644,38.5154],[-8.72038,38.51496],[-8.71735,38.5132],[-8.71561,38.51361],[-8.71349,38.51532],[-8.7125,38.5169],[-8.71087,38.51732],[-8.7089,38.51653],[-8.70745,38.51711],[-8.70859,38.51855],[-8.70762,38.52067],[-8.70562,38.51887],[-8.70246,38.52195],[-8.69846,38.52392],[-8.69716,38.52632],[-8.69302,38.52888],[-8.69174,38.53046],[-8.69051,38.53056],[-8.68826,38.53289],[-8.68828,38.53385],[-8.68359,38.53729],[-8.68162,38.54249],[-8.6766,38.54366],[-8.67448,38.54464],[-8.67174,38.54472],[-8.66641,38.54637],[-8.66307,38.54635],[-8.65867,38.5473],[-8.65661,38.54825],[-8.65543,38.54766],[-8.65144,38.54848],[-8.64885,38.5486],[-8.64493,38.54809],[-8.63911,38.54949],[-8.64092,38.56102],[-8.64092,38.56747],[-8.64822,38.57732],[-8.6511,38.58952],[-8.65086,38.59103],[-8.65157,38.59351],[-8.65334,38.5947],[-8.6536,38.59768],[-8.65803,38.60182],[-8.65837,38.60381],[-8.65682,38.60587],[-8.65653,38.60781],[-8.65292,38.61082],[-8.65347,38.61227],[-8.64779,38.61304],[-8.64333,38.61616],[-8.63671,38.62037],[-8.63476,38.62312],[-8.6347,38.62436],[-8.63217,38.62809],[-8.62847,38.63051],[-8.62412,38.63206],[-8.62047,38.63439],[-8.61949,38.63685],[-8.61678,38.63984],[-8.6153,38.64067],[-8.61395,38.64321],[-8.61239,38.64469],[-8.60152,38.64589],[-8.59066,38.65405],[-8.58373,38.66262],[-8.5774,38.66762],[-8.579,38.6716],[-8.57578,38.67323],[-8.57181,38.67577],[-8.56621,38.67818],[-8.56408,38.67745],[-8.55831,38.67775],[-8.55233,38.6822],[-8.54713,38.68443],[-8.54453,38.6846],[-8.54071,38.68568],[-8.54015,38.68876],[-8.53121,38.69186],[-8.51993,38.70901],[-8.50307,38.7147],[-8.5011,38.71565],[-8.50254,38.71813],[-8.50089,38.72221],[-8.50473,38.72546],[-8.50669,38.72786],[-8.50914,38.72771],[-8.51138,38.73257],[-8.51051,38.73724],[-8.50744,38.74214],[-8.50559,38.74586],[-8.50023,38.7499],[-8.49173,38.7546],[-8.492,38.75806],[-8.49097,38.76131],[-8.49756,38.76281],[-8.51451,38.76489],[-8.5179,38.76342],[-8.52456,38.76178],[-8.54395,38.76331],[-8.5468,38.76344],[-8.54815,38.76275],[-8.55744,38.76929],[-8.56658,38.76994],[-8.57242,38.77197],[-8.57793,38.77189],[-8.5845,38.7667],[-8.59198,38.77054],[-8.59651,38.77161],[-8.5973,38.77468],[-8.60101,38.77655],[-8.6046,38.77651],[-8.60722,38.77736],[-8.60795,38.77921],[-8.60988,38.78161],[-8.61231,38.78182],[-8.6125,38.78596],[-8.61135,38.7873],[-8.60876,38.78817],[-8.60675,38.79096],[-8.60535,38.79183],[-8.60545,38.79511],[-8.60446,38.79629],[-8.60488,38.79944],[-8.60397,38.80127],[-8.60535,38.80559],[-8.60671,38.8083],[-8.60644,38.81109],[-8.60435,38.81596],[-8.60439,38.81912],[-8.60385,38.82275],[-8.60604,38.82641],[-8.60282,38.82889],[-8.60098,38.829],[-8.59926,38.83139],[-8.59683,38.83715],[-8.59558,38.83865],[-8.59627,38.84066],[-8.59957,38.84023],[-8.60395,38.84038],[-8.60971,38.83963],[-8.61217,38.83889],[-8.61521,38.83508],[-8.61821,38.8336],[-8.62237,38.8321],[-8.62667,38.83149],[-8.62931,38.83067],[-8.63069,38.82661],[-8.63066,38.82205],[-8.63289,38.81967],[-8.63493,38.81819],[-8.63868,38.81325],[-8.63873,38.81045],[-8.63931,38.80929],[-8.6444,38.81003],[-8.64754,38.8095],[-8.65157,38.81069],[-8.65476,38.81249],[-8.6577,38.81293],[-8.66405,38.81674],[-8.6661,38.81891],[-8.66882,38.8204],[-8.66784,38.82114],[-8.6707,38.82247],[-8.67353,38.8229],[-8.67652,38.82278],[-8.68031,38.82449],[-8.68181,38.82574],[-8.68512,38.82624],[-8.68646,38.82691],[-8.68988,38.83034],[-8.69111,38.83328],[-8.69313,38.83616],[-8.69538,38.8381],[-8.69692,38.84039],[-8.704,38.84304],[-8.704,38.83996],[-8.70616,38.83322],[-8.70935,38.82589],[-8.71639,38.81575],[-8.72126,38.81092],[-8.73004,38.79758],[-8.73388,38.79339],[-8.73883,38.78575],[-8.74388,38.77745],[-8.74414,38.77383],[-8.74557,38.76592],[-8.74725,38.75955],[-8.74859,38.75297],[-8.74992,38.74879],[-8.75169,38.74507],[-8.75361,38.74282],[-8.75865,38.74054],[-8.76258,38.73962],[-8.76654,38.73787],[-8.77403,38.73518],[-8.77913,38.73392],[-8.7858,38.73419],[-8.79158,38.73412],[-8.80185,38.74163],[-8.8103,38.74012],[-8.81712,38.72647],[-8.82304,38.71657],[-8.82483,38.71207],[-8.8236,38.70623],[-8.82593,38.70467],[-8.82657,38.70344],[-8.82944,38.70158],[-8.83206,38.69743],[-8.83462,38.6966],[-8.83604,38.69525],[-8.83621,38.69197],[-8.83497,38.6914],[-8.83669,38.68936],[-8.83604,38.68736],[-8.83956,38.68804],[-8.8393,38.67909],[-8.85615,38.67707],[-8.86069,38.67637],[-8.86722,38.67656],[-8.88049,38.6743],[-8.89179,38.67446],[-8.89657,38.67408],[-8.90326,38.67299],[-8.91128,38.67137],[-8.91145,38.67603],[-8.91225,38.68244],[-8.91399,38.68613],[-8.91506,38.69012],[-8.91894,38.70283],[-8.91879,38.70554],[-8.92075,38.70604],[-8.92071,38.70902],[-8.92305,38.70869],[-8.92989,38.71606],[-8.93182,38.71326],[-8.94168,38.71846],[-8.94677,38.72171],[-8.95258,38.72388],[-8.95665,38.72246],[-8.95745,38.72355],[-8.96065,38.72336],[-8.96261,38.72609],[-8.96577,38.72568],[-8.96675,38.72751],[-8.97148,38.72635],[-8.97637,38.72558],[-8.97809,38.72478],[-8.9798,38.7252],[-8.98027,38.72364],[-8.98564,38.72384],[-8.9912,38.72051],[-8.99485,38.72036],[-8.99987,38.71902],[-9.00492,38.71801],[-9.00567,38.71858],[-9.0081,38.71715],[-9.01154,38.71987],[-9.01621,38.72137],[-9.01989,38.72373],[-9.02408,38.72573],[-9.02694,38.72522],[-9.03133,38.72382],[-9.03653,38.72162],[-9.03797,38.72048],[-9.04369,38.7171],[-9.04631,38.71309],[-9.04756,38.70831],[-9.04834,38.70327],[-9.04854,38.69632],[-9.04984,38.69161],[-9.04785,38.68783],[-9.04481,38.68387],[-9.04007,38.68662],[-9.03406,38.68954],[-9.03039,38.69083],[-9.01596,38.69391],[-9.00448,38.69583],[-8.99753,38.69677],[-8.9859,38.69687],[-8.98164,38.6926],[-8.97902,38.68923],[-8.97689,38.68468],[-8.97704,38.68218],[-8.97581,38.68162],[-8.97643,38.67673],[-8.97542,38.67286],[-8.97575,38.67092],[-8.97438,38.66669],[-8.97197,38.6639],[-8.97212,38.65889],[-8.97263,38.65576],[-8.9694,38.65509],[-8.96028,38.65682],[-8.95576,38.65646],[-8.95333,38.65217]]]]}},{"type":"Feature","properties":{"name":"minho-ave","units":13,"statute_names":4,"whole_concelhos":9,"legal":"Portaria 28/2001 1.º b): nine whole concelhos plus Vizela except the freguesias of Vizela (Santo Adriao) and Barrosas (Santa Eulalia), which belong to Sousa.","partial":{}},"geometry":{"type":"MultiPolygon","coordinates":[[[[-8.62272,41.41487],[-8.62935,41.41405],[-8.63469,41.41865],[-8.64029,41.41764],[-8.64693,41.41855],[-8.65014,41.41969],[-8.65069,41.4247],[-8.65498,41.43282],[-8.6574,41.4363],[-8.66194,41.44101],[-8.66802,41.44457],[-8.68319,41.44916],[-8.70076,41.44216],[-8.70857,41.45024],[-8.70858,41.45285],[-8.71227,41.45455],[-8.7198,41.45527],[-8.72323,41.45368],[-8.72952,41.45361],[-8.73043,41.45516],[-8.73395,41.4556],[-8.73607,41.45852],[-8.73949,41.46056],[-8.7402,41.46366],[-8.74626,41.46859],[-8.74958,41.46659],[-8.75259,41.46614],[-8.75968,41.4679],[-8.76879,41.46875],[-8.77394,41.47053],[-8.77601,41.47025],[-8.77646,41.46477],[-8.77869,41.45655],[-8.77849,41.45068],[-8.78002,41.44241],[-8.78467,41.43294],[-8.78433,41.42665],[-8.78605,41.42031],[-8.78891,41.41668],[-8.78661,41.41183],[-8.78087,41.40574],[-8.77892,41.4005],[-8.78073,41.39522],[-8.77851,41.39492],[-8.77508,41.39141],[-8.77543,41.38744],[-8.77215,41.38441],[-8.76972,41.38003],[-8.76741,41.37391],[-8.76332,41.37242],[-8.7678,41.37215],[-8.76597,41.36953],[-8.7617,41.36789],[-8.76089,41.36188],[-8.75749,41.35919],[-8.75505,41.35455],[-8.75426,41.34602],[-8.75509,41.3432],[-8.75321,41.34111],[-8.74606,41.33968],[-8.74114,41.33616],[-8.73987,41.33275],[-8.73939,41.32326],[-8.7414,41.3109],[-8.73829,41.30171],[-8.73829,41.29908],[-8.73542,41.29272],[-8.73365,41.29091],[-8.73204,41.28189],[-8.72975,41.27864],[-8.72986,41.27253],[-8.72718,41.27076],[-8.71685,41.26993],[-8.70862,41.27277],[-8.70598,41.27307],[-8.70215,41.27014],[-8.70137,41.26461],[-8.70277,41.26395],[-8.69851,41.25652],[-8.68997,41.25553],[-8.68684,41.25865],[-8.68277,41.2613],[-8.67496,41.26131],[-8.66585,41.26244],[-8.66232,41.25919],[-8.65808,41.25694],[-8.65255,41.25873],[-8.65059,41.26044],[-8.65393,41.26401],[-8.65272,41.27416],[-8.64882,41.27651],[-8.64163,41.2784],[-8.6368,41.27891],[-8.63007,41.28075],[-8.62782,41.28381],[-8.6252,41.28495],[-8.62319,41.28893],[-8.62366,41.29312],[-8.62178,41.29537],[-8.6163,41.2937],[-8.61292,41.2919],[-8.60783,41.29123],[-8.60803,41.28904],[-8.60391,41.28536],[-8.60201,41.28033],[-8.6004,41.28016],[-8.59109,41.28478],[-8.59115,41.27975],[-8.58934,41.27781],[-8.58318,41.27557],[-8.58312,41.27276],[-8.58116,41.27135],[-8.58087,41.2682],[-8.57611,41.26478],[-8.57612,41.26042],[-8.57053,41.25942],[-8.56744,41.25725],[-8.56497,41.26176],[-8.56334,41.26163],[-8.55987,41.2651],[-8.55681,41.26657],[-8.55635,41.27181],[-8.54901,41.27485],[-8.53743,41.27465],[-8.54004,41.27813],[-8.53631,41.28174],[-8.53199,41.28209],[-8.53044,41.28537],[-8.5196,41.28774],[-8.51553,41.28642],[-8.5156,41.27415],[-8.51985,41.26887],[-8.51511,41.26137],[-8.51302,41.25459],[-8.51251,41.24942],[-8.49601,41.23807],[-8.49197,41.23906],[-8.47036,41.24293],[-8.46379,41.24437],[-8.45405,41.2445],[-8.45235,41.24718],[-8.4492,41.25975],[-8.45033,41.26203],[-8.4421,41.27079],[-8.43381,41.27797],[-8.42927,41.28689],[-8.42889,41.28919],[-8.4299,41.29797],[-8.42097,41.30203],[-8.4167,41.30262],[-8.41436,41.30445],[-8.40863,41.30529],[-8.40002,41.30917],[-8.39603,41.31288],[-8.39497,41.31682],[-8.39184,41.32137],[-8.39573,41.32675],[-8.3998,41.32916],[-8.39549,41.33092],[-8.39367,41.33354],[-8.3893,41.33464],[-8.38424,41.33722],[-8.37572,41.3358],[-8.37216,41.33288],[-8.35425,41.33398],[-8.35181,41.33371],[-8.34699,41.33589],[-8.33975,41.33497],[-8.32908,41.34178],[-8.32046,41.34565],[-8.31869,41.34704],[-8.31645,41.35126],[-8.31797,41.35605],[-8.31764,41.35731],[-8.31065,41.35981],[-8.30799,41.36279],[-8.30004,41.36563],[-8.2998,41.37075],[-8.30115,41.37296],[-8.29604,41.37522],[-8.29341,41.37725],[-8.29052,41.37579],[-8.28744,41.37193],[-8.29087,41.36802],[-8.28834,41.36672],[-8.28484,41.36942],[-8.28242,41.37269],[-8.27627,41.3702],[-8.27325,41.37174],[-8.27086,41.37099],[-8.26814,41.37258],[-8.26728,41.37568],[-8.26583,41.37732],[-8.25977,41.37859],[-8.25899,41.38064],[-8.255,41.38465],[-8.249,41.38864],[-8.2462,41.3896],[-8.24712,41.39196],[-8.24107,41.39379],[-8.23457,41.3928],[-8.22869,41.39522],[-8.22669,41.39299],[-8.22282,41.39487],[-8.22037,41.3977],[-8.22192,41.39981],[-8.2217,41.40251],[-8.22402,41.40611],[-8.22331,41.40872],[-8.22301,41.40994],[-8.2154,41.41187],[-8.20891,41.41144],[-8.20058,41.40884],[-8.18552,41.40997],[-8.18051,41.40251],[-8.17897,41.39713],[-8.17482,41.39967],[-8.16584,41.4003],[-8.15995,41.39214],[-8.16051,41.38963],[-8.15995,41.38319],[-8.15882,41.38116],[-8.14556,41.37889],[-8.14038,41.37836],[-8.13838,41.37424],[-8.13321,41.37283],[-8.12989,41.3744],[-8.12676,41.37445],[-8.12472,41.37607],[-8.12071,41.37643],[-8.11695,41.37891],[-8.1168,41.38518],[-8.1131,41.38886],[-8.11748,41.39128],[-8.1098,41.3949],[-8.11187,41.39744],[-8.1099,41.39923],[-8.10863,41.40626],[-8.10581,41.41086],[-8.10675,41.41426],[-8.10912,41.41553],[-8.10908,41.41995],[-8.11053,41.42111],[-8.106,41.42512],[-8.10374,41.42422],[-8.09957,41.42579],[-8.09942,41.42953],[-8.10017,41.43782],[-8.09828,41.44043],[-8.08173,41.44759],[-8.07878,41.45074],[-8.07978,41.45242],[-8.07401,41.45624],[-8.07005,41.45969],[-8.0701,41.4661],[-8.07352,41.47367],[-8.06832,41.47938],[-8.06642,41.48256],[-8.06655,41.4881],[-8.06156,41.49507],[-8.06069,41.49778],[-8.05596,41.50094],[-8.0571,41.50416],[-8.05757,41.51272],[-8.05543,41.52263],[-8.05519,41.53052],[-8.05645,41.53496],[-8.0621,41.54444],[-8.06715,41.54928],[-8.06884,41.55183],[-8.0689,41.55514],[-8.06701,41.55752],[-8.06358,41.55695],[-8.06083,41.56038],[-8.06613,41.56466],[-8.06496,41.56888],[-8.06081,41.57117],[-8.06155,41.57379],[-8.05887,41.57672],[-8.05614,41.57776],[-8.05428,41.58341],[-8.04337,41.59296],[-8.04049,41.59324],[-8.03273,41.59666],[-8.02557,41.59854],[-8.01698,41.60757],[-8.01087,41.61061],[-8.00766,41.61469],[-8.00233,41.61683],[-8.00302,41.62088],[-8.00178,41.62908],[-8.00124,41.6409],[-7.99766,41.64242],[-7.9964,41.6472],[-7.99439,41.64792],[-7.99451,41.65093],[-7.99894,41.65335],[-7.99474,41.66364],[-7.98877,41.66649],[-7.98531,41.67039],[-7.98154,41.67806],[-7.98468,41.68182],[-7.98954,41.6826],[-7.99408,41.68652],[-7.99729,41.68783],[-7.99937,41.6866],[-8.00184,41.68821],[-8.00962,41.69057],[-8.01205,41.68945],[-8.01775,41.68907],[-8.0207,41.69415],[-8.02465,41.69798],[-8.02905,41.69769],[-8.0373,41.70075],[-8.03891,41.70059],[-8.04267,41.69664],[-8.048,41.69279],[-8.05917,41.69296],[-8.06527,41.6918],[-8.0718,41.69386],[-8.07376,41.69549],[-8.08093,41.69521],[-8.08628,41.69241],[-8.09395,41.69161],[-8.09795,41.69017],[-8.10072,41.6909],[-8.10406,41.6891],[-8.10876,41.69097],[-8.11199,41.68809],[-8.11553,41.68971],[-8.12812,41.68971],[-8.13104,41.68905],[-8.1339,41.68483],[-8.13757,41.68297],[-8.14526,41.68397],[-8.1529,41.68181],[-8.16852,41.68141],[-8.17177,41.67887],[-8.17266,41.67512],[-8.17667,41.67537],[-8.18104,41.67356],[-8.18217,41.66964],[-8.18399,41.66696],[-8.18368,41.66378],[-8.18738,41.66066],[-8.18971,41.65704],[-8.19802,41.65387],[-8.21059,41.65168],[-8.2204,41.65075],[-8.23231,41.65272],[-8.23939,41.64955],[-8.24044,41.65037],[-8.25071,41.65394],[-8.25943,41.65392],[-8.26113,41.65571],[-8.26548,41.65504],[-8.26765,41.6531],[-8.27167,41.65282],[-8.27386,41.65104],[-8.27936,41.65252],[-8.28367,41.65215],[-8.28505,41.6506],[-8.29392,41.64867],[-8.29533,41.65017],[-8.3057,41.64702],[-8.30848,41.64315],[-8.31418,41.64534],[-8.31632,41.64241],[-8.31986,41.63419],[-8.31792,41.62966],[-8.31945,41.62642],[-8.32534,41.62227],[-8.3357,41.62034],[-8.33977,41.61697],[-8.33762,41.61449],[-8.33689,41.60873],[-8.33487,41.60452],[-8.33562,41.59586],[-8.34261,41.59308],[-8.3442,41.59105],[-8.3421,41.58504],[-8.33703,41.58295],[-8.32832,41.58034],[-8.32176,41.58085],[-8.31694,41.57902],[-8.31194,41.57432],[-8.31035,41.56772],[-8.29662,41.56251],[-8.29587,41.55412],[-8.29775,41.5513],[-8.30551,41.54322],[-8.31809,41.5416],[-8.32085,41.53639],[-8.32457,41.53633],[-8.33024,41.53758],[-8.33232,41.54076],[-8.34047,41.53929],[-8.34825,41.53857],[-8.35179,41.53618],[-8.35802,41.53781],[-8.36402,41.53776],[-8.37438,41.53436],[-8.3788,41.53213],[-8.38296,41.52561],[-8.39191,41.51891],[-8.39182,41.51227],[-8.39382,41.51008],[-8.38925,41.50366],[-8.39177,41.49962],[-8.39401,41.4931],[-8.39442,41.49008],[-8.39737,41.48828],[-8.39941,41.4887],[-8.40511,41.48637],[-8.40801,41.48237],[-8.41002,41.47803],[-8.43533,41.46373],[-8.4495,41.47291],[-8.45715,41.46739],[-8.46243,41.46577],[-8.46685,41.46868],[-8.4719,41.47335],[-8.47678,41.47491],[-8.48125,41.47507],[-8.49029,41.47878],[-8.51367,41.47769],[-8.51834,41.47786],[-8.52032,41.47607],[-8.52654,41.47601],[-8.52961,41.47136],[-8.536,41.47216],[-8.53927,41.477],[-8.54266,41.47296],[-8.54731,41.47139],[-8.55418,41.47143],[-8.55647,41.46837],[-8.56397,41.47076],[-8.56011,41.46639],[-8.55784,41.46616],[-8.55428,41.46203],[-8.55198,41.46109],[-8.55061,41.45778],[-8.54826,41.45745],[-8.54606,41.4545],[-8.54315,41.45288],[-8.54778,41.44544],[-8.55118,41.44473],[-8.55265,41.44285],[-8.55176,41.43995],[-8.56028,41.42993],[-8.56571,41.42833],[-8.56976,41.42568],[-8.57609,41.42337],[-8.57903,41.42411],[-8.58433,41.43005],[-8.59916,41.43271],[-8.60142,41.43072],[-8.60732,41.43121],[-8.61123,41.42597],[-8.61433,41.42425],[-8.62206,41.4163],[-8.62272,41.41487]]]]}},{"type":"Feature","properties":{"name":"minho-baiao","units":23,"statute_names":22,"whole_concelhos":1,"legal":"Portaria 28/2001 1.º c): Baiao whole, Resende except Barro, Cinfaes except Travanca and Souselo.","partial":{"Resende / Barro":"excluded — it is Douro (Baixo Corgo) under DL 173/2009","Cinfaes / Travanca, Souselo":"excluded — they belong to the Paiva sub-region"}},"geometry":{"type":"MultiPolygon","coordinates":[[[[-8.09694,41.10074],[-8.10344,41.09916],[-8.11298,41.09495],[-8.11649,41.08948],[-8.11792,41.08871],[-8.12727,41.08763],[-8.13315,41.08439],[-8.13693,41.08374],[-8.14043,41.08434],[-8.14689,41.08416],[-8.1513,41.0853],[-8.15697,41.08829],[-8.16089,41.08944],[-8.16572,41.08863],[-8.17285,41.08816],[-8.17764,41.08978],[-8.18546,41.09261],[-8.18959,41.09346],[-8.19906,41.09421],[-8.20455,41.09409],[-8.20864,41.09304],[-8.21303,41.08969],[-8.21724,41.0833],[-8.22044,41.08024],[-8.21942,41.07779],[-8.21971,41.07502],[-8.21775,41.07203],[-8.21358,41.07056],[-8.20842,41.0714],[-8.20635,41.06972],[-8.20715,41.0667],[-8.20226,41.06686],[-8.20076,41.06761],[-8.20398,41.06306],[-8.20379,41.06173],[-8.2077,41.05802],[-8.20985,41.05383],[-8.21059,41.05098],[-8.21339,41.04528],[-8.211,41.04423],[-8.21292,41.03926],[-8.21563,41.03636],[-8.22045,41.03277],[-8.21734,41.0299],[-8.22108,41.02887],[-8.22774,41.02206],[-8.22678,41.01908],[-8.22925,41.01604],[-8.23369,41.01603],[-8.23514,41.013],[-8.22892,41.01387],[-8.22427,41.01606],[-8.22041,41.01532],[-8.21603,41.01233],[-8.21113,41.01252],[-8.20803,41.01353],[-8.20625,41.01112],[-8.20375,41.00943],[-8.20564,41.00862],[-8.2118,41.00314],[-8.20879,41.00022],[-8.20841,40.99743],[-8.21063,40.99552],[-8.20695,40.99428],[-8.2019,40.99638],[-8.19893,40.99601],[-8.19415,40.99817],[-8.18876,40.99518],[-8.17808,40.9882],[-8.17622,40.98952],[-8.17046,40.98814],[-8.16955,40.98723],[-8.16483,40.98608],[-8.16091,40.98951],[-8.15807,40.98854],[-8.15196,40.98367],[-8.14753,40.98215],[-8.14292,40.97856],[-8.13833,40.97933],[-8.13308,40.97867],[-8.13088,40.98095],[-8.12395,40.98467],[-8.1212,40.98763],[-8.11875,40.99284],[-8.11845,40.99708],[-8.11114,40.99932],[-8.10573,41.00345],[-8.10377,41.00211],[-8.10135,41.00865],[-8.09907,41.01344],[-8.09777,41.01369],[-8.09451,41.01079],[-8.09108,41.00897],[-8.09032,41.00446],[-8.09044,41.00063],[-8.09207,40.99775],[-8.09058,40.99146],[-8.08917,40.98756],[-8.08743,40.98578],[-8.08331,40.98588],[-8.079,40.98472],[-8.07736,40.98348],[-8.06907,40.98354],[-8.0612,40.98172],[-8.05357,40.98499],[-8.05105,40.98653],[-8.04805,40.98446],[-8.04043,40.98472],[-8.03936,40.98109],[-8.03464,40.97612],[-8.02806,40.97098],[-8.02352,40.96681],[-8.01964,40.96474],[-8.01763,40.96479],[-8.01097,40.96641],[-8.00425,40.96708],[-8.00249,40.96809],[-7.99761,40.96724],[-7.99414,40.96975],[-7.99072,40.97091],[-7.99079,40.97316],[-7.98634,40.97465],[-7.98289,40.97452],[-7.98089,40.97588],[-7.97824,40.97465],[-7.97627,40.97644],[-7.97422,40.97615],[-7.97046,40.97237],[-7.96693,40.97347],[-7.96733,40.97669],[-7.96529,40.97723],[-7.9637,40.97983],[-7.95639,40.98462],[-7.95011,40.99201],[-7.94999,40.99477],[-7.95119,40.9993],[-7.94703,41.00366],[-7.94692,41.00636],[-7.94406,41.01242],[-7.93979,41.01574],[-7.93553,41.01726],[-7.92833,41.0158],[-7.92442,41.01627],[-7.92146,41.01975],[-7.91568,41.01997],[-7.91462,41.02317],[-7.91106,41.02818],[-7.91143,41.03104],[-7.90937,41.03813],[-7.9082,41.04023],[-7.90651,41.04439],[-7.90432,41.0476],[-7.89745,41.05297],[-7.89356,41.05702],[-7.89009,41.05734],[-7.88359,41.06545],[-7.87977,41.07183],[-7.87853,41.07289],[-7.87894,41.07716],[-7.87572,41.08095],[-7.87053,41.08797],[-7.86847,41.094],[-7.86945,41.09717],[-7.86702,41.09963],[-7.86326,41.1004],[-7.86031,41.10273],[-7.8694,41.1091],[-7.87623,41.11594],[-7.88602,41.11936],[-7.8891,41.12102],[-7.89166,41.12022],[-7.89434,41.12173],[-7.89751,41.11997],[-7.89979,41.1205],[-7.9016,41.11931],[-7.9076,41.11905],[-7.91186,41.11989],[-7.91229,41.12488],[-7.91146,41.12702],[-7.91264,41.12915],[-7.91244,41.13299],[-7.9136,41.13496],[-7.91239,41.13854],[-7.90874,41.14272],[-7.90119,41.14727],[-7.90217,41.14908],[-7.90036,41.15076],[-7.9006,41.15238],[-7.9037,41.15474],[-7.90052,41.15581],[-7.89672,41.15818],[-7.89284,41.15952],[-7.89191,41.16147],[-7.88956,41.16294],[-7.89712,41.16706],[-7.89584,41.16798],[-7.89684,41.17104],[-7.89894,41.17286],[-7.89268,41.18079],[-7.89035,41.18276],[-7.89028,41.18633],[-7.88797,41.18909],[-7.88995,41.19582],[-7.89034,41.20244],[-7.8933,41.20603],[-7.89409,41.20924],[-7.89208,41.21066],[-7.89177,41.2137],[-7.88828,41.2178],[-7.88638,41.223],[-7.88358,41.2283],[-7.88178,41.23064],[-7.87908,41.23217],[-7.87937,41.23713],[-7.87785,41.24091],[-7.87558,41.24205],[-7.87979,41.24556],[-7.88697,41.24847],[-7.8953,41.24884],[-7.89584,41.24628],[-7.90011,41.24338],[-7.90047,41.2414],[-7.90384,41.23852],[-7.90749,41.23629],[-7.91335,41.23396],[-7.91538,41.23371],[-7.9216,41.22829],[-7.92136,41.22433],[-7.92346,41.2217],[-7.92622,41.22134],[-7.92764,41.21948],[-7.93151,41.21657],[-7.93429,41.21105],[-7.93759,41.20971],[-7.93764,41.20833],[-7.94038,41.20596],[-7.94239,41.20026],[-7.94402,41.19741],[-7.94756,41.19691],[-7.95664,41.19479],[-7.96303,41.19727],[-7.96583,41.19515],[-7.9701,41.19709],[-7.97241,41.20064],[-7.97797,41.20482],[-7.9821,41.20595],[-7.97837,41.20969],[-7.97644,41.21028],[-7.97405,41.21297],[-7.97754,41.2157],[-7.98069,41.21681],[-7.98216,41.2185],[-7.98634,41.2202],[-7.98894,41.21631],[-7.99313,41.21413],[-7.99572,41.21196],[-7.99583,41.21006],[-7.99903,41.20698],[-8.0019,41.20612],[-8.00494,41.20898],[-8.01077,41.20626],[-8.02418,41.20142],[-8.02691,41.20104],[-8.03025,41.19903],[-8.03418,41.194],[-8.03797,41.1909],[-8.04128,41.18944],[-8.04662,41.18902],[-8.04936,41.18771],[-8.05472,41.18643],[-8.05699,41.18437],[-8.05868,41.18114],[-8.05899,41.1783],[-8.05838,41.16707],[-8.05923,41.16545],[-8.0622,41.16387],[-8.06213,41.16147],[-8.06645,41.15748],[-8.07284,41.15598],[-8.07288,41.15436],[-8.07858,41.15098],[-8.08281,41.14731],[-8.09204,41.14392],[-8.09683,41.14133],[-8.09902,41.14169],[-8.10814,41.1366],[-8.11297,41.13314],[-8.11544,41.12999],[-8.11469,41.1283],[-8.10745,41.12567],[-8.10621,41.12402],[-8.10324,41.11692],[-8.10325,41.1147],[-8.0998,41.10821],[-8.09673,41.10412],[-8.09694,41.10074]]]]}},{"type":"Feature","properties":{"name":"minho-paiva","units":3,"statute_names":2,"whole_concelhos":1,"legal":"Portaria 28/2001 1.º h): the concelho of Castelo de Paiva, plus the freguesias of Travanca and Souselo in Cinfaes.","partial":{}},"geometry":{"type":"MultiPolygon","coordinates":[[[[-8.23369,41.01603],[-8.22925,41.01604],[-8.22678,41.01908],[-8.22774,41.02206],[-8.22108,41.02887],[-8.21734,41.0299],[-8.22045,41.03277],[-8.21563,41.03636],[-8.21121,41.04252],[-8.21339,41.04528],[-8.21059,41.05098],[-8.21183,41.05355],[-8.20985,41.05383],[-8.2077,41.05802],[-8.20379,41.06173],[-8.20226,41.06686],[-8.20715,41.0667],[-8.20635,41.06972],[-8.20842,41.0714],[-8.21358,41.07056],[-8.21775,41.07203],[-8.21971,41.07502],[-8.22044,41.08024],[-8.2244,41.07848],[-8.2328,41.07902],[-8.23643,41.07741],[-8.23948,41.07339],[-8.24299,41.07061],[-8.24671,41.06922],[-8.25213,41.06876],[-8.25848,41.07032],[-8.26274,41.06817],[-8.26399,41.06586],[-8.26862,41.06418],[-8.27993,41.0674],[-8.28273,41.0704],[-8.28446,41.07582],[-8.28723,41.07894],[-8.29408,41.08013],[-8.29889,41.07569],[-8.3007,41.06972],[-8.30374,41.06674],[-8.30997,41.06261],[-8.31471,41.0584],[-8.32579,41.05837],[-8.3336,41.05331],[-8.33669,41.0492],[-8.3428,41.04289],[-8.34729,41.04061],[-8.35216,41.0401],[-8.35839,41.04216],[-8.36194,41.04564],[-8.3685,41.05015],[-8.37199,41.05068],[-8.38141,41.04932],[-8.3944,41.05075],[-8.39867,41.05237],[-8.39857,41.04864],[-8.39634,41.04606],[-8.39908,41.04387],[-8.39824,41.03965],[-8.39961,41.03893],[-8.40092,41.03324],[-8.39578,41.02633],[-8.38446,41.02436],[-8.38315,41.02092],[-8.38561,41.01981],[-8.38543,41.01559],[-8.38778,41.01308],[-8.38501,41.01086],[-8.38419,41.00365],[-8.37885,41.00301],[-8.37588,41.00454],[-8.37053,41.00282],[-8.35997,41.00376],[-8.35732,41.00008],[-8.35845,40.99235],[-8.35014,40.9913],[-8.34673,40.99272],[-8.34481,40.98992],[-8.34055,40.98742],[-8.34162,40.9853],[-8.33842,40.98192],[-8.33334,40.98177],[-8.32678,40.9839],[-8.32418,40.98214],[-8.32498,40.97753],[-8.32058,40.96498],[-8.30957,40.96226],[-8.30557,40.96329],[-8.29603,40.96279],[-8.2814,40.9635],[-8.27255,40.96557],[-8.26023,40.9675],[-8.25729,40.96675],[-8.2526,40.96778],[-8.24716,40.96654],[-8.2409,40.96364],[-8.2417,40.96791],[-8.24423,40.97214],[-8.24245,40.9755],[-8.24441,40.98502],[-8.24483,40.99037],[-8.24313,41.00051],[-8.2377,40.99973],[-8.23424,41.00199],[-8.2371,41.00602],[-8.23257,41.0082],[-8.23514,41.013],[-8.23369,41.01603]]]]}},{"type":"Feature","properties":{"name":"minho-sousa","units":7,"statute_names":2,"whole_concelhos":5,"legal":"Portaria 28/2001 1.º i): five whole concelhos, plus the freguesias of Vizela (Santo Adriao) and Barrosas (Santa Eulalia) in Vizela.","partial":{"Vizela / Santa Eulalia":"the statute writes this as Barrosas (Santa Eulalia); CAOP 2025 carries it as Santa Eulalia within Vizela"}},"geometry":{"type":"MultiPolygon","coordinates":[[[[-8.44011,41.24446],[-8.44289,41.24209],[-8.44697,41.24315],[-8.4502,41.24106],[-8.44921,41.23869],[-8.4426,41.23736],[-8.44381,41.23349],[-8.44032,41.23093],[-8.4415,41.22712],[-8.44058,41.22555],[-8.44272,41.22304],[-8.44404,41.21722],[-8.44651,41.2152],[-8.44889,41.21112],[-8.45092,41.2091],[-8.45219,41.20297],[-8.44657,41.19966],[-8.4466,41.19712],[-8.45049,41.19413],[-8.45133,41.19267],[-8.45756,41.19262],[-8.45649,41.19066],[-8.45839,41.18874],[-8.45176,41.18854],[-8.45042,41.18651],[-8.44844,41.18071],[-8.44491,41.17925],[-8.44233,41.17405],[-8.44389,41.17133],[-8.44204,41.16736],[-8.44385,41.16559],[-8.45073,41.16386],[-8.4677,41.14519],[-8.47397,41.13605],[-8.47042,41.12901],[-8.47056,41.1274],[-8.4675,41.12078],[-8.46373,41.11589],[-8.45736,41.11562],[-8.45528,41.10961],[-8.45277,41.10668],[-8.44911,41.10027],[-8.44254,41.09161],[-8.43681,41.08671],[-8.43126,41.08841],[-8.42439,41.09213],[-8.42166,41.09292],[-8.4197,41.09546],[-8.41284,41.09775],[-8.40688,41.09504],[-8.40172,41.09012],[-8.39705,41.09046],[-8.39276,41.08699],[-8.3842,41.08429],[-8.3818,41.08166],[-8.37907,41.08],[-8.37595,41.07464],[-8.37257,41.07093],[-8.37337,41.06741],[-8.37274,41.06568],[-8.37561,41.06079],[-8.37968,41.05547],[-8.38031,41.05338],[-8.37588,41.05134],[-8.37523,41.05012],[-8.37052,41.05071],[-8.36653,41.04912],[-8.36194,41.04564],[-8.35839,41.04216],[-8.35216,41.0401],[-8.34729,41.04061],[-8.3428,41.04289],[-8.33669,41.0492],[-8.3336,41.05331],[-8.32579,41.05837],[-8.31471,41.0584],[-8.30997,41.06261],[-8.30374,41.06674],[-8.3007,41.06972],[-8.29829,41.07697],[-8.29298,41.08182],[-8.28944,41.08716],[-8.28402,41.09244],[-8.2807,41.09445],[-8.2721,41.09602],[-8.26858,41.09609],[-8.26329,41.09727],[-8.25851,41.09751],[-8.25214,41.10092],[-8.24886,41.10879],[-8.24679,41.11132],[-8.24049,41.11732],[-8.23512,41.12125],[-8.23059,41.1259],[-8.22808,41.12769],[-8.22651,41.13036],[-8.23094,41.13216],[-8.23004,41.1375],[-8.23061,41.14223],[-8.22898,41.14402],[-8.22272,41.14607],[-8.21731,41.14694],[-8.21307,41.14908],[-8.20937,41.15176],[-8.20636,41.15136],[-8.20326,41.15227],[-8.19886,41.15732],[-8.19459,41.16032],[-8.19145,41.16575],[-8.19503,41.17055],[-8.19769,41.17204],[-8.20327,41.16777],[-8.20693,41.16768],[-8.2109,41.17023],[-8.2088,41.17684],[-8.21108,41.17877],[-8.22299,41.18149],[-8.22676,41.18278],[-8.23382,41.18755],[-8.23381,41.18965],[-8.2365,41.1944],[-8.2357,41.19705],[-8.23265,41.19958],[-8.2314,41.20526],[-8.22652,41.20758],[-8.22285,41.21145],[-8.21778,41.21509],[-8.21482,41.21499],[-8.21184,41.21671],[-8.20678,41.21848],[-8.20009,41.21759],[-8.19575,41.21842],[-8.19195,41.21804],[-8.19246,41.21999],[-8.18829,41.22067],[-8.18472,41.2171],[-8.18121,41.21581],[-8.17664,41.21606],[-8.17097,41.21949],[-8.16922,41.22155],[-8.17002,41.22575],[-8.17195,41.22681],[-8.17351,41.23387],[-8.17619,41.23321],[-8.17946,41.23528],[-8.18322,41.23563],[-8.18726,41.23758],[-8.19006,41.23758],[-8.19141,41.23892],[-8.18961,41.24096],[-8.19362,41.24269],[-8.19859,41.24119],[-8.20189,41.24104],[-8.2049,41.24305],[-8.20677,41.24579],[-8.21072,41.24561],[-8.21255,41.24458],[-8.21575,41.24531],[-8.21631,41.25015],[-8.21127,41.25808],[-8.21148,41.26431],[-8.20899,41.26598],[-8.20829,41.27094],[-8.20975,41.27646],[-8.20734,41.2782],[-8.20503,41.28224],[-8.19951,41.28624],[-8.19667,41.28667],[-8.19185,41.29045],[-8.19294,41.29445],[-8.18498,41.30239],[-8.18001,41.30217],[-8.17162,41.31117],[-8.16347,41.31418],[-8.15018,41.31177],[-8.14661,41.31344],[-8.14677,41.31596],[-8.144,41.31736],[-8.14097,41.31568],[-8.13678,41.31485],[-8.13126,41.31481],[-8.12908,41.31684],[-8.12192,41.31862],[-8.12118,41.31999],[-8.1208,41.32481],[-8.11601,41.328],[-8.11529,41.32997],[-8.11203,41.3286],[-8.10974,41.33138],[-8.11146,41.33234],[-8.11316,41.3358],[-8.11197,41.33858],[-8.11528,41.34022],[-8.11875,41.34379],[-8.12502,41.34696],[-8.13015,41.34858],[-8.13154,41.35228],[-8.13076,41.35532],[-8.1351,41.35718],[-8.13778,41.36049],[-8.14084,41.36081],[-8.1436,41.35973],[-8.14661,41.36085],[-8.14614,41.36418],[-8.14293,41.36858],[-8.14271,41.37159],[-8.13838,41.37424],[-8.14038,41.37836],[-8.14332,41.37795],[-8.14556,41.37889],[-8.15882,41.38116],[-8.15995,41.38319],[-8.16051,41.38963],[-8.15995,41.39214],[-8.16189,41.39288],[-8.16241,41.395],[-8.16584,41.4003],[-8.1697,41.40046],[-8.17482,41.39967],[-8.17897,41.39713],[-8.18051,41.40251],[-8.18552,41.40997],[-8.20058,41.40884],[-8.20891,41.41144],[-8.2154,41.41187],[-8.22301,41.40994],[-8.22205,41.40686],[-8.22402,41.40611],[-8.2217,41.40251],[-8.22192,41.39981],[-8.22037,41.3977],[-8.22282,41.39487],[-8.2222,41.3936],[-8.22669,41.39299],[-8.22869,41.39522],[-8.23457,41.3928],[-8.24107,41.39379],[-8.24712,41.39196],[-8.2462,41.3896],[-8.249,41.38864],[-8.255,41.38465],[-8.25899,41.38064],[-8.25977,41.37859],[-8.26583,41.37732],[-8.26842,41.37443],[-8.26814,41.37258],[-8.27086,41.37099],[-8.27325,41.37174],[-8.27651,41.3704],[-8.28242,41.37269],[-8.28493,41.37133],[-8.28484,41.36942],[-8.28834,41.36672],[-8.29087,41.36802],[-8.28744,41.37193],[-8.28912,41.37546],[-8.29341,41.37725],[-8.29604,41.37522],[-8.30115,41.37296],[-8.2998,41.37075],[-8.30004,41.36563],[-8.30799,41.36279],[-8.31065,41.35981],[-8.31764,41.35731],[-8.31797,41.35605],[-8.31645,41.35126],[-8.31869,41.34704],[-8.32046,41.34565],[-8.32908,41.34178],[-8.33975,41.33497],[-8.34699,41.33589],[-8.35181,41.33371],[-8.35425,41.33398],[-8.3661,41.33328],[-8.36995,41.33244],[-8.37216,41.33288],[-8.37572,41.3358],[-8.38424,41.33722],[-8.3893,41.33464],[-8.39367,41.33354],[-8.39549,41.33092],[-8.3998,41.32916],[-8.39573,41.32675],[-8.39184,41.32137],[-8.39222,41.31954],[-8.39497,41.31682],[-8.39603,41.31288],[-8.40002,41.30917],[-8.40863,41.30529],[-8.40944,41.30614],[-8.41436,41.30445],[-8.4167,41.30262],[-8.42097,41.30203],[-8.42782,41.29857],[-8.4299,41.29797],[-8.42889,41.28919],[-8.42927,41.28689],[-8.43381,41.27797],[-8.4421,41.27079],[-8.45033,41.26203],[-8.4492,41.25975],[-8.45243,41.24642],[-8.45216,41.24334],[-8.44011,41.24446]]]]}}]}