{"type":"FeatureCollection","_provenance":{"authority":"Direção-Geral do Território — CAOP 2025 (freguesia and concelho geometry) / DL 173/2009 and Portaria 296/2010 (membership)","licence":"CC BY 4.0","attribution":"Direção-Geral do Território","method":"freguesia-union: CAOP 2025 freguesias dissolved per the freguesia lists in the statutes, resolved through an explicit concordance (data/wine-map/portugal-subregion-membership.json). mapshaper 6% Visvalingam simplify with keep-shapes, interior rings dropped, 5dp, parts under ~0.1 km2 dropped. Where a statute names a freguesia only in part, or names individual quintas, the whole present-day unit is included and the exception is recorded in properties.partial.","caveat":"DL 173/2009 states that the Douro outlines correspond to the administrative boundaries in force in 1921, so present-day freguesia geometry approximates the legal area even before the 2013 amalgamations.","reviewed_at":"2026-09-10"},"features":[{"type":"Feature","properties":{"name":"douro-baixo-corgo","units":26,"statute_names":29,"whole_concelhos":3,"legal":"DL 173/2009 art. 2.1(a). Whole concelhos of Mesao Frio, Peso da Regua and Santa Marta de Penaguiao, plus named freguesias of Vila Real, Armamar, Lamego and Resende.","partial":{"Vila Real / Nossa Senhora da Conceição":"statute says (parte); the modern Vila Real freguesia absorbs it whole","Lamego / Várzea de Abrunhais":"statute includes only the Quintas de Foutoura, do Prado and das Várzeas"}},"geometry":{"type":"MultiPolygon","coordinates":[[[[-7.89979,41.1205],[-7.89751,41.11997],[-7.89434,41.12173],[-7.89166,41.12022],[-7.8891,41.12102],[-7.88602,41.11936],[-7.87623,41.11594],[-7.87501,41.11527],[-7.87423,41.11382],[-7.87132,41.11077],[-7.87078,41.10977],[-7.8694,41.1091],[-7.86031,41.10273],[-7.85981,41.10539],[-7.85479,41.10865],[-7.8507,41.11111],[-7.85035,41.11271],[-7.85059,41.11435],[-7.8521,41.11713],[-7.85301,41.11975],[-7.84703,41.12364],[-7.84613,41.12563],[-7.84442,41.12645],[-7.84385,41.12843],[-7.8392,41.12936],[-7.83833,41.12927],[-7.83657,41.13028],[-7.83591,41.12869],[-7.83491,41.12801],[-7.83246,41.12921],[-7.82984,41.12883],[-7.82839,41.12859],[-7.82773,41.12693],[-7.82939,41.12495],[-7.82812,41.12333],[-7.8288,41.12168],[-7.8299,41.12074],[-7.82834,41.11986],[-7.82653,41.11976],[-7.8237,41.11626],[-7.82545,41.11517],[-7.82435,41.11273],[-7.8255,41.11031],[-7.82498,41.10913],[-7.82737,41.10822],[-7.82894,41.10899],[-7.82992,41.10751],[-7.8324,41.10885],[-7.83534,41.10997],[-7.83608,41.11137],[-7.8377,41.11044],[-7.84015,41.10965],[-7.83944,41.10858],[-7.84194,41.10812],[-7.84569,41.10508],[-7.8465,41.09805],[-7.84457,41.09547],[-7.84192,41.09287],[-7.84095,41.09092],[-7.83959,41.09033],[-7.83834,41.08862],[-7.8384,41.08783],[-7.83656,41.08707],[-7.83796,41.08565],[-7.83647,41.08345],[-7.83502,41.08366],[-7.83264,41.08556],[-7.83188,41.08695],[-7.82983,41.08715],[-7.82763,41.08868],[-7.82527,41.08941],[-7.82269,41.08897],[-7.82044,41.09045],[-7.81697,41.08976],[-7.81583,41.08852],[-7.81461,41.08923],[-7.81294,41.08815],[-7.81019,41.08768],[-7.80942,41.08829],[-7.80756,41.0883],[-7.80838,41.08634],[-7.81166,41.08236],[-7.81209,41.0814],[-7.81386,41.0805],[-7.81603,41.08056],[-7.81742,41.07794],[-7.81667,41.07646],[-7.8132,41.07523],[-7.81325,41.0738],[-7.81122,41.07417],[-7.81026,41.07581],[-7.80733,41.07796],[-7.80407,41.0789],[-7.80365,41.07971],[-7.80117,41.07885],[-7.79938,41.07928],[-7.79731,41.07914],[-7.79455,41.07799],[-7.79073,41.07788],[-7.78967,41.07959],[-7.78699,41.07798],[-7.78629,41.07647],[-7.78468,41.07603],[-7.78462,41.07372],[-7.78343,41.0724],[-7.78188,41.07174],[-7.78248,41.07067],[-7.78155,41.06905],[-7.77824,41.0682],[-7.77776,41.067],[-7.77588,41.06664],[-7.77337,41.06534],[-7.77117,41.06486],[-7.76951,41.06401],[-7.76597,41.06519],[-7.76449,41.06642],[-7.76199,41.0674],[-7.75941,41.06946],[-7.75491,41.06845],[-7.7548,41.069],[-7.74955,41.07222],[-7.75289,41.07373],[-7.75354,41.07437],[-7.75535,41.07404],[-7.75592,41.07559],[-7.75525,41.07636],[-7.75497,41.0795],[-7.75668,41.08087],[-7.75584,41.08237],[-7.75628,41.08335],[-7.75588,41.08528],[-7.75687,41.08661],[-7.7561,41.08991],[-7.75767,41.09151],[-7.75776,41.09232],[-7.75211,41.0941],[-7.75149,41.09593],[-7.74965,41.09636],[-7.74878,41.09773],[-7.74747,41.09815],[-7.74716,41.09989],[-7.74636,41.10097],[-7.74659,41.10208],[-7.744,41.10539],[-7.74165,41.10337],[-7.7392,41.10279],[-7.73813,41.10189],[-7.73698,41.10411],[-7.7346,41.10476],[-7.73242,41.10575],[-7.73147,41.10669],[-7.72842,41.10839],[-7.7271,41.10981],[-7.72627,41.1098],[-7.72534,41.1081],[-7.72537,41.10341],[-7.72658,41.09976],[-7.72361,41.09564],[-7.72149,41.08904],[-7.72123,41.09248],[-7.72025,41.09392],[-7.71652,41.09411],[-7.71322,41.09501],[-7.71214,41.09597],[-7.71035,41.09534],[-7.70742,41.09528],[-7.70715,41.09654],[-7.70542,41.09669],[-7.70339,41.09744],[-7.70203,41.09712],[-7.7007,41.09758],[-7.69754,41.09677],[-7.69568,41.09671],[-7.69478,41.09466],[-7.69544,41.09274],[-7.69506,41.09148],[-7.69806,41.08797],[-7.69757,41.08597],[-7.69788,41.08418],[-7.69714,41.08353],[-7.69361,41.08411],[-7.69275,41.08485],[-7.69248,41.08636],[-7.68927,41.08734],[-7.6856,41.08658],[-7.68218,41.08541],[-7.68154,41.08431],[-7.67909,41.08503],[-7.67598,41.08484],[-7.67189,41.08657],[-7.67032,41.08633],[-7.66724,41.08695],[-7.66815,41.08911],[-7.66866,41.09261],[-7.66834,41.09339],[-7.66881,41.09681],[-7.6705,41.09955],[-7.66863,41.10154],[-7.66869,41.10244],[-7.66588,41.10548],[-7.66356,41.10625],[-7.65922,41.10519],[-7.6565,41.10568],[-7.65436,41.10649],[-7.65304,41.10552],[-7.64696,41.10334],[-7.64555,41.10232],[-7.63765,41.10366],[-7.63116,41.10587],[-7.62726,41.10597],[-7.62825,41.10741],[-7.62883,41.1103],[-7.62949,41.11103],[-7.62927,41.11251],[-7.63072,41.11463],[-7.63149,41.1178],[-7.63198,41.11947],[-7.63192,41.12176],[-7.63246,41.12283],[-7.63211,41.12521],[-7.63296,41.12714],[-7.63326,41.12914],[-7.63231,41.13218],[-7.63024,41.13329],[-7.63073,41.1339],[-7.63354,41.13427],[-7.6356,41.13315],[-7.63614,41.13362],[-7.63599,41.13593],[-7.63457,41.13688],[-7.6318,41.13801],[-7.62979,41.13797],[-7.62772,41.1394],[-7.62622,41.13973],[-7.6258,41.14055],[-7.62269,41.14316],[-7.62412,41.14397],[-7.626,41.14609],[-7.62795,41.14723],[-7.63073,41.148],[-7.63454,41.15],[-7.63726,41.15215],[-7.63793,41.15472],[-7.6387,41.15505],[-7.64028,41.1588],[-7.64121,41.15891],[-7.64916,41.16094],[-7.65643,41.16242],[-7.65777,41.16295],[-7.65813,41.16487],[-7.65628,41.16673],[-7.65429,41.16781],[-7.652,41.16806],[-7.65122,41.16963],[-7.64953,41.17048],[-7.65115,41.17128],[-7.65027,41.17397],[-7.6515,41.1772],[-7.65027,41.17709],[-7.64892,41.17831],[-7.64818,41.17969],[-7.64693,41.1809],[-7.64688,41.18193],[-7.64303,41.18452],[-7.64126,41.18394],[-7.6406,41.18499],[-7.63897,41.18587],[-7.64067,41.18887],[-7.64065,41.19029],[-7.64292,41.19136],[-7.64177,41.19245],[-7.64425,41.19287],[-7.64339,41.19621],[-7.64415,41.19957],[-7.64645,41.20122],[-7.64667,41.20362],[-7.64635,41.20457],[-7.64691,41.20667],[-7.64662,41.20823],[-7.64542,41.20969],[-7.64463,41.21217],[-7.64648,41.21227],[-7.64844,41.21348],[-7.64942,41.21456],[-7.65285,41.21531],[-7.65347,41.21668],[-7.65538,41.21708],[-7.65518,41.21868],[-7.65296,41.22147],[-7.65237,41.22292],[-7.6536,41.22372],[-7.65472,41.22473],[-7.65427,41.22582],[-7.65273,41.22701],[-7.64825,41.22953],[-7.64739,41.23257],[-7.64798,41.23356],[-7.64963,41.23397],[-7.65112,41.23512],[-7.65069,41.23643],[-7.65278,41.23988],[-7.65514,41.24079],[-7.65703,41.24063],[-7.66438,41.23883],[-7.66494,41.23818],[-7.66885,41.23765],[-7.67073,41.23611],[-7.67343,41.23457],[-7.67687,41.23444],[-7.67939,41.23532],[-7.67993,41.23625],[-7.6786,41.23829],[-7.68005,41.23994],[-7.6835,41.24103],[-7.68632,41.24064],[-7.68887,41.2398],[-7.69043,41.23998],[-7.6924,41.24088],[-7.69508,41.24141],[-7.69676,41.24075],[-7.69812,41.23884],[-7.69665,41.23854],[-7.69736,41.2362],[-7.69851,41.23573],[-7.69934,41.23676],[-7.70225,41.23762],[-7.70569,41.23608],[-7.70663,41.23414],[-7.70776,41.23389],[-7.7108,41.23664],[-7.71255,41.23641],[-7.72068,41.24092],[-7.72169,41.24226],[-7.72297,41.24284],[-7.71945,41.24919],[-7.71687,41.25041],[-7.71479,41.25231],[-7.71426,41.25421],[-7.71197,41.25537],[-7.70962,41.25593],[-7.70652,41.25614],[-7.70473,41.2568],[-7.70194,41.25843],[-7.69916,41.25867],[-7.69897,41.25928],[-7.70045,41.26059],[-7.70062,41.26179],[-7.70003,41.26461],[-7.70031,41.26652],[-7.7116,41.27412],[-7.71657,41.27562],[-7.71747,41.27648],[-7.71725,41.27787],[-7.71579,41.27931],[-7.71869,41.27988],[-7.72074,41.2807],[-7.72208,41.28176],[-7.7223,41.2832],[-7.72434,41.28447],[-7.72799,41.28467],[-7.72658,41.28844],[-7.72663,41.29019],[-7.72858,41.29045],[-7.72986,41.29114],[-7.72828,41.29392],[-7.72683,41.29324],[-7.72262,41.29295],[-7.71983,41.29245],[-7.71814,41.29319],[-7.71635,41.29157],[-7.71322,41.29238],[-7.71199,41.29483],[-7.71017,41.29506],[-7.7089,41.29649],[-7.70703,41.29699],[-7.70486,41.29607],[-7.70319,41.29604],[-7.69796,41.29723],[-7.69562,41.29832],[-7.69495,41.30157],[-7.694,41.30282],[-7.69355,41.30462],[-7.69506,41.30645],[-7.6986,41.30822],[-7.70411,41.30547],[-7.70698,41.30767],[-7.71564,41.31138],[-7.71814,41.31275],[-7.7206,41.31342],[-7.72945,41.31583],[-7.73175,41.31472],[-7.7338,41.31465],[-7.73546,41.31545],[-7.73795,41.31603],[-7.74052,41.31745],[-7.74242,41.3181],[-7.74507,41.31691],[-7.7473,41.3154],[-7.74817,41.3142],[-7.74971,41.31324],[-7.75221,41.31004],[-7.75327,41.30949],[-7.75435,41.30801],[-7.7543,41.30698],[-7.75266,41.30592],[-7.75375,41.30384],[-7.75547,41.30365],[-7.75702,41.30415],[-7.75939,41.30132],[-7.75891,41.30003],[-7.75994,41.29785],[-7.76154,41.29848],[-7.76321,41.29847],[-7.76499,41.29519],[-7.7648,41.29444],[-7.767,41.29354],[-7.76724,41.29255],[-7.7666,41.29093],[-7.77004,41.28649],[-7.77166,41.28678],[-7.77373,41.28634],[-7.7751,41.28516],[-7.77836,41.28429],[-7.7798,41.28428],[-7.78519,41.28164],[-7.78775,41.28226],[-7.78776,41.27956],[-7.78904,41.2782],[-7.7888,41.27572],[-7.79012,41.27397],[-7.79029,41.27233],[-7.78912,41.27137],[-7.78985,41.26996],[-7.78719,41.27053],[-7.78497,41.2701],[-7.78476,41.26895],[-7.78351,41.2681],[-7.78361,41.26673],[-7.78103,41.26723],[-7.78032,41.26813],[-7.77851,41.26856],[-7.7765,41.26829],[-7.77594,41.2696],[-7.77294,41.27041],[-7.77119,41.27002],[-7.77122,41.26917],[-7.7701,41.26713],[-7.77071,41.26554],[-7.77267,41.26517],[-7.77269,41.2642],[-7.77534,41.26339],[-7.77804,41.26399],[-7.78031,41.26033],[-7.77984,41.25935],[-7.78185,41.2574],[-7.7807,41.25593],[-7.78097,41.25471],[-7.77952,41.25299],[-7.78098,41.24911],[-7.78376,41.24724],[-7.78498,41.24725],[-7.78839,41.24644],[-7.78887,41.24754],[-7.79025,41.2482],[-7.79004,41.24925],[-7.79279,41.25002],[-7.79514,41.24999],[-7.79587,41.25172],[-7.79847,41.2518],[-7.7987,41.25311],[-7.79717,41.2543],[-7.79795,41.2548],[-7.7971,41.2574],[-7.79785,41.25749],[-7.79815,41.25953],[-7.79886,41.26044],[-7.80122,41.26081],[-7.80463,41.25765],[-7.80732,41.25772],[-7.80829,41.25663],[-7.81133,41.25569],[-7.81208,41.25672],[-7.81399,41.25775],[-7.81593,41.25995],[-7.81729,41.25987],[-7.81747,41.26106],[-7.81906,41.2622],[-7.82117,41.26144],[-7.82353,41.26324],[-7.82391,41.26418],[-7.82696,41.26527],[-7.82944,41.26568],[-7.83137,41.26436],[-7.83507,41.26418],[-7.83777,41.26473],[-7.83831,41.26428],[-7.84026,41.26556],[-7.8415,41.26514],[-7.8437,41.26229],[-7.84654,41.26353],[-7.8483,41.26301],[-7.85042,41.263],[-7.85324,41.26361],[-7.85515,41.26602],[-7.85723,41.2662],[-7.86105,41.26572],[-7.86094,41.26455],[-7.86185,41.26343],[-7.86384,41.26379],[-7.86524,41.26459],[-7.86733,41.2637],[-7.86871,41.26382],[-7.86958,41.2616],[-7.87568,41.26214],[-7.8769,41.26286],[-7.87844,41.26244],[-7.88126,41.2596],[-7.88456,41.25718],[-7.88681,41.25665],[-7.8891,41.255],[-7.89213,41.25201],[-7.89344,41.25144],[-7.89573,41.24893],[-7.89115,41.24858],[-7.88697,41.24847],[-7.88231,41.24693],[-7.87979,41.24556],[-7.87558,41.24205],[-7.87785,41.24091],[-7.87937,41.23713],[-7.87977,41.23426],[-7.87908,41.23217],[-7.88178,41.23064],[-7.88358,41.2283],[-7.88442,41.22589],[-7.88638,41.223],[-7.88828,41.2178],[-7.89177,41.2137],[-7.89208,41.21066],[-7.89409,41.20924],[-7.8933,41.20603],[-7.89034,41.20244],[-7.88986,41.1987],[-7.88995,41.19582],[-7.88797,41.18909],[-7.89028,41.18633],[-7.89059,41.18449],[-7.89035,41.18276],[-7.89268,41.18079],[-7.89722,41.17472],[-7.89848,41.17458],[-7.89894,41.17286],[-7.89834,41.17125],[-7.89684,41.17104],[-7.89584,41.16798],[-7.89712,41.16706],[-7.89413,41.16536],[-7.8937,41.16397],[-7.89245,41.1642],[-7.88956,41.16294],[-7.89191,41.16147],[-7.893,41.16169],[-7.89284,41.15952],[-7.89672,41.15818],[-7.90052,41.15581],[-7.90202,41.15607],[-7.9037,41.15474],[-7.90251,41.15348],[-7.9006,41.15238],[-7.90036,41.15076],[-7.90217,41.14908],[-7.90119,41.14727],[-7.90352,41.14571],[-7.90502,41.14512],[-7.90874,41.14272],[-7.90983,41.14113],[-7.91145,41.13989],[-7.91239,41.13854],[-7.9136,41.13496],[-7.91244,41.13299],[-7.91264,41.12915],[-7.91146,41.12702],[-7.91229,41.12488],[-7.91237,41.12319],[-7.91171,41.12261],[-7.91186,41.11989],[-7.90929,41.1196],[-7.90586,41.11874],[-7.9016,41.11931],[-7.89979,41.1205]]]]}},{"type":"Feature","properties":{"name":"douro-cima-corgo","units":51,"statute_names":66,"whole_concelhos":0,"legal":"DL 173/2009 art. 2.1(b). Named freguesias of Alijo, Murca, Sabrosa, Sao Joao da Pesqueira, Tabuaco and Carrazeda de Ansiaes.","partial":{}},"geometry":{"type":"MultiPolygon","coordinates":[[[[-7.4899,41.30157],[-7.49548,41.30186],[-7.49982,41.30324],[-7.50141,41.30227],[-7.50317,41.30322],[-7.50458,41.30275],[-7.50519,41.30379],[-7.50421,41.30536],[-7.50546,41.30588],[-7.50723,41.30856],[-7.50697,41.30976],[-7.51033,41.31034],[-7.51169,41.31112],[-7.51207,41.3122],[-7.51393,41.31189],[-7.51451,41.31136],[-7.51611,41.31188],[-7.51843,41.3109],[-7.51941,41.31179],[-7.5214,41.31137],[-7.52242,41.31228],[-7.52211,41.31298],[-7.52048,41.31347],[-7.52017,41.31525],[-7.51834,41.31572],[-7.51835,41.31721],[-7.51886,41.31861],[-7.52134,41.31911],[-7.5217,41.32032],[-7.52011,41.32199],[-7.51639,41.32439],[-7.51639,41.32493],[-7.51458,41.32623],[-7.51345,41.32644],[-7.51153,41.32804],[-7.51114,41.32942],[-7.51168,41.33054],[-7.51099,41.33231],[-7.50983,41.33334],[-7.50763,41.33401],[-7.50526,41.3356],[-7.50327,41.33835],[-7.5015,41.34157],[-7.50098,41.34465],[-7.5048,41.34338],[-7.50708,41.3429],[-7.51784,41.34114],[-7.52108,41.34047],[-7.52202,41.33994],[-7.5251,41.33708],[-7.5262,41.33575],[-7.52893,41.33734],[-7.53015,41.33879],[-7.53215,41.34441],[-7.53384,41.34817],[-7.53879,41.34677],[-7.54235,41.34478],[-7.54381,41.34333],[-7.54538,41.3427],[-7.54761,41.34224],[-7.55249,41.34187],[-7.55596,41.34179],[-7.56014,41.34221],[-7.56476,41.34223],[-7.56563,41.34193],[-7.5665,41.34068],[-7.56821,41.33984],[-7.5691,41.33853],[-7.57163,41.33676],[-7.57274,41.33635],[-7.57414,41.33495],[-7.57487,41.33358],[-7.57659,41.33166],[-7.57669,41.33065],[-7.57545,41.33042],[-7.57381,41.32945],[-7.57367,41.32856],[-7.57563,41.32742],[-7.5747,41.32526],[-7.5721,41.32536],[-7.57081,41.32459],[-7.57048,41.32275],[-7.57257,41.3228],[-7.57404,41.32228],[-7.57076,41.32009],[-7.5697,41.3187],[-7.57098,41.31755],[-7.57012,41.3165],[-7.56821,41.3156],[-7.57044,41.31421],[-7.57133,41.31307],[-7.56981,41.31221],[-7.56989,41.31143],[-7.57117,41.31077],[-7.57306,41.31042],[-7.57272,41.30954],[-7.57076,41.30886],[-7.57112,41.30738],[-7.57345,41.30716],[-7.5801,41.30585],[-7.58235,41.30471],[-7.58868,41.29981],[-7.59115,41.29851],[-7.59309,41.2979],[-7.59554,41.29667],[-7.59705,41.29526],[-7.59978,41.29118],[-7.60097,41.29005],[-7.60263,41.28915],[-7.60533,41.28884],[-7.60732,41.2893],[-7.60811,41.28983],[-7.60926,41.29205],[-7.61148,41.29338],[-7.61117,41.2957],[-7.61202,41.29745],[-7.61505,41.30054],[-7.61661,41.30171],[-7.61752,41.30089],[-7.61927,41.29827],[-7.62058,41.29769],[-7.62137,41.29647],[-7.62082,41.29535],[-7.62114,41.29457],[-7.62324,41.29283],[-7.62675,41.29098],[-7.6278,41.28932],[-7.6289,41.28846],[-7.63018,41.28661],[-7.63237,41.28282],[-7.6319,41.2817],[-7.63048,41.28092],[-7.63039,41.28024],[-7.63167,41.27922],[-7.63256,41.27744],[-7.63541,41.27624],[-7.63797,41.27677],[-7.63926,41.27567],[-7.63809,41.27454],[-7.63829,41.27381],[-7.63967,41.27318],[-7.64167,41.27311],[-7.6436,41.27244],[-7.64425,41.27103],[-7.64397,41.26965],[-7.64476,41.26901],[-7.64663,41.26923],[-7.64911,41.26786],[-7.65116,41.26587],[-7.65324,41.26531],[-7.65368,41.26484],[-7.64585,41.26376],[-7.63701,41.26022],[-7.64073,41.25367],[-7.64301,41.25344],[-7.64537,41.25256],[-7.64733,41.25065],[-7.65159,41.24859],[-7.65197,41.24552],[-7.65188,41.24372],[-7.65105,41.24294],[-7.649,41.23791],[-7.65069,41.23644],[-7.65112,41.23512],[-7.64963,41.23397],[-7.64798,41.23356],[-7.64739,41.23257],[-7.64772,41.23061],[-7.64825,41.22953],[-7.65273,41.22701],[-7.65268,41.2263],[-7.65427,41.22582],[-7.65472,41.22473],[-7.65237,41.22292],[-7.65296,41.22147],[-7.65518,41.21868],[-7.65538,41.21708],[-7.65347,41.21668],[-7.65285,41.21531],[-7.65123,41.21514],[-7.6506,41.21442],[-7.64942,41.21456],[-7.64844,41.21348],[-7.64648,41.21227],[-7.64463,41.21217],[-7.64542,41.20969],[-7.64662,41.20823],[-7.64691,41.20667],[-7.64635,41.20457],[-7.64667,41.20362],[-7.64534,41.20263],[-7.64659,41.20218],[-7.64645,41.20122],[-7.64492,41.20047],[-7.64408,41.19947],[-7.64385,41.19755],[-7.64488,41.19677],[-7.64339,41.19621],[-7.64389,41.19514],[-7.64425,41.19287],[-7.64177,41.19245],[-7.64292,41.19136],[-7.64204,41.1906],[-7.64065,41.19029],[-7.64067,41.18887],[-7.63981,41.18823],[-7.63982,41.18735],[-7.63897,41.18587],[-7.6406,41.18499],[-7.64126,41.18394],[-7.64303,41.18452],[-7.64688,41.18193],[-7.64693,41.1809],[-7.64848,41.17946],[-7.64892,41.17831],[-7.65027,41.17709],[-7.6515,41.1772],[-7.65027,41.17397],[-7.65115,41.17128],[-7.64953,41.17048],[-7.65122,41.16963],[-7.652,41.16806],[-7.65429,41.16781],[-7.65628,41.16673],[-7.65673,41.16576],[-7.65813,41.16487],[-7.65777,41.16295],[-7.65643,41.16242],[-7.64916,41.16094],[-7.64121,41.15891],[-7.64028,41.1588],[-7.63914,41.15666],[-7.6387,41.15505],[-7.63793,41.15472],[-7.63726,41.15215],[-7.63454,41.15],[-7.63073,41.148],[-7.62795,41.14723],[-7.626,41.14609],[-7.62412,41.14397],[-7.62269,41.14316],[-7.6258,41.14055],[-7.62639,41.13958],[-7.62772,41.1394],[-7.62979,41.13797],[-7.6318,41.13801],[-7.63457,41.13688],[-7.63599,41.13593],[-7.63614,41.13362],[-7.6356,41.13315],[-7.63354,41.13427],[-7.63073,41.1339],[-7.63024,41.13329],[-7.63231,41.13218],[-7.63304,41.13072],[-7.63326,41.12914],[-7.63296,41.12714],[-7.63211,41.12521],[-7.63246,41.12283],[-7.63192,41.12176],[-7.63191,41.11892],[-7.63111,41.11666],[-7.63072,41.11463],[-7.62927,41.11251],[-7.62949,41.11103],[-7.62883,41.1103],[-7.62825,41.10741],[-7.62724,41.10608],[-7.62705,41.10291],[-7.62205,41.103],[-7.62083,41.10272],[-7.61952,41.10516],[-7.62215,41.10544],[-7.62207,41.10611],[-7.62081,41.10674],[-7.62223,41.11197],[-7.62221,41.11471],[-7.62185,41.11553],[-7.62074,41.11574],[-7.61474,41.11453],[-7.61274,41.11471],[-7.61181,41.114],[-7.60728,41.11337],[-7.60179,41.11054],[-7.59941,41.10973],[-7.59525,41.10889],[-7.5986,41.10092],[-7.59078,41.10453],[-7.57956,41.10303],[-7.57613,41.10272],[-7.57295,41.10202],[-7.5685,41.10157],[-7.56469,41.10139],[-7.55945,41.10045],[-7.55452,41.09788],[-7.54599,41.0958],[-7.54594,41.09145],[-7.54798,41.0886],[-7.54895,41.08644],[-7.54736,41.08332],[-7.54675,41.08108],[-7.54836,41.08007],[-7.54918,41.07825],[-7.5494,41.07372],[-7.54992,41.07267],[-7.55151,41.07141],[-7.55131,41.06921],[-7.55084,41.06876],[-7.55284,41.06581],[-7.55532,41.05828],[-7.55608,41.0564],[-7.55621,41.05397],[-7.55594,41.05289],[-7.55646,41.05083],[-7.55602,41.04887],[-7.55669,41.04668],[-7.55896,41.04494],[-7.55877,41.04303],[-7.55974,41.04124],[-7.56063,41.03853],[-7.56432,41.03132],[-7.56525,41.02858],[-7.55833,41.02269],[-7.5558,41.01995],[-7.55347,41.0219],[-7.55222,41.02137],[-7.54587,41.01463],[-7.53905,41.01001],[-7.53777,41.00936],[-7.53539,41.00723],[-7.53337,41.00588],[-7.53213,41.0063],[-7.53099,41.0057],[-7.53006,41.00808],[-7.52789,41.01176],[-7.52659,41.01465],[-7.52478,41.01607],[-7.52354,41.01656],[-7.52211,41.01885],[-7.52043,41.02066],[-7.51866,41.02067],[-7.51712,41.02108],[-7.514,41.02139],[-7.51201,41.02263],[-7.5089,41.02659],[-7.50829,41.02855],[-7.50824,41.02992],[-7.50705,41.03179],[-7.50754,41.03232],[-7.51074,41.03162],[-7.51232,41.03215],[-7.51302,41.03306],[-7.51146,41.03499],[-7.50864,41.03765],[-7.50628,41.03919],[-7.50413,41.03994],[-7.50348,41.04069],[-7.50376,41.0423],[-7.50456,41.04385],[-7.5045,41.04608],[-7.50133,41.04458],[-7.50061,41.04385],[-7.49811,41.04544],[-7.4964,41.04719],[-7.48466,41.0417],[-7.47726,41.04094],[-7.46962,41.04036],[-7.45801,41.04071],[-7.45078,41.04042],[-7.44997,41.0441],[-7.44879,41.04797],[-7.44598,41.05239],[-7.44509,41.05302],[-7.44258,41.0564],[-7.43837,41.05977],[-7.43677,41.06081],[-7.42709,41.06018],[-7.42202,41.06026],[-7.41694,41.06154],[-7.41532,41.06149],[-7.41448,41.061],[-7.4125,41.06092],[-7.41142,41.0604],[-7.41016,41.06052],[-7.40774,41.06206],[-7.40857,41.06438],[-7.40788,41.06555],[-7.4088,41.06613],[-7.40811,41.06774],[-7.40677,41.06869],[-7.40794,41.06995],[-7.40615,41.06974],[-7.40393,41.06992],[-7.40287,41.06928],[-7.39839,41.06805],[-7.39587,41.06758],[-7.39503,41.06603],[-7.3935,41.06601],[-7.39142,41.06538],[-7.38887,41.06528],[-7.38698,41.06549],[-7.38573,41.06664],[-7.38438,41.06668],[-7.38352,41.06731],[-7.38127,41.06718],[-7.3802,41.06785],[-7.37874,41.06594],[-7.37955,41.0638],[-7.37958,41.06226],[-7.37787,41.06205],[-7.37793,41.06315],[-7.37664,41.0639],[-7.37474,41.06404],[-7.37403,41.06341],[-7.37443,41.0623],[-7.37738,41.06063],[-7.37749,41.05967],[-7.37874,41.05824],[-7.37701,41.05744],[-7.377,41.05591],[-7.37457,41.05623],[-7.37203,41.05525],[-7.37184,41.05402],[-7.37083,41.05396],[-7.3686,41.05625],[-7.36626,41.05617],[-7.36595,41.05519],[-7.36393,41.05373],[-7.36293,41.05363],[-7.35955,41.05572],[-7.35829,41.05601],[-7.35486,41.055],[-7.35383,41.05519],[-7.35206,41.05709],[-7.35031,41.05703],[-7.34883,41.05535],[-7.34763,41.05473],[-7.34467,41.05581],[-7.34298,41.05742],[-7.3408,41.05825],[-7.33993,41.05933],[-7.3396,41.06133],[-7.33992,41.06248],[-7.33984,41.06451],[-7.33936,41.06539],[-7.33869,41.06802],[-7.33741,41.06945],[-7.33622,41.07219],[-7.33606,41.0736],[-7.3326,41.07456],[-7.33237,41.07652],[-7.32996,41.07834],[-7.33062,41.08009],[-7.3302,41.08118],[-7.33136,41.08215],[-7.33038,41.08408],[-7.33147,41.08512],[-7.33175,41.08614],[-7.3314,41.08778],[-7.32992,41.08923],[-7.32914,41.09089],[-7.32922,41.09177],[-7.32819,41.0927],[-7.32785,41.09448],[-7.32848,41.10113],[-7.32809,41.10296],[-7.32818,41.10437],[-7.32618,41.10613],[-7.32601,41.10663],[-7.32541,41.10955],[-7.32367,41.11469],[-7.32422,41.11665],[-7.323,41.118],[-7.32293,41.11909],[-7.31823,41.12103],[-7.314,41.12631],[-7.31368,41.12808],[-7.31184,41.13164],[-7.31118,41.1318],[-7.31029,41.13339],[-7.30903,41.13455],[-7.30909,41.13546],[-7.3077,41.13739],[-7.30585,41.13816],[-7.30457,41.13952],[-7.30371,41.13935],[-7.2978,41.13948],[-7.29408,41.13866],[-7.28957,41.13705],[-7.28622,41.13617],[-7.28288,41.13549],[-7.28078,41.13576],[-7.27906,41.13669],[-7.27731,41.13841],[-7.27429,41.14019],[-7.26864,41.14235],[-7.26473,41.14318],[-7.2543,41.14485],[-7.2495,41.145],[-7.24586,41.14419],[-7.2402,41.14199],[-7.23507,41.14083],[-7.23259,41.1399],[-7.23046,41.13875],[-7.22917,41.13804],[-7.22601,41.13685],[-7.22371,41.13637],[-7.22355,41.13804],[-7.22254,41.14089],[-7.22144,41.14115],[-7.22192,41.14211],[-7.2205,41.14312],[-7.22027,41.14405],[-7.21895,41.14378],[-7.21538,41.14648],[-7.21493,41.14738],[-7.21571,41.14866],[-7.21431,41.14951],[-7.21403,41.15123],[-7.21445,41.1521],[-7.2139,41.15344],[-7.21427,41.15668],[-7.21389,41.15933],[-7.21299,41.16126],[-7.2127,41.16291],[-7.21255,41.16648],[-7.21186,41.16955],[-7.2121,41.17224],[-7.21169,41.17349],[-7.21217,41.17519],[-7.21126,41.17619],[-7.21072,41.17912],[-7.21015,41.18045],[-7.20882,41.18095],[-7.20717,41.18088],[-7.20562,41.1824],[-7.20336,41.18307],[-7.20192,41.18303],[-7.19728,41.18401],[-7.19564,41.18463],[-7.19446,41.18565],[-7.1919,41.18862],[-7.18849,41.19116],[-7.18717,41.19271],[-7.18687,41.19396],[-7.18807,41.19612],[-7.18803,41.19692],[-7.189,41.19813],[-7.18654,41.20142],[-7.18819,41.20216],[-7.19081,41.20381],[-7.19686,41.207],[-7.20034,41.20759],[-7.20195,41.20822],[-7.20176,41.20972],[-7.20208,41.21321],[-7.20048,41.21542],[-7.20141,41.21653],[-7.20027,41.21822],[-7.20048,41.21925],[-7.19984,41.22089],[-7.19787,41.22436],[-7.19675,41.22771],[-7.1966,41.22967],[-7.19488,41.23181],[-7.19609,41.23289],[-7.19832,41.23425],[-7.20086,41.23451],[-7.20156,41.23428],[-7.20454,41.23449],[-7.20672,41.23392],[-7.21072,41.23226],[-7.2125,41.23123],[-7.2137,41.22991],[-7.21694,41.22852],[-7.21828,41.22818],[-7.22067,41.22833],[-7.22536,41.22792],[-7.22813,41.22858],[-7.23093,41.23014],[-7.23233,41.22828],[-7.2317,41.22667],[-7.23138,41.22449],[-7.23222,41.22377],[-7.23398,41.22333],[-7.23687,41.21956],[-7.2388,41.2168],[-7.24006,41.21548],[-7.24011,41.21383],[-7.23963,41.21252],[-7.24072,41.21082],[-7.24041,41.21016],[-7.24173,41.20911],[-7.24168,41.2082],[-7.24251,41.20745],[-7.2413,41.20635],[-7.24231,41.20496],[-7.24329,41.20582],[-7.24688,41.20715],[-7.24884,41.20722],[-7.24959,41.20787],[-7.25167,41.21123],[-7.25886,41.21003],[-7.2645,41.20961],[-7.26526,41.21164],[-7.26777,41.21421],[-7.26955,41.21716],[-7.27698,41.22015],[-7.28056,41.22102],[-7.28124,41.22159],[-7.28379,41.22251],[-7.28563,41.22237],[-7.28792,41.22287],[-7.29,41.2239],[-7.29142,41.22404],[-7.292,41.22493],[-7.29106,41.22579],[-7.29033,41.22694],[-7.28903,41.22778],[-7.28609,41.22883],[-7.28237,41.22863],[-7.28195,41.23362],[-7.29406,41.23601],[-7.29396,41.23878],[-7.28989,41.24068],[-7.2937,41.24225],[-7.29456,41.2436],[-7.29236,41.24519],[-7.29116,41.2457],[-7.29281,41.24678],[-7.29245,41.24853],[-7.29137,41.24966],[-7.29259,41.25039],[-7.2914,41.25182],[-7.28806,41.25292],[-7.28729,41.25402],[-7.28782,41.25484],[-7.28663,41.26049],[-7.28524,41.26],[-7.28458,41.25914],[-7.28176,41.25852],[-7.2796,41.26118],[-7.28352,41.26451],[-7.28666,41.26561],[-7.28708,41.26677],[-7.28924,41.26645],[-7.29277,41.26693],[-7.29403,41.26686],[-7.2969,41.26598],[-7.3001,41.26843],[-7.30679,41.26022],[-7.30925,41.25758],[-7.31005,41.257],[-7.31043,41.25577],[-7.30958,41.25516],[-7.31065,41.25286],[-7.31033,41.25165],[-7.31224,41.24998],[-7.31272,41.24823],[-7.31598,41.24457],[-7.31742,41.24389],[-7.31832,41.24398],[-7.31917,41.24308],[-7.31917,41.24133],[-7.32032,41.24007],[-7.31964,41.23874],[-7.31538,41.23759],[-7.31509,41.23621],[-7.31405,41.23457],[-7.31678,41.23304],[-7.31512,41.23243],[-7.31378,41.23152],[-7.31228,41.23117],[-7.30875,41.22954],[-7.30825,41.228],[-7.30551,41.22591],[-7.30169,41.22584],[-7.29933,41.22549],[-7.29808,41.22293],[-7.29763,41.21998],[-7.2978,41.21904],[-7.29902,41.21735],[-7.29931,41.21411],[-7.30134,41.21156],[-7.3033,41.21047],[-7.3057,41.20719],[-7.3048,41.2048],[-7.30623,41.20465],[-7.30807,41.20371],[-7.31033,41.20175],[-7.31068,41.20113],[-7.31534,41.19643],[-7.31571,41.19563],[-7.31761,41.19355],[-7.31835,41.19199],[-7.3195,41.19131],[-7.32093,41.1881],[-7.32216,41.18656],[-7.32291,41.185],[-7.32304,41.1838],[-7.3246,41.18339],[-7.32589,41.17886],[-7.32662,41.17821],[-7.32724,41.17672],[-7.32892,41.17451],[-7.33201,41.17583],[-7.33265,41.1766],[-7.33579,41.17848],[-7.3353,41.17974],[-7.33699,41.1837],[-7.33731,41.1857],[-7.33645,41.19062],[-7.33684,41.19269],[-7.33902,41.19664],[-7.33924,41.19816],[-7.33815,41.19898],[-7.33861,41.19988],[-7.33804,41.20124],[-7.33905,41.20506],[-7.34046,41.21356],[-7.33857,41.2168],[-7.33765,41.21985],[-7.33733,41.22287],[-7.33819,41.22516],[-7.34035,41.22743],[-7.33946,41.23112],[-7.33681,41.23961],[-7.3324,41.24374],[-7.33375,41.24434],[-7.34451,41.25207],[-7.34479,41.26058],[-7.3436,41.26303],[-7.34334,41.26368],[-7.34443,41.2697],[-7.34373,41.27],[-7.34261,41.27271],[-7.34247,41.27435],[-7.34072,41.27573],[-7.33738,41.27618],[-7.33608,41.2797],[-7.33301,41.28322],[-7.33208,41.28468],[-7.32892,41.28505],[-7.32333,41.288],[-7.31775,41.29049],[-7.31695,41.29249],[-7.31705,41.29334],[-7.31849,41.29429],[-7.31279,41.30025],[-7.31134,41.30075],[-7.31066,41.3026],[-7.30936,41.30338],[-7.30809,41.30547],[-7.30382,41.30452],[-7.29991,41.30534],[-7.29228,41.30578],[-7.28855,41.31006],[-7.28662,41.31193],[-7.28393,41.31269],[-7.27999,41.31247],[-7.27639,41.31247],[-7.27552,41.32158],[-7.27405,41.32491],[-7.27112,41.33092],[-7.27055,41.3328],[-7.27381,41.33392],[-7.27568,41.33401],[-7.27901,41.33514],[-7.28071,41.33526],[-7.28723,41.3353],[-7.28844,41.33502],[-7.29548,41.3359],[-7.29675,41.33473],[-7.29892,41.33374],[-7.30128,41.33427],[-7.30333,41.33586],[-7.30508,41.33679],[-7.31125,41.33749],[-7.3147,41.33839],[-7.31507,41.33967],[-7.31417,41.34145],[-7.31788,41.34221],[-7.32894,41.34531],[-7.33058,41.34549],[-7.33537,41.34718],[-7.33747,41.34874],[-7.33943,41.34986],[-7.3427,41.35041],[-7.34523,41.35134],[-7.3481,41.35163],[-7.34846,41.35298],[-7.35034,41.35423],[-7.3522,41.35481],[-7.35516,41.35744],[-7.35601,41.35782],[-7.35833,41.36178],[-7.36014,41.36294],[-7.36149,41.36465],[-7.36154,41.36591],[-7.3623,41.36681],[-7.3596,41.36982],[-7.35725,41.37098],[-7.35509,41.37175],[-7.35358,41.37556],[-7.35259,41.37656],[-7.35614,41.37678],[-7.35744,41.37858],[-7.35679,41.37937],[-7.36137,41.38197],[-7.36122,41.38341],[-7.36055,41.38408],[-7.36093,41.38543],[-7.35888,41.38532],[-7.35946,41.38629],[-7.35817,41.38804],[-7.35878,41.38866],[-7.36046,41.38804],[-7.3616,41.38861],[-7.36077,41.39008],[-7.36223,41.39085],[-7.36233,41.39248],[-7.36154,41.39451],[-7.36191,41.39537],[-7.36521,41.39635],[-7.36632,41.39692],[-7.36594,41.39958],[-7.3666,41.4004],[-7.36623,41.40386],[-7.36422,41.40431],[-7.36269,41.40532],[-7.36224,41.40648],[-7.36394,41.40749],[-7.36508,41.40872],[-7.36637,41.40952],[-7.36637,41.41133],[-7.36411,41.41274],[-7.36503,41.4144],[-7.3667,41.41481],[-7.36558,41.41583],[-7.36575,41.41661],[-7.3637,41.41748],[-7.36345,41.41829],[-7.36427,41.41929],[-7.36331,41.42073],[-7.36167,41.42166],[-7.36161,41.42268],[-7.35965,41.42441],[-7.36113,41.42586],[-7.35981,41.42824],[-7.36088,41.4299],[-7.36095,41.43194],[-7.36222,41.43401],[-7.3635,41.43474],[-7.36354,41.43578],[-7.36525,41.43642],[-7.3653,41.4388],[-7.36494,41.44021],[-7.36603,41.44102],[-7.36605,41.44227],[-7.36759,41.44428],[-7.36917,41.44543],[-7.36955,41.44695],[-7.36884,41.44807],[-7.36982,41.44936],[-7.37132,41.45001],[-7.37213,41.45083],[-7.37401,41.45169],[-7.3737,41.45334],[-7.377,41.45414],[-7.3783,41.45371],[-7.38106,41.45433],[-7.38276,41.45539],[-7.38354,41.45543],[-7.38696,41.45675],[-7.39057,41.45575],[-7.39315,41.4542],[-7.39605,41.45295],[-7.39827,41.45225],[-7.40577,41.45092],[-7.41172,41.44941],[-7.41519,41.44827],[-7.41914,41.44643],[-7.4202,41.4454],[-7.42212,41.44426],[-7.42316,41.44255],[-7.42484,41.4376],[-7.42519,41.43576],[-7.42504,41.43178],[-7.42444,41.43108],[-7.4243,41.4285],[-7.42336,41.42753],[-7.42278,41.4261],[-7.42112,41.42467],[-7.42075,41.4234],[-7.41972,41.42238],[-7.41833,41.42167],[-7.4183,41.41898],[-7.41909,41.41674],[-7.41875,41.41333],[-7.42105,41.41362],[-7.4211,41.41442],[-7.42398,41.41465],[-7.4258,41.41505],[-7.42982,41.4169],[-7.43153,41.41724],[-7.43475,41.41912],[-7.43624,41.4221],[-7.43682,41.42243],[-7.43858,41.42498],[-7.44163,41.42687],[-7.44362,41.42709],[-7.44554,41.42814],[-7.44756,41.42852],[-7.45083,41.43044],[-7.45276,41.43096],[-7.45547,41.43119],[-7.4595,41.43114],[-7.46416,41.43071],[-7.46624,41.4303],[-7.47787,41.42881],[-7.48223,41.42397],[-7.4843,41.42243],[-7.48271,41.41987],[-7.48259,41.41732],[-7.48157,41.41627],[-7.47887,41.41491],[-7.47768,41.41324],[-7.4745,41.41062],[-7.47232,41.41141],[-7.46969,41.40997],[-7.46767,41.40924],[-7.46665,41.408],[-7.46674,41.40606],[-7.46783,41.40413],[-7.46627,41.40297],[-7.46487,41.40119],[-7.46239,41.40033],[-7.46063,41.39921],[-7.45891,41.39868],[-7.45629,41.39688],[-7.45578,41.3949],[-7.45312,41.39442],[-7.45136,41.39367],[-7.45076,41.39125],[-7.44986,41.38955],[-7.45075,41.38925],[-7.45326,41.38699],[-7.45325,41.38595],[-7.457,41.38283],[-7.45781,41.38247],[-7.45846,41.38125],[-7.45859,41.37959],[-7.4583,41.37759],[-7.45803,41.37188],[-7.45813,41.37127],[-7.46298,41.36488],[-7.46572,41.36004],[-7.46783,41.35688],[-7.47033,41.3523],[-7.47197,41.34968],[-7.47351,41.34869],[-7.47338,41.34664],[-7.47249,41.34384],[-7.47292,41.34251],[-7.47091,41.34028],[-7.46953,41.33721],[-7.46416,41.33464],[-7.45844,41.33259],[-7.45575,41.33203],[-7.45264,41.33097],[-7.45362,41.32722],[-7.45408,41.32026],[-7.45441,41.31837],[-7.45542,41.31557],[-7.458,41.3112],[-7.46206,41.31112],[-7.46452,41.31073],[-7.4728,41.31042],[-7.47403,41.30989],[-7.47835,41.30669],[-7.48214,41.30449],[-7.48567,41.30295],[-7.4899,41.30157]]]]}},{"type":"Feature","properties":{"name":"douro-douro-superior","units":28,"statute_names":33,"whole_concelhos":1,"legal":"DL 173/2009 art. 2.1(c). Named freguesias of Alfandega da Fe, Freixo de Espada a Cinta, Mirandela, Torre de Moncorvo, Vila Flor, Figueira de Castelo Rodrigo and Meda, plus the whole concelho of Vila Nova de Foz Coa.","partial":{"Mirandela / Frechas, Avantos, Carvalhais, Romeu":"statute includes only the former D. Maria Angelica de Sousa Pinto Barroso properties and those of the Sociedade Clemente Meneres","Vila Flor / Vilas Boas":"statute includes only the Quintas da Peca and das Trigueiras and the Vimieiro properties"}},"geometry":{"type":"MultiPolygon","coordinates":[[[[-6.99644,40.98334],[-6.99586,40.97854],[-6.99349,40.97337],[-6.99165,40.97201],[-6.98995,40.96845],[-6.98682,40.96935],[-6.98318,40.96751],[-6.98507,40.96409],[-6.98228,40.96138],[-6.9832,40.95927],[-6.97829,40.95604],[-6.97045,40.94858],[-6.96626,40.94321],[-6.95909,40.94362],[-6.95727,40.94046],[-6.95349,40.93665],[-6.95343,40.93426],[-6.94879,40.93217],[-6.94569,40.9321],[-6.94463,40.92972],[-6.94545,40.92501],[-6.93961,40.92446],[-6.93503,40.92284],[-6.9246,40.9233],[-6.91132,40.92535],[-6.89033,40.93105],[-6.88744,40.93417],[-6.88708,40.93649],[-6.87906,40.95004],[-6.87054,40.959],[-6.87539,40.9608],[-6.87619,40.96328],[-6.87881,40.96633],[-6.88577,40.97173],[-6.8897,40.97719],[-6.89141,40.98182],[-6.89776,40.98508],[-6.90353,40.98973],[-6.90501,40.99426],[-6.90881,40.99892],[-6.91585,41.00019],[-6.92158,41.00248],[-6.92465,41.01097],[-6.92896,41.01342],[-6.93163,41.01681],[-6.92958,41.0238],[-6.93136,41.02941],[-6.92562,41.0325],[-6.92099,41.03601],[-6.915,41.0384],[-6.90888,41.03701],[-6.90366,41.03412],[-6.89644,41.03291],[-6.87796,41.02786],[-6.87328,41.02782],[-6.86853,41.02687],[-6.86398,41.02735],[-6.84708,41.02722],[-6.83593,41.02815],[-6.83287,41.02893],[-6.82742,41.03069],[-6.81815,41.03263],[-6.81488,41.03463],[-6.80893,41.0365],[-6.80771,41.0408],[-6.80944,41.04287],[-6.80809,41.04553],[-6.80163,41.04845],[-6.78986,41.05757],[-6.78585,41.06291],[-6.78101,41.06727],[-6.77807,41.07251],[-6.77434,41.07706],[-6.77094,41.08566],[-6.76923,41.08854],[-6.76493,41.09079],[-6.76259,41.09298],[-6.76259,41.09583],[-6.75869,41.09784],[-6.75419,41.10406],[-6.75524,41.10556],[-6.76014,41.1086],[-6.76132,41.11387],[-6.76433,41.11671],[-6.7682,41.12188],[-6.77076,41.12401],[-6.77106,41.13012],[-6.76787,41.13484],[-6.75815,41.13985],[-6.75482,41.13953],[-6.7494,41.14296],[-6.75568,41.14489],[-6.76042,41.14496],[-6.76361,41.14256],[-6.76907,41.14461],[-6.76897,41.14805],[-6.76555,41.15443],[-6.76435,41.16152],[-6.76492,41.16319],[-6.76954,41.16348],[-6.77088,41.16478],[-6.77748,41.16749],[-6.7794,41.16673],[-6.78589,41.1704],[-6.79028,41.16963],[-6.79662,41.17396],[-6.80322,41.1752],[-6.80966,41.17741],[-6.80811,41.17415],[-6.80886,41.17134],[-6.80602,41.17029],[-6.8036,41.16546],[-6.80105,41.16357],[-6.80138,41.15911],[-6.79822,41.1541],[-6.80081,41.15201],[-6.80938,41.15056],[-6.80953,41.14401],[-6.81736,41.14157],[-6.8215,41.14286],[-6.82685,41.14275],[-6.83157,41.14147],[-6.83191,41.13904],[-6.83665,41.13795],[-6.84716,41.13227],[-6.84832,41.12957],[-6.85197,41.12663],[-6.85935,41.12653],[-6.86472,41.12729],[-6.86553,41.125],[-6.86916,41.12346],[-6.87207,41.12085],[-6.87355,41.11424],[-6.87844,41.11436],[-6.88337,41.1159],[-6.88643,41.11361],[-6.88777,41.10867],[-6.89231,41.10654],[-6.89662,41.10644],[-6.90159,41.10739],[-6.90818,41.10316],[-6.9187,41.10606],[-6.92246,41.10607],[-6.93158,41.10445],[-6.93772,41.10171],[-6.94303,41.10391],[-6.94668,41.10726],[-6.94886,41.10623],[-6.95483,41.10788],[-6.95838,41.10652],[-6.96525,41.10665],[-6.97178,41.10868],[-6.97548,41.1091],[-6.97965,41.11075],[-6.98734,41.10695],[-6.99101,41.10272],[-6.99719,41.10469],[-7.00197,41.10494],[-7.00636,41.10764],[-7.01044,41.1081],[-7.00887,41.11192],[-7.01447,41.11337],[-7.01761,41.11014],[-7.02085,41.11006],[-7.02527,41.11254],[-7.03067,41.11419],[-7.03276,41.12103],[-7.02911,41.12518],[-7.02807,41.12774],[-7.02408,41.13326],[-7.02093,41.13479],[-7.02158,41.13661],[-7.01761,41.13795],[-7.0154,41.14258],[-7.02049,41.14511],[-7.02883,41.14641],[-7.02963,41.14756],[-7.03638,41.15009],[-7.05026,41.1522],[-7.05153,41.15516],[-7.04463,41.15701],[-7.04008,41.15698],[-7.03659,41.15829],[-7.03928,41.16096],[-7.03851,41.16444],[-7.03567,41.16571],[-7.02114,41.16757],[-7.01809,41.17207],[-7.01819,41.17894],[-7.01693,41.1835],[-7.01931,41.18962],[-7.03335,41.19083],[-7.03737,41.18994],[-7.04139,41.19098],[-7.04374,41.19629],[-7.0533,41.20075],[-7.05565,41.20559],[-7.05909,41.20833],[-7.05521,41.21073],[-7.05396,41.21563],[-7.05063,41.21726],[-7.04358,41.21802],[-7.03721,41.2153],[-7.03163,41.21388],[-7.02727,41.21436],[-7.02393,41.21838],[-7.02253,41.22137],[-7.01969,41.22342],[-7.01498,41.22514],[-7.00899,41.23218],[-7.00934,41.23483],[-7.00721,41.23868],[-7.00006,41.23921],[-6.9958,41.24225],[-6.99127,41.2418],[-6.98758,41.23939],[-6.98368,41.23928],[-6.98245,41.24582],[-6.98374,41.24711],[-6.98285,41.24992],[-6.97582,41.25294],[-6.97825,41.25479],[-6.98667,41.25486],[-6.9985,41.26021],[-7.00922,41.26698],[-7.0092,41.26832],[-7.0161,41.27198],[-7.02113,41.27361],[-7.0273,41.2818],[-7.02844,41.2841],[-7.03422,41.28594],[-7.04784,41.30232],[-7.05355,41.30097],[-7.0567,41.30427],[-7.05916,41.30556],[-7.06605,41.30731],[-7.06955,41.30912],[-7.0664,41.31259],[-7.06062,41.315],[-7.05895,41.31782],[-7.0409,41.33034],[-7.02441,41.3399],[-7.01599,41.34101],[-7.01387,41.34213],[-7.0123,41.34569],[-7.01169,41.35146],[-7.01857,41.36268],[-7.02328,41.36496],[-7.02645,41.36796],[-7.02344,41.37159],[-7.02338,41.37553],[-7.03264,41.37083],[-7.05007,41.37004],[-7.06061,41.36869],[-7.06666,41.36848],[-7.06794,41.36977],[-7.07222,41.36963],[-7.07737,41.3672],[-7.08012,41.36734],[-7.10196,41.36381],[-7.10623,41.36826],[-7.11085,41.37458],[-7.11491,41.38371],[-7.11782,41.39128],[-7.11706,41.39339],[-7.11939,41.39928],[-7.11848,41.40217],[-7.11991,41.40541],[-7.1227,41.40656],[-7.12563,41.40603],[-7.1271,41.40905],[-7.1307,41.41062],[-7.12961,41.41676],[-7.13319,41.421],[-7.13563,41.42184],[-7.13979,41.41846],[-7.14304,41.42037],[-7.14364,41.42355],[-7.15359,41.42797],[-7.15906,41.42892],[-7.16549,41.42869],[-7.16574,41.42242],[-7.16863,41.41729],[-7.16949,41.41252],[-7.16628,41.40898],[-7.16169,41.40652],[-7.16091,41.40279],[-7.16797,41.39737],[-7.16829,41.39572],[-7.16677,41.39079],[-7.17018,41.38596],[-7.17284,41.38388],[-7.18087,41.38492],[-7.18312,41.38679],[-7.18733,41.38767],[-7.1927,41.3874],[-7.20082,41.38863],[-7.21015,41.38448],[-7.22259,41.38024],[-7.22417,41.37891],[-7.22562,41.37416],[-7.22515,41.37023],[-7.22752,41.36843],[-7.232,41.36865],[-7.23565,41.37071],[-7.23842,41.37003],[-7.24156,41.36627],[-7.24559,41.36466],[-7.24997,41.36038],[-7.25027,41.35383],[-7.25184,41.35264],[-7.2618,41.35241],[-7.26847,41.35322],[-7.27595,41.3514],[-7.28012,41.34638],[-7.28555,41.34647],[-7.28841,41.34431],[-7.2888,41.34051],[-7.29548,41.3359],[-7.28844,41.33502],[-7.27901,41.33514],[-7.27055,41.3328],[-7.27552,41.32158],[-7.27639,41.31247],[-7.28393,41.31269],[-7.28662,41.31193],[-7.29228,41.30578],[-7.29428,41.30255],[-7.29817,41.29842],[-7.28985,41.29523],[-7.28531,41.29077],[-7.27352,41.29509],[-7.27083,41.29545],[-7.26586,41.29292],[-7.25828,41.29094],[-7.25112,41.29175],[-7.24734,41.29311],[-7.2379,41.2923],[-7.23541,41.29315],[-7.22295,41.2946],[-7.21303,41.29468],[-7.21486,41.29787],[-7.21276,41.3105],[-7.20819,41.31906],[-7.19174,41.32457],[-7.18194,41.32824],[-7.17965,41.32957],[-7.1652,41.32819],[-7.17105,41.31857],[-7.17199,41.31373],[-7.17428,41.30987],[-7.1741,41.30808],[-7.17642,41.29732],[-7.17979,41.28637],[-7.18488,41.28079],[-7.18884,41.27496],[-7.19139,41.27534],[-7.19174,41.27217],[-7.19495,41.2733],[-7.19662,41.26604],[-7.19572,41.26428],[-7.19884,41.26043],[-7.19617,41.25743],[-7.19527,41.25479],[-7.18789,41.2528],[-7.17544,41.24869],[-7.17354,41.25022],[-7.17331,41.25289],[-7.16852,41.25302],[-7.16473,41.25541],[-7.15757,41.25096],[-7.15829,41.24859],[-7.15686,41.24466],[-7.15803,41.24217],[-7.15397,41.24001],[-7.14937,41.23409],[-7.14624,41.23229],[-7.14915,41.22075],[-7.14985,41.21975],[-7.15802,41.2098],[-7.16349,41.20413],[-7.16957,41.20044],[-7.17629,41.201],[-7.17983,41.20023],[-7.18573,41.20133],[-7.189,41.19813],[-7.18687,41.19396],[-7.18849,41.19116],[-7.1919,41.18862],[-7.19564,41.18463],[-7.20562,41.1824],[-7.21015,41.18045],[-7.21217,41.17519],[-7.21186,41.16955],[-7.21299,41.16126],[-7.21427,41.15668],[-7.21431,41.14951],[-7.21538,41.14648],[-7.22192,41.14211],[-7.22371,41.13637],[-7.22917,41.13804],[-7.23507,41.14083],[-7.2402,41.14199],[-7.2495,41.145],[-7.2543,41.14485],[-7.26864,41.14235],[-7.27429,41.14019],[-7.28078,41.13576],[-7.28288,41.13549],[-7.2978,41.13948],[-7.30371,41.13935],[-7.3077,41.13739],[-7.30903,41.13455],[-7.31184,41.13164],[-7.314,41.12631],[-7.31823,41.12103],[-7.32293,41.11909],[-7.32367,41.11469],[-7.32618,41.10613],[-7.32818,41.10437],[-7.32848,41.10113],[-7.32785,41.09448],[-7.33175,41.08614],[-7.33038,41.08408],[-7.33136,41.08215],[-7.32996,41.07834],[-7.3326,41.07456],[-7.33606,41.0736],[-7.33984,41.06451],[-7.3396,41.06133],[-7.3408,41.05825],[-7.34278,41.05751],[-7.34297,41.05488],[-7.34517,41.04743],[-7.34062,41.04363],[-7.3439,41.04101],[-7.34394,41.03738],[-7.33828,41.0341],[-7.34036,41.03134],[-7.33755,41.02911],[-7.33819,41.02714],[-7.33351,41.02467],[-7.33298,41.02265],[-7.32886,41.02125],[-7.32103,41.01695],[-7.31178,41.01612],[-7.3066,41.01513],[-7.30238,41.01592],[-7.29568,41.01561],[-7.2977,41.01305],[-7.29736,41.00899],[-7.30267,41.00549],[-7.29831,41.00331],[-7.29471,41.00245],[-7.29525,40.99909],[-7.30229,40.99144],[-7.30246,40.98519],[-7.30169,40.98175],[-7.30508,40.98052],[-7.30787,40.97508],[-7.3127,40.96984],[-7.31262,40.96697],[-7.31109,40.96508],[-7.31781,40.96139],[-7.31663,40.95941],[-7.31921,40.95532],[-7.31969,40.95221],[-7.31449,40.9523],[-7.31426,40.9477],[-7.31208,40.94323],[-7.3121,40.94034],[-7.30916,40.93906],[-7.30568,40.94064],[-7.29952,40.93543],[-7.29565,40.9392],[-7.2926,40.93795],[-7.29165,40.9355],[-7.28315,40.93719],[-7.27961,40.93909],[-7.27344,40.93914],[-7.26766,40.94177],[-7.26201,40.94112],[-7.25658,40.93781],[-7.25316,40.93787],[-7.25467,40.93326],[-7.24909,40.93262],[-7.24924,40.92918],[-7.24575,40.92605],[-7.24418,40.92965],[-7.23829,40.93145],[-7.23616,40.93434],[-7.234,40.93531],[-7.23318,40.94073],[-7.22826,40.94075],[-7.22583,40.93891],[-7.22222,40.93242],[-7.21769,40.93282],[-7.21272,40.92973],[-7.2115,40.92705],[-7.20842,40.92616],[-7.20286,40.93113],[-7.2003,40.93147],[-7.19553,40.92564],[-7.18946,40.93146],[-7.18515,40.93204],[-7.18171,40.93455],[-7.16973,40.93114],[-7.15972,40.93233],[-7.156,40.93067],[-7.1435,40.92642],[-7.14148,40.92297],[-7.1357,40.92316],[-7.13285,40.93018],[-7.13255,40.93707],[-7.13149,40.9437],[-7.12756,40.94469],[-7.12459,40.95167],[-7.12024,40.95221],[-7.11945,40.95443],[-7.11293,40.95907],[-7.11209,40.9622],[-7.10742,40.9626],[-7.10446,40.96589],[-7.1026,40.97305],[-7.10061,40.97332],[-7.08331,40.97358],[-7.08053,40.97305],[-7.0593,40.96727],[-7.04591,40.96749],[-7.03745,40.9701],[-7.03227,40.9732],[-7.01978,40.97483],[-7.01775,40.9758],[-7.00238,40.98033],[-6.99644,40.98334]]],[[[-7.13902,41.52829],[-7.14803,41.52837],[-7.15852,41.53268],[-7.16266,41.53553],[-7.17249,41.54134],[-7.17442,41.53838],[-7.18244,41.53691],[-7.18454,41.53266],[-7.18868,41.52642],[-7.19235,41.5227],[-7.19041,41.51943],[-7.19559,41.51471],[-7.19749,41.50876],[-7.1969,41.50679],[-7.19363,41.50394],[-7.18917,41.50208],[-7.18153,41.49634],[-7.17705,41.4988],[-7.17641,41.50287],[-7.1723,41.50615],[-7.16824,41.5028],[-7.15598,41.5042],[-7.14723,41.50463],[-7.14502,41.50599],[-7.13888,41.50348],[-7.13442,41.50084],[-7.13523,41.49834],[-7.12814,41.50039],[-7.12189,41.50076],[-7.11604,41.50351],[-7.11253,41.50354],[-7.11385,41.50868],[-7.11131,41.51274],[-7.11419,41.51553],[-7.11224,41.51669],[-7.10943,41.51387],[-7.1047,41.51441],[-7.10206,41.51488],[-7.09358,41.51224],[-7.0891,41.51017],[-7.0799,41.51021],[-7.07216,41.50914],[-7.0679,41.50752],[-7.05592,41.52009],[-7.05193,41.52682],[-7.04698,41.53214],[-7.03911,41.53784],[-7.03925,41.54249],[-7.04577,41.54844],[-7.04225,41.55163],[-7.04434,41.55294],[-7.04781,41.55306],[-7.05195,41.55527],[-7.05659,41.55432],[-7.0627,41.55507],[-7.06666,41.55089],[-7.06865,41.55224],[-7.07485,41.5524],[-7.08066,41.55617],[-7.08791,41.55728],[-7.10395,41.55685],[-7.10347,41.55274],[-7.10491,41.54951],[-7.10887,41.54577],[-7.1176,41.54393],[-7.12183,41.54229],[-7.12696,41.53888],[-7.13559,41.53079],[-7.13902,41.52829]]]]}},{"type":"Feature","properties":{"name":"alentejo-vidigueira","units":3,"statute_names":0,"whole_concelhos":3,"legal":"Portaria 296/2010: 'os limites da sub-regiao correspondem aos limites dos concelhos de Alvito, Cuba e Vidigueira' — legally exact, no approximation.","partial":{}},"geometry":{"type":"MultiPolygon","coordinates":[[[[-7.99632,38.17137],[-7.99432,38.16835],[-7.98771,38.16463],[-7.97706,38.1566],[-7.98421,38.1511],[-7.9936,38.1453],[-8.00299,38.14107],[-8.00282,38.12536],[-7.99964,38.12099],[-7.98792,38.11846],[-7.97627,38.11368],[-7.96238,38.10583],[-7.95408,38.11265],[-7.94538,38.11011],[-7.93888,38.11349],[-7.93747,38.11871],[-7.92222,38.1231],[-7.92016,38.12461],[-7.91325,38.12478],[-7.90604,38.13055],[-7.89903,38.13434],[-7.88373,38.12468],[-7.87911,38.12722],[-7.87393,38.13313],[-7.86379,38.1342],[-7.86546,38.13583],[-7.85814,38.14985],[-7.84628,38.14937],[-7.8391,38.14687],[-7.83817,38.16259],[-7.82401,38.1583],[-7.81962,38.15798],[-7.82114,38.15093],[-7.82398,38.14299],[-7.82474,38.1363],[-7.81794,38.13367],[-7.8219,38.12443],[-7.81165,38.11804],[-7.80897,38.1121],[-7.8035,38.10866],[-7.8068,38.10452],[-7.81027,38.10494],[-7.81847,38.10335],[-7.82257,38.10034],[-7.80805,38.09632],[-7.80515,38.09395],[-7.81184,38.08787],[-7.80625,38.08235],[-7.80223,38.07695],[-7.80774,38.07341],[-7.80302,38.0674],[-7.79248,38.06505],[-7.786,38.0643],[-7.78054,38.06659],[-7.77998,38.07166],[-7.77436,38.07963],[-7.77391,38.08373],[-7.7832,38.08363],[-7.7865,38.08559],[-7.79135,38.08629],[-7.79591,38.09175],[-7.78905,38.09274],[-7.77636,38.09632],[-7.7719,38.09677],[-7.7688,38.08555],[-7.76188,38.08646],[-7.75249,38.09041],[-7.74778,38.09669],[-7.74981,38.10517],[-7.75504,38.10958],[-7.75241,38.11228],[-7.74418,38.11684],[-7.74086,38.11566],[-7.73542,38.11804],[-7.72695,38.12015],[-7.72621,38.11812],[-7.72087,38.11942],[-7.71757,38.11814],[-7.71181,38.11924],[-7.70136,38.10831],[-7.6955,38.10858],[-7.69499,38.10502],[-7.69091,38.10223],[-7.68429,38.09994],[-7.67985,38.09987],[-7.6738,38.09291],[-7.66952,38.09352],[-7.66747,38.08836],[-7.65891,38.08738],[-7.65343,38.08574],[-7.65404,38.09319],[-7.6507,38.09768],[-7.65135,38.10411],[-7.64589,38.10617],[-7.63552,38.10537],[-7.62173,38.116],[-7.61667,38.12455],[-7.60976,38.12634],[-7.60814,38.12865],[-7.61078,38.13573],[-7.60894,38.14245],[-7.60751,38.14329],[-7.6036,38.16326],[-7.59344,38.17015],[-7.58079,38.17595],[-7.57652,38.1764],[-7.5623,38.1714],[-7.55342,38.16731],[-7.54449,38.16082],[-7.53813,38.15816],[-7.52175,38.15514],[-7.5143,38.1556],[-7.50558,38.15735],[-7.49186,38.16639],[-7.48796,38.17359],[-7.48693,38.18255],[-7.49161,38.19011],[-7.4978,38.18845],[-7.50723,38.18987],[-7.51066,38.18961],[-7.52915,38.19206],[-7.53331,38.19322],[-7.54192,38.19363],[-7.54596,38.195],[-7.55141,38.19353],[-7.55846,38.19436],[-7.56599,38.18876],[-7.58018,38.1938],[-7.58229,38.19827],[-7.58622,38.1992],[-7.5881,38.20326],[-7.59495,38.205],[-7.59956,38.20284],[-7.60981,38.20266],[-7.61752,38.20664],[-7.63501,38.20953],[-7.64467,38.20495],[-7.65378,38.20395],[-7.66962,38.20022],[-7.67408,38.2031],[-7.67987,38.2045],[-7.68197,38.20737],[-7.6857,38.20698],[-7.69342,38.21131],[-7.70466,38.21218],[-7.71119,38.2141],[-7.72404,38.22192],[-7.73423,38.23058],[-7.73411,38.23338],[-7.74493,38.23833],[-7.7482,38.23902],[-7.75896,38.24655],[-7.76546,38.24808],[-7.78074,38.24876],[-7.79056,38.25482],[-7.79707,38.24946],[-7.80235,38.24942],[-7.80363,38.24626],[-7.80831,38.24519],[-7.81779,38.24462],[-7.82122,38.25196],[-7.82522,38.25441],[-7.82911,38.25237],[-7.83681,38.25286],[-7.8395,38.25177],[-7.84657,38.25806],[-7.85399,38.25943],[-7.85797,38.26348],[-7.8637,38.26572],[-7.86662,38.26338],[-7.86947,38.26471],[-7.87282,38.26948],[-7.87691,38.2712],[-7.88504,38.27644],[-7.88991,38.277],[-7.90026,38.28472],[-7.90532,38.28231],[-7.9075,38.27969],[-7.91131,38.28434],[-7.90793,38.28693],[-7.91634,38.29104],[-7.92959,38.2955],[-7.93863,38.30308],[-7.94372,38.30525],[-7.9471,38.30493],[-7.95658,38.30708],[-7.96454,38.3108],[-7.97374,38.31621],[-7.98052,38.31709],[-7.98617,38.31433],[-7.99398,38.30826],[-7.99568,38.30249],[-8.00968,38.29953],[-8.0132,38.30118],[-8.02048,38.30097],[-8.03688,38.31595],[-8.04364,38.32608],[-8.05175,38.32529],[-8.05508,38.32833],[-8.06421,38.32252],[-8.0672,38.31933],[-8.07197,38.31837],[-8.07748,38.3223],[-8.08543,38.32008],[-8.09842,38.32092],[-8.11149,38.31972],[-8.12009,38.3148],[-8.13114,38.31288],[-8.14095,38.31426],[-8.14362,38.31688],[-8.14635,38.32294],[-8.1512,38.32901],[-8.16185,38.32712],[-8.15954,38.32095],[-8.16137,38.31787],[-8.15122,38.30633],[-8.14309,38.29784],[-8.13878,38.28441],[-8.13557,38.27813],[-8.13663,38.27444],[-8.1297,38.2663],[-8.13099,38.25579],[-8.12992,38.2518],[-8.12994,38.24417],[-8.13129,38.23116],[-8.12986,38.22399],[-8.12099,38.22313],[-8.12088,38.21308],[-8.11754,38.21288],[-8.11192,38.19376],[-8.10994,38.18987],[-8.11457,38.18771],[-8.11377,38.18543],[-8.10574,38.17822],[-8.10176,38.15679],[-8.09654,38.15056],[-8.08144,38.15157],[-8.07034,38.15361],[-8.05248,38.16036],[-8.04007,38.15994],[-8.03447,38.16089],[-8.03141,38.16302],[-8.02383,38.16167],[-8.01822,38.17124],[-8.00975,38.17169],[-8.00426,38.16492],[-7.99632,38.17137]]]]}},{"type":"Feature","properties":{"name":"alentejo-granja-amareleja","units":3,"statute_names":2,"whole_concelhos":1,"legal":"Portaria 296/2010: the whole concelho of Mourao ('a area total das tres freguesias: Mourao, Granja e Luz') plus 'a area total das freguesias de Povoa de Sao Miguel e Amareleja' of Moura.","partial":{"Moura / Ardila":"statute adds a small zone between the Povoa de Sao Miguel boundary and the mouth of the rio Ardila, which has no administrative unit and is not included"}},"geometry":{"type":"MultiPolygon","coordinates":[[[[-7.40829,38.2764],[-7.40668,38.27257],[-7.40884,38.26789],[-7.41352,38.26401],[-7.4238,38.26247],[-7.42763,38.26231],[-7.4321,38.26075],[-7.43499,38.25446],[-7.43623,38.24668],[-7.43808,38.24298],[-7.44256,38.23979],[-7.44842,38.23775],[-7.45316,38.23495],[-7.45657,38.23093],[-7.45708,38.22937],[-7.45077,38.22861],[-7.447,38.22565],[-7.44004,38.22554],[-7.43782,38.22071],[-7.43277,38.2177],[-7.42951,38.21293],[-7.43315,38.20874],[-7.44108,38.20281],[-7.44162,38.19902],[-7.43605,38.20112],[-7.4333,38.20105],[-7.42942,38.19971],[-7.42676,38.20055],[-7.41795,38.20131],[-7.41652,38.20292],[-7.41121,38.20411],[-7.40796,38.20359],[-7.4045,38.20141],[-7.40099,38.20453],[-7.39288,38.20581],[-7.38799,38.20595],[-7.37942,38.20805],[-7.3774,38.20369],[-7.37802,38.18874],[-7.38205,38.18465],[-7.38213,38.18196],[-7.38063,38.1783],[-7.37707,38.17584],[-7.37595,38.17257],[-7.36934,38.17025],[-7.36723,38.17059],[-7.36115,38.16912],[-7.35154,38.1638],[-7.34915,38.16363],[-7.34652,38.16494],[-7.34175,38.1661],[-7.33786,38.16817],[-7.33331,38.17227],[-7.32326,38.17699],[-7.31984,38.17682],[-7.31481,38.17088],[-7.31216,38.17131],[-7.30993,38.1734],[-7.30582,38.174],[-7.30429,38.17703],[-7.29651,38.17922],[-7.29177,38.18308],[-7.28627,38.186],[-7.28477,38.18802],[-7.28091,38.19021],[-7.27518,38.18788],[-7.27327,38.1821],[-7.26978,38.1776],[-7.26761,38.17284],[-7.27068,38.16942],[-7.27529,38.16775],[-7.27643,38.16358],[-7.27683,38.15841],[-7.27815,38.15553],[-7.27607,38.1516],[-7.27566,38.14797],[-7.26934,38.14963],[-7.26173,38.15468],[-7.25749,38.15916],[-7.24846,38.16325],[-7.24703,38.16239],[-7.244,38.15517],[-7.23705,38.15197],[-7.234,38.14978],[-7.2329,38.14637],[-7.22753,38.14156],[-7.2216,38.13924],[-7.21429,38.13829],[-7.20985,38.14083],[-7.20689,38.145],[-7.20113,38.15171],[-7.19786,38.15466],[-7.19523,38.15554],[-7.19314,38.15422],[-7.19517,38.14927],[-7.19166,38.1467],[-7.18576,38.14451],[-7.17831,38.14518],[-7.17328,38.14701],[-7.1705,38.14663],[-7.16959,38.14316],[-7.16349,38.13981],[-7.1587,38.13967],[-7.15725,38.1407],[-7.15704,38.14579],[-7.15448,38.14876],[-7.15203,38.15465],[-7.14972,38.15808],[-7.15412,38.16192],[-7.15513,38.16576],[-7.15352,38.16855],[-7.15238,38.17348],[-7.14669,38.17469],[-7.1416,38.17184],[-7.1315,38.17104],[-7.12796,38.17242],[-7.12613,38.17527],[-7.12671,38.17952],[-7.12446,38.18479],[-7.12022,38.18648],[-7.11662,38.18486],[-7.11362,38.18536],[-7.10966,38.18782],[-7.10694,38.19142],[-7.10989,38.19357],[-7.11095,38.1999],[-7.11353,38.20319],[-7.11266,38.20629],[-7.11534,38.20621],[-7.11706,38.20766],[-7.11769,38.21128],[-7.12168,38.21242],[-7.12378,38.217],[-7.13439,38.2271],[-7.13985,38.23541],[-7.13992,38.23747],[-7.14285,38.24058],[-7.14365,38.24669],[-7.14316,38.24854],[-7.14479,38.25089],[-7.14271,38.25563],[-7.14516,38.25815],[-7.14294,38.26171],[-7.14758,38.26687],[-7.14993,38.26849],[-7.15265,38.26789],[-7.15345,38.27342],[-7.15087,38.27609],[-7.15573,38.27631],[-7.15591,38.27905],[-7.1611,38.27911],[-7.16381,38.28129],[-7.16938,38.28013],[-7.16852,38.28418],[-7.17107,38.28472],[-7.17548,38.28846],[-7.17893,38.29315],[-7.18212,38.29573],[-7.18596,38.30234],[-7.19107,38.30784],[-7.19417,38.3134],[-7.19915,38.32109],[-7.20024,38.32601],[-7.20225,38.32903],[-7.2145,38.34092],[-7.21964,38.3425],[-7.22413,38.34801],[-7.2332,38.35775],[-7.24369,38.36532],[-7.24817,38.36951],[-7.25607,38.37937],[-7.26007,38.38216],[-7.26878,38.39163],[-7.27217,38.3959],[-7.27452,38.40002],[-7.27573,38.40413],[-7.27838,38.40958],[-7.28043,38.41513],[-7.27948,38.41923],[-7.28186,38.41936],[-7.28433,38.42318],[-7.28806,38.42302],[-7.29121,38.42398],[-7.29285,38.42653],[-7.29527,38.42575],[-7.29998,38.42606],[-7.30019,38.42904],[-7.30252,38.42956],[-7.30317,38.43191],[-7.30648,38.43241],[-7.31013,38.43574],[-7.31395,38.4368],[-7.31471,38.4392],[-7.3185,38.43907],[-7.32142,38.43995],[-7.32777,38.43882],[-7.3326,38.43655],[-7.33289,38.43528],[-7.33675,38.43464],[-7.34343,38.42781],[-7.34789,38.4248],[-7.3587,38.42347],[-7.3655,38.4201],[-7.36785,38.41532],[-7.36816,38.40942],[-7.36903,38.40764],[-7.37943,38.40394],[-7.38545,38.40011],[-7.38771,38.39424],[-7.38994,38.39003],[-7.38921,38.38652],[-7.38981,38.38219],[-7.38922,38.38047],[-7.38074,38.37343],[-7.37793,38.37169],[-7.37692,38.36844],[-7.37762,38.3663],[-7.38493,38.36301],[-7.3877,38.36343],[-7.39009,38.36522],[-7.39368,38.36496],[-7.39833,38.36246],[-7.41346,38.35782],[-7.41848,38.3557],[-7.4256,38.35096],[-7.42875,38.34606],[-7.42887,38.3429],[-7.42421,38.33693],[-7.42091,38.33368],[-7.41847,38.32992],[-7.41675,38.325],[-7.41589,38.32012],[-7.41716,38.3131],[-7.41991,38.31034],[-7.42849,38.30523],[-7.43057,38.30253],[-7.42952,38.29496],[-7.42679,38.29417],[-7.42177,38.28605],[-7.41828,38.28295],[-7.41292,38.28086],[-7.40929,38.27847],[-7.40829,38.2764]]]]}},{"type":"Feature","properties":{"name":"douro","units":105,"statute_names":0,"whole_concelhos":0,"legal":"DL 173/2009 art. 2.1. The Regiao Demarcada do Douro is exactly the union of its three sub-regions, so it is derived from them rather than listed again.","partial":{}},"geometry":{"type":"MultiPolygon","coordinates":[[[[-7.89979,41.1205],[-7.89751,41.11997],[-7.89434,41.12173],[-7.89166,41.12022],[-7.8891,41.12102],[-7.88602,41.11936],[-7.87623,41.11594],[-7.87501,41.11527],[-7.87423,41.11382],[-7.8694,41.1091],[-7.86031,41.10273],[-7.85981,41.10539],[-7.8507,41.11111],[-7.85059,41.11435],[-7.8521,41.11713],[-7.85301,41.11975],[-7.84703,41.12364],[-7.84613,41.12563],[-7.84442,41.12645],[-7.84385,41.12843],[-7.8392,41.12936],[-7.83657,41.13028],[-7.83491,41.12801],[-7.83246,41.12921],[-7.82984,41.12883],[-7.82839,41.12859],[-7.82773,41.12693],[-7.82939,41.12495],[-7.82812,41.12333],[-7.8299,41.12074],[-7.82834,41.11986],[-7.82653,41.11976],[-7.8237,41.11626],[-7.82545,41.11517],[-7.82435,41.11273],[-7.8255,41.11031],[-7.82498,41.10913],[-7.82737,41.10822],[-7.82894,41.10899],[-7.82992,41.10751],[-7.8324,41.10885],[-7.83534,41.10997],[-7.83608,41.11137],[-7.84015,41.10965],[-7.83944,41.10858],[-7.84194,41.10812],[-7.84569,41.10508],[-7.8465,41.09805],[-7.84457,41.09547],[-7.84192,41.09287],[-7.84095,41.09092],[-7.83959,41.09033],[-7.8384,41.08783],[-7.83656,41.08707],[-7.83796,41.08565],[-7.83647,41.08345],[-7.83502,41.08366],[-7.83264,41.08556],[-7.83188,41.08695],[-7.82983,41.08715],[-7.82763,41.08868],[-7.82527,41.08941],[-7.82269,41.08897],[-7.82044,41.09045],[-7.81697,41.08976],[-7.81583,41.08852],[-7.81461,41.08923],[-7.81294,41.08815],[-7.81019,41.08768],[-7.80756,41.0883],[-7.80838,41.08634],[-7.81166,41.08236],[-7.81209,41.0814],[-7.81386,41.0805],[-7.81603,41.08056],[-7.81742,41.07794],[-7.81667,41.07646],[-7.8132,41.07523],[-7.81325,41.0738],[-7.81122,41.07417],[-7.81026,41.07581],[-7.80733,41.07796],[-7.80407,41.0789],[-7.80365,41.07971],[-7.80117,41.07885],[-7.79731,41.07914],[-7.79455,41.07799],[-7.79073,41.07788],[-7.78967,41.07959],[-7.78699,41.07798],[-7.78629,41.07647],[-7.78468,41.07603],[-7.78462,41.07372],[-7.78343,41.0724],[-7.78188,41.07174],[-7.78248,41.07067],[-7.78155,41.06905],[-7.77824,41.0682],[-7.77776,41.067],[-7.77588,41.06664],[-7.77337,41.06534],[-7.76951,41.06401],[-7.76597,41.06519],[-7.76449,41.06642],[-7.76199,41.0674],[-7.75941,41.06946],[-7.75491,41.06845],[-7.7548,41.069],[-7.74955,41.07222],[-7.75289,41.07373],[-7.75535,41.07404],[-7.75592,41.07559],[-7.75525,41.07636],[-7.75497,41.0795],[-7.75668,41.08087],[-7.75584,41.08237],[-7.75628,41.08335],[-7.75588,41.08528],[-7.75687,41.08661],[-7.7561,41.08991],[-7.75776,41.09232],[-7.75211,41.0941],[-7.75149,41.09593],[-7.74965,41.09636],[-7.74878,41.09773],[-7.74747,41.09815],[-7.74636,41.10097],[-7.74659,41.10208],[-7.744,41.10539],[-7.74165,41.10337],[-7.7392,41.10279],[-7.73813,41.10189],[-7.73698,41.10411],[-7.73242,41.10575],[-7.73147,41.10669],[-7.72842,41.10839],[-7.7271,41.10981],[-7.72534,41.1081],[-7.72537,41.10341],[-7.72658,41.09976],[-7.72361,41.09564],[-7.72149,41.08904],[-7.72123,41.09248],[-7.72025,41.09392],[-7.71652,41.09411],[-7.71322,41.09501],[-7.71214,41.09597],[-7.71035,41.09534],[-7.70742,41.09528],[-7.70715,41.09654],[-7.70339,41.09744],[-7.7007,41.09758],[-7.69754,41.09677],[-7.69568,41.09671],[-7.69478,41.09466],[-7.69544,41.09274],[-7.69506,41.09148],[-7.69806,41.08797],[-7.69757,41.08597],[-7.69788,41.08418],[-7.69714,41.08353],[-7.69361,41.08411],[-7.69248,41.08636],[-7.68927,41.08734],[-7.6856,41.08658],[-7.68218,41.08541],[-7.68154,41.08431],[-7.67909,41.08503],[-7.67598,41.08484],[-7.67189,41.08657],[-7.67032,41.08633],[-7.66724,41.08695],[-7.66815,41.08911],[-7.66866,41.09261],[-7.66834,41.09339],[-7.66881,41.09681],[-7.6705,41.09955],[-7.66863,41.10154],[-7.66869,41.10244],[-7.66588,41.10548],[-7.66356,41.10625],[-7.65922,41.10519],[-7.65436,41.10649],[-7.65304,41.10552],[-7.64696,41.10334],[-7.64555,41.10232],[-7.63765,41.10366],[-7.63116,41.10587],[-7.62718,41.10597],[-7.62705,41.10291],[-7.62205,41.103],[-7.62083,41.10272],[-7.61952,41.10516],[-7.62215,41.10544],[-7.62081,41.10674],[-7.62223,41.11197],[-7.62221,41.11471],[-7.62074,41.11574],[-7.61474,41.11453],[-7.61274,41.11471],[-7.61181,41.114],[-7.60728,41.11337],[-7.60179,41.11054],[-7.59941,41.10973],[-7.59525,41.10889],[-7.5986,41.10092],[-7.59078,41.10453],[-7.57956,41.10303],[-7.57613,41.10272],[-7.57295,41.10202],[-7.56469,41.10139],[-7.55945,41.10045],[-7.55452,41.09788],[-7.54599,41.0958],[-7.54594,41.09145],[-7.54798,41.0886],[-7.54895,41.08644],[-7.54736,41.08332],[-7.54675,41.08108],[-7.54836,41.08007],[-7.54918,41.07825],[-7.5494,41.07372],[-7.55151,41.07141],[-7.55084,41.06876],[-7.55284,41.06581],[-7.55608,41.0564],[-7.55594,41.05289],[-7.55646,41.05083],[-7.55602,41.04887],[-7.55669,41.04668],[-7.55896,41.04494],[-7.55877,41.04303],[-7.56063,41.03853],[-7.56432,41.03132],[-7.56525,41.02858],[-7.55833,41.02269],[-7.5558,41.01995],[-7.55347,41.0219],[-7.55222,41.02137],[-7.54587,41.01463],[-7.53905,41.01001],[-7.53777,41.00936],[-7.53337,41.00588],[-7.53099,41.0057],[-7.53006,41.00808],[-7.52789,41.01176],[-7.52659,41.01465],[-7.52354,41.01656],[-7.52211,41.01885],[-7.52043,41.02066],[-7.514,41.02139],[-7.51201,41.02263],[-7.5089,41.02659],[-7.50824,41.02992],[-7.50705,41.03179],[-7.50754,41.03232],[-7.51074,41.03162],[-7.51302,41.03306],[-7.51146,41.03499],[-7.50864,41.03765],[-7.50348,41.04069],[-7.50456,41.04385],[-7.5045,41.04608],[-7.50133,41.04458],[-7.50061,41.04385],[-7.49811,41.04544],[-7.4964,41.04719],[-7.48466,41.0417],[-7.47726,41.04094],[-7.46962,41.04036],[-7.45801,41.04071],[-7.45078,41.04042],[-7.44997,41.0441],[-7.44879,41.04797],[-7.44598,41.05239],[-7.44509,41.05302],[-7.44258,41.0564],[-7.43677,41.06081],[-7.42709,41.06018],[-7.42202,41.06026],[-7.41694,41.06154],[-7.41016,41.06052],[-7.40774,41.06206],[-7.4088,41.06613],[-7.40811,41.06774],[-7.40677,41.06869],[-7.40794,41.06995],[-7.40393,41.06992],[-7.40287,41.06928],[-7.39587,41.06758],[-7.39503,41.06603],[-7.39142,41.06538],[-7.38698,41.06549],[-7.38573,41.06664],[-7.38352,41.06731],[-7.38127,41.06718],[-7.3802,41.06785],[-7.37874,41.06594],[-7.37955,41.0638],[-7.37958,41.06226],[-7.37664,41.0639],[-7.37474,41.06404],[-7.37443,41.0623],[-7.37738,41.06063],[-7.37874,41.05824],[-7.37701,41.05744],[-7.377,41.05591],[-7.37457,41.05623],[-7.37203,41.05525],[-7.37083,41.05396],[-7.3686,41.05625],[-7.36626,41.05617],[-7.36595,41.05519],[-7.36393,41.05373],[-7.36293,41.05363],[-7.35955,41.05572],[-7.35829,41.05601],[-7.35486,41.055],[-7.35383,41.05519],[-7.35206,41.05709],[-7.35031,41.05703],[-7.34763,41.05473],[-7.34467,41.05581],[-7.34278,41.05751],[-7.34297,41.05488],[-7.34419,41.05193],[-7.34517,41.04743],[-7.34571,41.04641],[-7.34355,41.04609],[-7.34062,41.04363],[-7.3439,41.04101],[-7.3436,41.03882],[-7.34394,41.03738],[-7.34255,41.03693],[-7.3419,41.0357],[-7.34005,41.03526],[-7.33828,41.0341],[-7.34036,41.03134],[-7.33845,41.03076],[-7.33755,41.02911],[-7.34113,41.02851],[-7.33969,41.02619],[-7.33819,41.02714],[-7.33679,41.02676],[-7.33617,41.02535],[-7.33351,41.02467],[-7.33298,41.02265],[-7.33146,41.02181],[-7.32886,41.02125],[-7.32642,41.01973],[-7.32333,41.01858],[-7.32103,41.01695],[-7.31692,41.01643],[-7.31178,41.01612],[-7.3066,41.01513],[-7.30384,41.01529],[-7.30238,41.01592],[-7.29994,41.01562],[-7.29654,41.01599],[-7.29568,41.01561],[-7.2977,41.01305],[-7.29774,41.01006],[-7.29736,41.00899],[-7.30267,41.00549],[-7.29831,41.00331],[-7.29471,41.00245],[-7.29546,41.00106],[-7.29525,40.99909],[-7.29849,40.99584],[-7.30026,40.99506],[-7.30035,40.99373],[-7.30229,40.99144],[-7.30246,40.98519],[-7.30346,40.9838],[-7.30153,40.98262],[-7.30169,40.98175],[-7.30508,40.98052],[-7.30544,40.97872],[-7.3064,40.9773],[-7.30549,40.97572],[-7.30787,40.97508],[-7.3106,40.97242],[-7.31026,40.97081],[-7.31098,40.96984],[-7.3127,40.96984],[-7.31262,40.96697],[-7.31129,40.96669],[-7.31109,40.96508],[-7.31386,40.96346],[-7.31406,40.96237],[-7.31567,40.9623],[-7.31781,40.96139],[-7.31663,40.95941],[-7.318,40.95759],[-7.31794,40.95638],[-7.31921,40.95532],[-7.31969,40.95221],[-7.31841,40.95139],[-7.31605,40.95271],[-7.31449,40.9523],[-7.31397,40.94981],[-7.31426,40.9477],[-7.31208,40.94323],[-7.3121,40.94034],[-7.30916,40.93906],[-7.30568,40.94064],[-7.30289,40.93872],[-7.29952,40.93543],[-7.29795,40.93586],[-7.29565,40.9392],[-7.2926,40.93795],[-7.29165,40.9355],[-7.28941,40.93634],[-7.28705,40.93618],[-7.28315,40.93719],[-7.28105,40.93695],[-7.27961,40.93909],[-7.27642,40.93931],[-7.2755,40.93983],[-7.27344,40.93914],[-7.27116,40.93981],[-7.26766,40.94177],[-7.26525,40.94091],[-7.26201,40.94112],[-7.26065,40.94067],[-7.25987,40.9394],[-7.25658,40.93781],[-7.25491,40.93823],[-7.25316,40.93787],[-7.25467,40.93326],[-7.25206,40.93372],[-7.24909,40.93262],[-7.2484,40.93079],[-7.24924,40.92918],[-7.24725,40.92738],[-7.24752,40.92595],[-7.24575,40.92605],[-7.24418,40.92965],[-7.23939,40.93146],[-7.23829,40.93145],[-7.23616,40.93434],[-7.234,40.93531],[-7.23403,40.93799],[-7.23318,40.94073],[-7.23057,40.94116],[-7.22826,40.94075],[-7.22598,40.9407],[-7.22583,40.93891],[-7.22391,40.93603],[-7.22371,40.9338],[-7.22222,40.93242],[-7.21769,40.93282],[-7.21493,40.93139],[-7.21272,40.92973],[-7.21278,40.92845],[-7.2115,40.92705],[-7.20842,40.92616],[-7.20626,40.92875],[-7.20613,40.93061],[-7.20433,40.93021],[-7.20286,40.93113],[-7.2003,40.93147],[-7.19885,40.93044],[-7.19786,40.92783],[-7.19553,40.92564],[-7.19334,40.92825],[-7.19195,40.92882],[-7.18946,40.93146],[-7.18515,40.93204],[-7.18171,40.93455],[-7.16973,40.93114],[-7.15972,40.93233],[-7.156,40.93067],[-7.14651,40.92775],[-7.14534,40.92802],[-7.1435,40.92642],[-7.14244,40.9237],[-7.14148,40.92297],[-7.13905,40.92285],[-7.1357,40.92316],[-7.13285,40.93018],[-7.13241,40.93365],[-7.13255,40.93707],[-7.13184,40.93985],[-7.13149,40.9437],[-7.12756,40.94469],[-7.12683,40.9474],[-7.12572,40.94843],[-7.12459,40.95167],[-7.12371,40.95212],[-7.12024,40.95221],[-7.11945,40.95443],[-7.11522,40.95799],[-7.11293,40.95907],[-7.11209,40.9622],[-7.10978,40.96337],[-7.10742,40.9626],[-7.10603,40.96357],[-7.10588,40.9647],[-7.10446,40.96589],[-7.10277,40.97068],[-7.10171,40.97121],[-7.1026,40.97305],[-7.10061,40.97332],[-7.08331,40.97358],[-7.08053,40.97305],[-7.06942,40.97012],[-7.0593,40.96727],[-7.05778,40.96713],[-7.04591,40.96749],[-7.03745,40.9701],[-7.03441,40.97157],[-7.03227,40.9732],[-7.02443,40.97452],[-7.01978,40.97483],[-7.01775,40.9758],[-7.00238,40.98033],[-6.99735,40.9822],[-6.99644,40.98334],[-6.99625,40.98138],[-6.99541,40.97973],[-6.99586,40.97854],[-6.99349,40.97337],[-6.99115,40.97369],[-6.99165,40.97201],[-6.99141,40.96941],[-6.98995,40.96845],[-6.98682,40.96935],[-6.98527,40.96914],[-6.98318,40.96751],[-6.98507,40.96409],[-6.98228,40.96138],[-6.9832,40.95927],[-6.98087,40.95756],[-6.97962,40.95808],[-6.97813,40.9569],[-6.97829,40.95604],[-6.9756,40.95357],[-6.9742,40.95344],[-6.974,40.95188],[-6.97045,40.94858],[-6.97006,40.94743],[-6.96766,40.94442],[-6.96626,40.94321],[-6.9622,40.94299],[-6.96045,40.94375],[-6.95909,40.94362],[-6.95733,40.94218],[-6.95727,40.94046],[-6.95621,40.93905],[-6.95349,40.93665],[-6.95343,40.93426],[-6.95046,40.93339],[-6.94879,40.93217],[-6.94569,40.9321],[-6.94463,40.92972],[-6.94595,40.92636],[-6.94545,40.92501],[-6.94148,40.92432],[-6.93961,40.92446],[-6.93767,40.92317],[-6.93503,40.92284],[-6.9246,40.9233],[-6.91132,40.92535],[-6.89982,40.92837],[-6.89033,40.93105],[-6.88744,40.93417],[-6.88708,40.93649],[-6.88289,40.94394],[-6.87906,40.95004],[-6.87054,40.959],[-6.87539,40.9608],[-6.87619,40.96328],[-6.8779,40.96437],[-6.87881,40.96633],[-6.88271,40.96912],[-6.88577,40.97173],[-6.88651,40.97327],[-6.8897,40.97719],[-6.89057,40.9793],[-6.89029,40.98088],[-6.89141,40.98182],[-6.89487,40.98341],[-6.89627,40.98469],[-6.89776,40.98508],[-6.90353,40.98973],[-6.90501,40.99426],[-6.90652,40.99578],[-6.90881,40.99892],[-6.91204,41],[-6.91585,41.00019],[-6.92021,41.00151],[-6.92158,41.00248],[-6.92302,41.00545],[-6.92329,41.00726],[-6.92465,41.01097],[-6.92896,41.01342],[-6.93031,41.01456],[-6.93163,41.01681],[-6.93162,41.01814],[-6.92958,41.0238],[-6.93014,41.02633],[-6.93136,41.02941],[-6.92562,41.0325],[-6.92099,41.03601],[-6.91715,41.03811],[-6.915,41.0384],[-6.91152,41.03793],[-6.90888,41.03701],[-6.90614,41.03527],[-6.90366,41.03412],[-6.89644,41.03291],[-6.88356,41.02958],[-6.87796,41.02786],[-6.87328,41.02782],[-6.86853,41.02687],[-6.86398,41.02735],[-6.85694,41.02737],[-6.85552,41.0276],[-6.85153,41.0272],[-6.84708,41.02722],[-6.84031,41.02792],[-6.83593,41.02815],[-6.83287,41.02893],[-6.82742,41.03069],[-6.82203,41.03169],[-6.81815,41.03263],[-6.81488,41.03463],[-6.80893,41.0365],[-6.80772,41.0381],[-6.80771,41.0408],[-6.80944,41.04287],[-6.80935,41.04409],[-6.80809,41.04553],[-6.80163,41.04845],[-6.7986,41.05046],[-6.79628,41.05288],[-6.79263,41.05501],[-6.78986,41.05757],[-6.78585,41.06291],[-6.78354,41.06465],[-6.78101,41.06727],[-6.77807,41.07251],[-6.77434,41.07706],[-6.77251,41.08075],[-6.77094,41.08566],[-6.76923,41.08854],[-6.76493,41.09079],[-6.76259,41.09298],[-6.76259,41.09583],[-6.75869,41.09784],[-6.75707,41.09948],[-6.75419,41.10406],[-6.75524,41.10556],[-6.75896,41.10707],[-6.76014,41.1086],[-6.76062,41.11242],[-6.76132,41.11387],[-6.76433,41.11671],[-6.76612,41.1195],[-6.7682,41.12188],[-6.77076,41.12401],[-6.77106,41.13012],[-6.76787,41.13484],[-6.76443,41.13653],[-6.76087,41.13867],[-6.75815,41.13985],[-6.75482,41.13953],[-6.75363,41.13999],[-6.7494,41.14296],[-6.75568,41.14489],[-6.76042,41.14496],[-6.76112,41.14336],[-6.76361,41.14256],[-6.7658,41.14298],[-6.76907,41.14461],[-6.76897,41.14805],[-6.76799,41.14908],[-6.76636,41.15364],[-6.76555,41.15443],[-6.76457,41.15873],[-6.76435,41.16152],[-6.76492,41.16319],[-6.76954,41.16348],[-6.77088,41.16478],[-6.77256,41.16439],[-6.77365,41.16564],[-6.77748,41.16749],[-6.7794,41.16673],[-6.78212,41.16867],[-6.78589,41.1704],[-6.78788,41.17037],[-6.79028,41.16963],[-6.79459,41.17306],[-6.79662,41.17396],[-6.80322,41.1752],[-6.80966,41.17741],[-6.80811,41.17415],[-6.80886,41.17134],[-6.80602,41.17029],[-6.80502,41.16901],[-6.8036,41.16546],[-6.80105,41.16357],[-6.80055,41.16133],[-6.80138,41.15911],[-6.80036,41.15659],[-6.79829,41.15507],[-6.79822,41.1541],[-6.80081,41.15201],[-6.80818,41.15057],[-6.80938,41.15056],[-6.80953,41.14401],[-6.81407,41.14215],[-6.81736,41.14157],[-6.8215,41.14286],[-6.82685,41.14275],[-6.83157,41.14147],[-6.83191,41.13904],[-6.83665,41.13795],[-6.84054,41.1355],[-6.84415,41.13383],[-6.84585,41.13355],[-6.84716,41.13227],[-6.84832,41.12957],[-6.8505,41.12839],[-6.85197,41.12663],[-6.85935,41.12653],[-6.86472,41.12729],[-6.86553,41.125],[-6.86793,41.12337],[-6.86916,41.12346],[-6.87207,41.12085],[-6.87355,41.11424],[-6.87844,41.11436],[-6.88337,41.1159],[-6.88643,41.11361],[-6.88786,41.10999],[-6.88777,41.10867],[-6.89035,41.10779],[-6.89231,41.10654],[-6.89662,41.10644],[-6.9001,41.10747],[-6.90159,41.10739],[-6.90484,41.1049],[-6.90818,41.10316],[-6.91005,41.1031],[-6.9128,41.10455],[-6.91555,41.10494],[-6.9187,41.10606],[-6.92246,41.10607],[-6.92684,41.10505],[-6.92894,41.10525],[-6.93158,41.10445],[-6.93772,41.10171],[-6.94215,41.1038],[-6.94303,41.10391],[-6.94668,41.10726],[-6.94886,41.10623],[-6.95029,41.10643],[-6.95293,41.10766],[-6.95483,41.10788],[-6.95838,41.10652],[-6.96344,41.10642],[-6.96525,41.10665],[-6.97178,41.10868],[-6.97548,41.1091],[-6.97965,41.11075],[-6.98734,41.10695],[-6.98999,41.1044],[-6.99101,41.10272],[-6.99414,41.104],[-6.99638,41.10392],[-6.99719,41.10469],[-7.00197,41.10494],[-7.00402,41.10562],[-7.00636,41.10764],[-7.00773,41.10801],[-7.00934,41.10723],[-7.01044,41.1081],[-7.00887,41.11192],[-7.01447,41.11337],[-7.01674,41.1119],[-7.01761,41.11014],[-7.01921,41.11076],[-7.02085,41.11006],[-7.02282,41.11157],[-7.02294,41.11238],[-7.02527,41.11254],[-7.02655,41.11159],[-7.02864,41.11372],[-7.03067,41.11419],[-7.03218,41.11815],[-7.03276,41.12103],[-7.03125,41.12222],[-7.02911,41.12518],[-7.02992,41.1272],[-7.02807,41.12774],[-7.02408,41.13326],[-7.02168,41.13391],[-7.02093,41.13479],[-7.02158,41.13661],[-7.01761,41.13795],[-7.0154,41.14258],[-7.02049,41.14511],[-7.02883,41.14641],[-7.02963,41.14756],[-7.03462,41.149],[-7.03638,41.15009],[-7.04584,41.15179],[-7.05026,41.1522],[-7.05153,41.15516],[-7.04766,41.15642],[-7.04463,41.15701],[-7.04008,41.15698],[-7.03659,41.15829],[-7.03665,41.15928],[-7.03928,41.16096],[-7.03957,41.1627],[-7.03851,41.16444],[-7.03567,41.16571],[-7.0328,41.16589],[-7.03038,41.16658],[-7.02114,41.16757],[-7.01809,41.17207],[-7.01794,41.178],[-7.01819,41.17894],[-7.01693,41.1835],[-7.01931,41.18962],[-7.02762,41.1902],[-7.03335,41.19083],[-7.03614,41.188],[-7.03765,41.189],[-7.03737,41.18994],[-7.03955,41.19116],[-7.04139,41.19098],[-7.04277,41.19252],[-7.04261,41.19356],[-7.04374,41.19629],[-7.04497,41.1974],[-7.04696,41.19783],[-7.05049,41.19949],[-7.05105,41.20064],[-7.0533,41.20075],[-7.05427,41.20324],[-7.05549,41.20331],[-7.05565,41.20559],[-7.05793,41.20644],[-7.05909,41.20833],[-7.05707,41.20905],[-7.05521,41.21073],[-7.05396,41.21563],[-7.05063,41.21726],[-7.04644,41.21794],[-7.04358,41.21802],[-7.03721,41.2153],[-7.03163,41.21388],[-7.02727,41.21436],[-7.02393,41.21838],[-7.02253,41.22137],[-7.01969,41.22342],[-7.01689,41.22405],[-7.01498,41.22514],[-7.01285,41.22828],[-7.00978,41.23073],[-7.00899,41.23218],[-7.00934,41.23483],[-7.00869,41.23717],[-7.00721,41.23868],[-7.00312,41.23863],[-7.00006,41.23921],[-6.9958,41.24225],[-6.99416,41.24248],[-6.99127,41.2418],[-6.98758,41.23939],[-6.98368,41.23928],[-6.9832,41.24352],[-6.98239,41.24396],[-6.98245,41.24582],[-6.98374,41.24711],[-6.9838,41.24895],[-6.98285,41.24992],[-6.97582,41.25294],[-6.97825,41.25479],[-6.98103,41.25522],[-6.98483,41.25445],[-6.98667,41.25486],[-6.9985,41.26021],[-6.99919,41.26126],[-7.00209,41.26241],[-7.00922,41.26698],[-7.0092,41.26832],[-7.0161,41.27198],[-7.02113,41.27361],[-7.02273,41.27611],[-7.0273,41.2818],[-7.02844,41.2841],[-7.03019,41.28492],[-7.03422,41.28594],[-7.03514,41.28671],[-7.0375,41.29046],[-7.03874,41.29153],[-7.04426,41.29805],[-7.04683,41.30069],[-7.04784,41.30232],[-7.05026,41.3019],[-7.05134,41.30118],[-7.05355,41.30097],[-7.0561,41.30312],[-7.0567,41.30427],[-7.05916,41.30556],[-7.06319,41.30639],[-7.06605,41.30731],[-7.06955,41.30912],[-7.06865,41.31061],[-7.0664,41.31259],[-7.06399,41.3132],[-7.0625,41.31449],[-7.06062,41.315],[-7.05895,41.31782],[-7.0409,41.33034],[-7.02816,41.33786],[-7.02441,41.3399],[-7.01599,41.34101],[-7.01387,41.34213],[-7.0123,41.34569],[-7.01169,41.35146],[-7.01449,41.35629],[-7.01857,41.36268],[-7.02328,41.36496],[-7.02645,41.36796],[-7.02344,41.37159],[-7.02338,41.37553],[-7.02742,41.37377],[-7.03271,41.37114],[-7.03264,41.37083],[-7.05007,41.37004],[-7.05781,41.36917],[-7.06061,41.36869],[-7.06666,41.36848],[-7.06989,41.36794],[-7.06794,41.36977],[-7.07222,41.36963],[-7.07737,41.3672],[-7.08012,41.36734],[-7.09056,41.36577],[-7.09473,41.36492],[-7.10196,41.36381],[-7.10623,41.36826],[-7.11085,41.37458],[-7.11194,41.37738],[-7.11491,41.38371],[-7.11782,41.39128],[-7.11706,41.39339],[-7.11808,41.39511],[-7.11824,41.39763],[-7.11939,41.39928],[-7.11848,41.40217],[-7.11956,41.40367],[-7.11991,41.40541],[-7.1227,41.40656],[-7.12563,41.40603],[-7.12682,41.40738],[-7.1271,41.40905],[-7.1307,41.41062],[-7.13117,41.41238],[-7.12965,41.41373],[-7.12961,41.41676],[-7.13128,41.41764],[-7.13318,41.42018],[-7.13319,41.421],[-7.13563,41.42184],[-7.13728,41.41967],[-7.13979,41.41846],[-7.14304,41.42037],[-7.14264,41.42239],[-7.14364,41.42355],[-7.15359,41.42797],[-7.15906,41.42892],[-7.16419,41.42904],[-7.16549,41.42869],[-7.16574,41.42242],[-7.16863,41.41729],[-7.16949,41.41252],[-7.16901,41.4111],[-7.16628,41.40898],[-7.16436,41.40862],[-7.16169,41.40652],[-7.16079,41.40484],[-7.16091,41.40279],[-7.16489,41.39993],[-7.16797,41.39737],[-7.16829,41.39572],[-7.16708,41.39262],[-7.16677,41.39079],[-7.16728,41.38932],[-7.17018,41.38596],[-7.17284,41.38388],[-7.17511,41.38376],[-7.18087,41.38492],[-7.18312,41.38679],[-7.18512,41.38753],[-7.18733,41.38767],[-7.1927,41.3874],[-7.1986,41.38859],[-7.20082,41.38863],[-7.21015,41.38448],[-7.21304,41.38386],[-7.21712,41.38191],[-7.22259,41.38024],[-7.22417,41.37891],[-7.22562,41.37416],[-7.22515,41.37023],[-7.22567,41.36903],[-7.22752,41.36843],[-7.232,41.36865],[-7.23565,41.37071],[-7.23729,41.37083],[-7.23842,41.37003],[-7.24005,41.36748],[-7.24156,41.36627],[-7.24559,41.36466],[-7.24997,41.36038],[-7.25058,41.35878],[-7.24975,41.35585],[-7.25027,41.35383],[-7.25184,41.35264],[-7.2618,41.35241],[-7.26565,41.3531],[-7.26847,41.35322],[-7.27444,41.35225],[-7.27595,41.3514],[-7.278,41.34895],[-7.27917,41.34691],[-7.28012,41.34638],[-7.28555,41.34647],[-7.28726,41.34587],[-7.28841,41.34431],[-7.28762,41.34325],[-7.2888,41.34051],[-7.29033,41.33931],[-7.29388,41.33734],[-7.29548,41.3359],[-7.29675,41.33473],[-7.29892,41.33374],[-7.30128,41.33427],[-7.30508,41.33679],[-7.31125,41.33749],[-7.3147,41.33839],[-7.31507,41.33967],[-7.31417,41.34145],[-7.31788,41.34221],[-7.32894,41.34531],[-7.33058,41.34549],[-7.33537,41.34718],[-7.33943,41.34986],[-7.3427,41.35041],[-7.34523,41.35134],[-7.3481,41.35163],[-7.34846,41.35298],[-7.35034,41.35423],[-7.3522,41.35481],[-7.35601,41.35782],[-7.35833,41.36178],[-7.36014,41.36294],[-7.36149,41.36465],[-7.3623,41.36681],[-7.3596,41.36982],[-7.35509,41.37175],[-7.35358,41.37556],[-7.35259,41.37656],[-7.35614,41.37678],[-7.35744,41.37858],[-7.35679,41.37937],[-7.36137,41.38197],[-7.36055,41.38408],[-7.36093,41.38543],[-7.35946,41.38629],[-7.35817,41.38804],[-7.36046,41.38804],[-7.3616,41.38861],[-7.36077,41.39008],[-7.36223,41.39085],[-7.36233,41.39248],[-7.36154,41.39451],[-7.36191,41.39537],[-7.36521,41.39635],[-7.36632,41.39692],[-7.36594,41.39958],[-7.3666,41.4004],[-7.36623,41.40386],[-7.36422,41.40431],[-7.36269,41.40532],[-7.36224,41.40648],[-7.36637,41.40952],[-7.36637,41.41133],[-7.36411,41.41274],[-7.36503,41.4144],[-7.3667,41.41481],[-7.36575,41.41661],[-7.3637,41.41748],[-7.36427,41.41929],[-7.36331,41.42073],[-7.36167,41.42166],[-7.36161,41.42268],[-7.35965,41.42441],[-7.36113,41.42586],[-7.35981,41.42824],[-7.36088,41.4299],[-7.36095,41.43194],[-7.36354,41.43578],[-7.36525,41.43642],[-7.36494,41.44021],[-7.36603,41.44102],[-7.36605,41.44227],[-7.36759,41.44428],[-7.36917,41.44543],[-7.36955,41.44695],[-7.36884,41.44807],[-7.36982,41.44936],[-7.37401,41.45169],[-7.3737,41.45334],[-7.377,41.45414],[-7.3783,41.45371],[-7.38106,41.45433],[-7.38696,41.45675],[-7.39057,41.45575],[-7.39315,41.4542],[-7.39827,41.45225],[-7.40577,41.45092],[-7.41172,41.44941],[-7.41519,41.44827],[-7.41914,41.44643],[-7.42212,41.44426],[-7.42316,41.44255],[-7.42484,41.4376],[-7.42519,41.43576],[-7.42504,41.43178],[-7.42444,41.43108],[-7.4243,41.4285],[-7.42278,41.4261],[-7.42112,41.42467],[-7.42075,41.4234],[-7.41833,41.42167],[-7.4183,41.41898],[-7.41909,41.41674],[-7.41875,41.41333],[-7.42105,41.41362],[-7.4211,41.41442],[-7.4258,41.41505],[-7.42982,41.4169],[-7.43153,41.41724],[-7.43475,41.41912],[-7.43624,41.4221],[-7.43858,41.42498],[-7.44163,41.42687],[-7.44362,41.42709],[-7.44554,41.42814],[-7.44756,41.42852],[-7.45083,41.43044],[-7.45547,41.43119],[-7.4595,41.43114],[-7.47787,41.42881],[-7.48223,41.42397],[-7.4843,41.42243],[-7.48271,41.41987],[-7.48259,41.41732],[-7.48157,41.41627],[-7.47887,41.41491],[-7.47768,41.41324],[-7.4745,41.41062],[-7.47232,41.41141],[-7.46767,41.40924],[-7.46665,41.408],[-7.46674,41.40606],[-7.46783,41.40413],[-7.46487,41.40119],[-7.45891,41.39868],[-7.45629,41.39688],[-7.45578,41.3949],[-7.45136,41.39367],[-7.44986,41.38955],[-7.45075,41.38925],[-7.45326,41.38699],[-7.45325,41.38595],[-7.457,41.38283],[-7.45846,41.38125],[-7.45813,41.37127],[-7.46298,41.36488],[-7.46572,41.36004],[-7.46783,41.35688],[-7.47197,41.34968],[-7.47351,41.34869],[-7.47338,41.34664],[-7.47249,41.34384],[-7.47292,41.34251],[-7.47091,41.34028],[-7.46953,41.33721],[-7.46416,41.33464],[-7.45844,41.33259],[-7.45264,41.33097],[-7.45362,41.32722],[-7.45408,41.32026],[-7.45542,41.31557],[-7.458,41.3112],[-7.46206,41.31112],[-7.46452,41.31073],[-7.4728,41.31042],[-7.47403,41.30989],[-7.47835,41.30669],[-7.48214,41.30449],[-7.48567,41.30295],[-7.4899,41.30157],[-7.49548,41.30186],[-7.49982,41.30324],[-7.50141,41.30227],[-7.50519,41.30379],[-7.50421,41.30536],[-7.50546,41.30588],[-7.50723,41.30856],[-7.50697,41.30976],[-7.51033,41.31034],[-7.51207,41.3122],[-7.51451,41.31136],[-7.51611,41.31188],[-7.51843,41.3109],[-7.51941,41.31179],[-7.5214,41.31137],[-7.52211,41.31298],[-7.52048,41.31347],[-7.52017,41.31525],[-7.51834,41.31572],[-7.51886,41.31861],[-7.52134,41.31911],[-7.5217,41.32032],[-7.52011,41.32199],[-7.51639,41.32439],[-7.51458,41.32623],[-7.51345,41.32644],[-7.51153,41.32804],[-7.51168,41.33054],[-7.51099,41.33231],[-7.50983,41.33334],[-7.50763,41.33401],[-7.50526,41.3356],[-7.50327,41.33835],[-7.5015,41.34157],[-7.50098,41.34465],[-7.50708,41.3429],[-7.51784,41.34114],[-7.52202,41.33994],[-7.5262,41.33575],[-7.52893,41.33734],[-7.53015,41.33879],[-7.53215,41.34441],[-7.53384,41.34817],[-7.53879,41.34677],[-7.54235,41.34478],[-7.54381,41.34333],[-7.54761,41.34224],[-7.55596,41.34179],[-7.56014,41.34221],[-7.56476,41.34223],[-7.5665,41.34068],[-7.56821,41.33984],[-7.5691,41.33853],[-7.57274,41.33635],[-7.57659,41.33166],[-7.57669,41.33065],[-7.57381,41.32945],[-7.57367,41.32856],[-7.57563,41.32742],[-7.5747,41.32526],[-7.5721,41.32536],[-7.57081,41.32459],[-7.57048,41.32275],[-7.57404,41.32228],[-7.57076,41.32009],[-7.5697,41.3187],[-7.57098,41.31755],[-7.57012,41.3165],[-7.56821,41.3156],[-7.57044,41.31421],[-7.57133,41.31307],[-7.56989,41.31143],[-7.57306,41.31042],[-7.57272,41.30954],[-7.57076,41.30886],[-7.57112,41.30738],[-7.57345,41.30716],[-7.5801,41.30585],[-7.58235,41.30471],[-7.58868,41.29981],[-7.59115,41.29851],[-7.59554,41.29667],[-7.59705,41.29526],[-7.59978,41.29118],[-7.60263,41.28915],[-7.60533,41.28884],[-7.60811,41.28983],[-7.60926,41.29205],[-7.61148,41.29338],[-7.61117,41.2957],[-7.61202,41.29745],[-7.61505,41.30054],[-7.61661,41.30171],[-7.61927,41.29827],[-7.62137,41.29647],[-7.62114,41.29457],[-7.62324,41.29283],[-7.62675,41.29098],[-7.6289,41.28846],[-7.63237,41.28282],[-7.63039,41.28024],[-7.63167,41.27922],[-7.63256,41.27744],[-7.63541,41.27624],[-7.63797,41.27677],[-7.63926,41.27567],[-7.63809,41.27454],[-7.63967,41.27318],[-7.64167,41.27311],[-7.6436,41.27244],[-7.64476,41.26901],[-7.64663,41.26923],[-7.64911,41.26786],[-7.65116,41.26587],[-7.65368,41.26484],[-7.64585,41.26376],[-7.63701,41.26022],[-7.64073,41.25367],[-7.64301,41.25344],[-7.64537,41.25256],[-7.64733,41.25065],[-7.65159,41.24859],[-7.65188,41.24372],[-7.65105,41.24294],[-7.649,41.23791],[-7.65069,41.23643],[-7.65278,41.23988],[-7.65514,41.24079],[-7.65703,41.24063],[-7.66438,41.23883],[-7.66494,41.23818],[-7.66885,41.23765],[-7.67073,41.23611],[-7.67343,41.23457],[-7.67687,41.23444],[-7.67939,41.23532],[-7.67993,41.23625],[-7.6786,41.23829],[-7.68005,41.23994],[-7.6835,41.24103],[-7.68632,41.24064],[-7.68887,41.2398],[-7.69508,41.24141],[-7.69676,41.24075],[-7.69812,41.23884],[-7.69665,41.23854],[-7.69736,41.2362],[-7.70225,41.23762],[-7.70569,41.23608],[-7.70663,41.23414],[-7.70776,41.23389],[-7.7108,41.23664],[-7.71255,41.23641],[-7.72068,41.24092],[-7.72297,41.24284],[-7.71945,41.24919],[-7.71687,41.25041],[-7.71479,41.25231],[-7.71426,41.25421],[-7.71197,41.25537],[-7.70962,41.25593],[-7.70652,41.25614],[-7.70194,41.25843],[-7.69916,41.25867],[-7.70045,41.26059],[-7.70062,41.26179],[-7.70003,41.26461],[-7.70031,41.26652],[-7.7116,41.27412],[-7.71657,41.27562],[-7.71747,41.27648],[-7.71725,41.27787],[-7.71579,41.27931],[-7.71869,41.27988],[-7.72208,41.28176],[-7.7223,41.2832],[-7.72434,41.28447],[-7.72799,41.28467],[-7.72658,41.28844],[-7.72663,41.29019],[-7.72986,41.29114],[-7.72828,41.29392],[-7.72683,41.29324],[-7.72262,41.29295],[-7.71983,41.29245],[-7.71814,41.29319],[-7.71635,41.29157],[-7.71322,41.29238],[-7.71199,41.29483],[-7.71017,41.29506],[-7.7089,41.29649],[-7.70703,41.29699],[-7.70486,41.29607],[-7.70319,41.29604],[-7.69796,41.29723],[-7.69562,41.29832],[-7.69495,41.30157],[-7.69355,41.30462],[-7.69506,41.30645],[-7.6986,41.30822],[-7.70411,41.30547],[-7.70698,41.30767],[-7.71564,41.31138],[-7.71814,41.31275],[-7.7206,41.31342],[-7.72945,41.31583],[-7.73175,41.31472],[-7.7338,41.31465],[-7.73795,41.31603],[-7.74242,41.3181],[-7.74507,41.31691],[-7.7473,41.3154],[-7.74971,41.31324],[-7.75221,41.31004],[-7.75435,41.30801],[-7.7543,41.30698],[-7.75266,41.30592],[-7.75375,41.30384],[-7.75702,41.30415],[-7.75939,41.30132],[-7.75891,41.30003],[-7.75994,41.29785],[-7.76321,41.29847],[-7.76499,41.29519],[-7.7648,41.29444],[-7.767,41.29354],[-7.7666,41.29093],[-7.77004,41.28649],[-7.77166,41.28678],[-7.77373,41.28634],[-7.7751,41.28516],[-7.77836,41.28429],[-7.7798,41.28428],[-7.78519,41.28164],[-7.78775,41.28226],[-7.78776,41.27956],[-7.78904,41.2782],[-7.7888,41.27572],[-7.79012,41.27397],[-7.79029,41.27233],[-7.78719,41.27053],[-7.78497,41.2701],[-7.78351,41.2681],[-7.78361,41.26673],[-7.78103,41.26723],[-7.78032,41.26813],[-7.77851,41.26856],[-7.7765,41.26829],[-7.77594,41.2696],[-7.77294,41.27041],[-7.77119,41.27002],[-7.7701,41.26713],[-7.77071,41.26554],[-7.77267,41.26517],[-7.77269,41.2642],[-7.77534,41.26339],[-7.77804,41.26399],[-7.78031,41.26033],[-7.77984,41.25935],[-7.78185,41.2574],[-7.7807,41.25593],[-7.78097,41.25471],[-7.77952,41.25299],[-7.78098,41.24911],[-7.78376,41.24724],[-7.78839,41.24644],[-7.79025,41.2482],[-7.79004,41.24925],[-7.79279,41.25002],[-7.79514,41.24999],[-7.79587,41.25172],[-7.79847,41.2518],[-7.7987,41.25311],[-7.7971,41.2574],[-7.79886,41.26044],[-7.80122,41.26081],[-7.80463,41.25765],[-7.80732,41.25772],[-7.80829,41.25663],[-7.81133,41.25569],[-7.81399,41.25775],[-7.81593,41.25995],[-7.81906,41.2622],[-7.82117,41.26144],[-7.82353,41.26324],[-7.82391,41.26418],[-7.82696,41.26527],[-7.82944,41.26568],[-7.83137,41.26436],[-7.83507,41.26418],[-7.84026,41.26556],[-7.8415,41.26514],[-7.8437,41.26229],[-7.84654,41.26353],[-7.85042,41.263],[-7.85324,41.26361],[-7.85515,41.26602],[-7.85723,41.2662],[-7.86105,41.26572],[-7.86185,41.26343],[-7.86524,41.26459],[-7.86733,41.2637],[-7.86871,41.26382],[-7.86958,41.2616],[-7.87568,41.26214],[-7.8769,41.26286],[-7.87844,41.26244],[-7.88126,41.2596],[-7.88456,41.25718],[-7.88681,41.25665],[-7.8891,41.255],[-7.89213,41.25201],[-7.89344,41.25144],[-7.89573,41.24893],[-7.88697,41.24847],[-7.88231,41.24693],[-7.87979,41.24556],[-7.87558,41.24205],[-7.87785,41.24091],[-7.87937,41.23713],[-7.87977,41.23426],[-7.87908,41.23217],[-7.88178,41.23064],[-7.88358,41.2283],[-7.88442,41.22589],[-7.88638,41.223],[-7.88828,41.2178],[-7.89177,41.2137],[-7.89208,41.21066],[-7.89409,41.20924],[-7.8933,41.20603],[-7.89034,41.20244],[-7.88986,41.1987],[-7.88995,41.19582],[-7.88797,41.18909],[-7.89028,41.18633],[-7.89035,41.18276],[-7.89268,41.18079],[-7.89722,41.17472],[-7.89848,41.17458],[-7.89894,41.17286],[-7.89834,41.17125],[-7.89684,41.17104],[-7.89584,41.16798],[-7.89712,41.16706],[-7.89245,41.1642],[-7.88956,41.16294],[-7.89191,41.16147],[-7.89284,41.15952],[-7.89672,41.15818],[-7.90052,41.15581],[-7.90202,41.15607],[-7.9037,41.15474],[-7.9006,41.15238],[-7.90036,41.15076],[-7.90217,41.14908],[-7.90119,41.14727],[-7.90502,41.14512],[-7.90874,41.14272],[-7.90983,41.14113],[-7.91239,41.13854],[-7.9136,41.13496],[-7.91244,41.13299],[-7.91264,41.12915],[-7.91146,41.12702],[-7.91229,41.12488],[-7.91171,41.12261],[-7.91186,41.11989],[-7.90929,41.1196],[-7.90586,41.11874],[-7.9016,41.11931],[-7.89979,41.1205]]],[[[-7.13902,41.52829],[-7.14803,41.52837],[-7.15038,41.52909],[-7.15852,41.53268],[-7.16266,41.53553],[-7.16783,41.53844],[-7.16973,41.53988],[-7.17249,41.54134],[-7.17442,41.53838],[-7.17907,41.53752],[-7.18113,41.53752],[-7.18244,41.53691],[-7.18454,41.53266],[-7.18868,41.52642],[-7.19153,41.52447],[-7.19235,41.5227],[-7.19017,41.52064],[-7.19041,41.51943],[-7.19559,41.51471],[-7.19609,41.51248],[-7.19749,41.50876],[-7.1969,41.50679],[-7.19363,41.50394],[-7.18917,41.50208],[-7.18621,41.50013],[-7.18574,41.4993],[-7.18153,41.49634],[-7.17705,41.4988],[-7.17719,41.50072],[-7.17641,41.50287],[-7.17423,41.50483],[-7.17354,41.50614],[-7.1723,41.50615],[-7.16824,41.5028],[-7.16751,41.5027],[-7.16015,41.50381],[-7.15904,41.50421],[-7.15598,41.5042],[-7.14723,41.50463],[-7.14502,41.50599],[-7.14203,41.50498],[-7.14139,41.50359],[-7.13888,41.50348],[-7.13442,41.50084],[-7.13523,41.49834],[-7.13097,41.49976],[-7.12814,41.50039],[-7.12571,41.50036],[-7.12483,41.50204],[-7.12283,41.50269],[-7.12189,41.50076],[-7.12005,41.50171],[-7.11728,41.5023],[-7.11604,41.50351],[-7.11253,41.50354],[-7.11248,41.50475],[-7.11386,41.50727],[-7.11385,41.50868],[-7.11187,41.5104],[-7.11131,41.51274],[-7.11419,41.51553],[-7.11224,41.51669],[-7.10943,41.51387],[-7.10547,41.51401],[-7.1047,41.51441],[-7.10206,41.51488],[-7.09858,41.51383],[-7.09709,41.51288],[-7.09454,41.51341],[-7.09358,41.51224],[-7.09041,41.5113],[-7.0891,41.51017],[-7.08678,41.51036],[-7.0799,41.51021],[-7.07216,41.50914],[-7.0679,41.50752],[-7.06591,41.50947],[-7.05592,41.52009],[-7.05319,41.52414],[-7.05193,41.52682],[-7.04698,41.53214],[-7.03911,41.53784],[-7.03925,41.54249],[-7.04364,41.54675],[-7.04577,41.54844],[-7.04225,41.55163],[-7.04296,41.55392],[-7.04434,41.55294],[-7.04781,41.55306],[-7.05195,41.55527],[-7.05659,41.55432],[-7.05849,41.55512],[-7.06098,41.55469],[-7.0627,41.55507],[-7.06303,41.55358],[-7.06421,41.55258],[-7.06261,41.55149],[-7.06374,41.55065],[-7.06666,41.55089],[-7.06865,41.55224],[-7.07245,41.55202],[-7.07485,41.5524],[-7.08066,41.55617],[-7.08791,41.55728],[-7.09374,41.55727],[-7.10395,41.55685],[-7.10347,41.55274],[-7.10491,41.54951],[-7.1069,41.54728],[-7.10887,41.54577],[-7.1176,41.54393],[-7.12183,41.54229],[-7.12696,41.53888],[-7.13138,41.5345],[-7.13559,41.53079],[-7.13902,41.52829]]]]}}]}