{"type":"FeatureCollection","_provenance":{"authority":"ISTAT (comune geometry, openpolis/geojson-italy) / MASAF disciplinari (comune membership)","licence":"CC BY 4.0","method":"comune-union: ISTAT comuni dissolved per disciplinare comune lists (comune-level approximation; interior rings dropped, 5dp). Partial-territory comuni are included whole.","reviewed_at":"2026-09-07"},"features":[{"type":"Feature","properties":{"name":"primitivo-di-manduria","comuni_count":18},"geometry":{"type":"MultiPolygon","coordinates":[[[[17.76795,40.3116],[17.77043,40.31175],[17.77207,40.31184],[17.77211,40.31184],[17.77256,40.31182],[17.7737,40.31178],[17.77847,40.31141],[17.78191,40.31092],[17.78293,40.3107],[17.78433,40.31044],[17.7848,40.31045],[17.78504,40.31047],[17.78513,40.31048],[17.78531,40.31073],[17.78546,40.31227],[17.78565,40.31453],[17.78558,40.31563],[17.78427,40.31909],[17.78341,40.32123],[17.78273,40.32226],[17.78108,40.32434],[17.78428,40.33009],[17.78788,40.33179],[17.78869,40.3323],[17.78881,40.33238],[17.78931,40.33274],[17.7896,40.33294],[17.7927,40.33604],[17.79204,40.33672],[17.79302,40.33961],[17.79466,40.34337],[17.79522,40.34424],[17.79538,40.34439],[17.7957,40.34469],[17.7981,40.35017],[17.79923,40.35352],[17.79944,40.358],[17.79975,40.36829],[17.79945,40.37493],[17.79833,40.37965],[17.79842,40.38011],[17.79848,40.38077],[17.7985,40.38149],[17.79846,40.38227],[17.79835,40.383],[17.79832,40.38312],[17.79809,40.38376],[17.79778,40.38451],[17.79774,40.38458],[17.79745,40.38501],[17.79736,40.38511],[17.79363,40.38915],[17.79286,40.38985],[17.79212,40.3904],[17.79208,40.39043],[17.79203,40.39046],[17.79098,40.39096],[17.79075,40.39107],[17.79059,40.39114],[17.79051,40.39116],[17.79042,40.39118],[17.78985,40.39131],[17.7896,40.39137],[17.78925,40.39122],[17.78887,40.39106],[17.7854,40.38981],[17.78076,40.38853],[17.77758,40.38817],[17.77137,40.39315],[17.77136,40.39341],[17.7713,40.39497],[17.77133,40.39517],[17.77144,40.39622],[17.77153,40.39698],[17.77289,40.39761],[17.77363,40.39799],[17.77389,40.39813],[17.77496,40.39882],[17.77958,40.40208],[17.78047,40.40281],[17.7809,40.40348],[17.78094,40.40355],[17.78126,40.40415],[17.78131,40.40429],[17.78149,40.40478],[17.78372,40.41443],[17.78397,40.41598],[17.78425,40.41931],[17.78437,40.42287],[17.78431,40.42582],[17.78431,40.42591],[17.7843,40.42618],[17.78421,40.42803],[17.78394,40.43293],[17.78373,40.43647],[17.78349,40.43951],[17.78633,40.43964],[17.78647,40.43964],[17.78811,40.4398],[17.79347,40.44137],[17.79606,40.44542],[17.79504,40.44853],[17.79276,40.45267],[17.79037,40.45307],[17.79015,40.4531],[17.7892,40.45507],[17.78901,40.45545],[17.79044,40.45854],[17.79263,40.46327],[17.79299,40.46404],[17.78992,40.47023],[17.78428,40.46935],[17.78175,40.4691],[17.78073,40.469],[17.78004,40.47382],[17.78001,40.47401],[17.78043,40.48077],[17.77967,40.48574],[17.77914,40.48921],[17.77907,40.48969],[17.77857,40.4931],[17.77903,40.49566],[17.78192,40.50607],[17.786,40.51244],[17.78712,40.51525],[17.78756,40.52177],[17.78312,40.52871],[17.77964,40.52985],[17.77208,40.53063],[17.77073,40.52997],[17.76877,40.52698],[17.76868,40.52414],[17.75773,40.52035],[17.75553,40.51973],[17.75488,40.51968],[17.75449,40.51964],[17.75401,40.51961],[17.7531,40.51958],[17.75301,40.51957],[17.75246,40.51955],[17.75205,40.51954],[17.74975,40.51967],[17.74956,40.52053],[17.74958,40.52252],[17.74961,40.5232],[17.74608,40.53055],[17.73943,40.53068],[17.72999,40.53127],[17.72969,40.53129],[17.72681,40.53154],[17.72646,40.53157],[17.72249,40.53864],[17.71705,40.5368],[17.70845,40.53363],[17.69645,40.52792],[17.69248,40.52594],[17.68321,40.52128],[17.67799,40.51938],[17.67491,40.52128],[17.66992,40.52647],[17.66963,40.5319],[17.66963,40.53209],[17.66965,40.53276],[17.6697,40.53366],[17.6697,40.53372],[17.66972,40.5339],[17.66993,40.53485],[17.67067,40.53769],[17.67095,40.53861],[17.67098,40.53872],[17.67136,40.53962],[17.67147,40.53982],[17.67155,40.53994],[17.67188,40.54047],[17.67245,40.54144],[17.67271,40.54188],[17.67287,40.5422],[17.67316,40.54279],[17.67367,40.54388],[17.67398,40.54531],[17.67405,40.54647],[17.67434,40.55148],[17.67329,40.55503],[17.67232,40.5582],[17.67131,40.56059],[17.66079,40.56016],[17.66024,40.5579],[17.66098,40.55372],[17.66136,40.55344],[17.66272,40.55284],[17.66283,40.5528],[17.66506,40.54681],[17.6667,40.53988],[17.66195,40.5377],[17.66152,40.5377],[17.65935,40.53773],[17.6588,40.53774],[17.65765,40.54005],[17.6553,40.54659],[17.65521,40.54906],[17.655,40.54971],[17.65489,40.54993],[17.65476,40.55018],[17.65459,40.55037],[17.65306,40.55009],[17.65256,40.54849],[17.65211,40.54205],[17.65343,40.54115],[17.65519,40.54076],[17.65543,40.54041],[17.65543,40.54014],[17.65544,40.53991],[17.65544,40.53973],[17.65543,40.53889],[17.65543,40.53873],[17.65463,40.53561],[17.65058,40.5314],[17.63982,40.53054],[17.63888,40.52746],[17.64099,40.52289],[17.64253,40.51961],[17.63508,40.52419],[17.63275,40.52802],[17.63091,40.52941],[17.62819,40.52897],[17.6225,40.5272],[17.62175,40.52543],[17.62139,40.5246],[17.62063,40.52264],[17.62058,40.52228],[17.62056,40.52211],[17.62055,40.52208],[17.6211,40.52137],[17.62408,40.51476],[17.61453,40.50791],[17.61335,40.50304],[17.61432,40.5026],[17.61464,40.50227],[17.61522,40.50154],[17.61561,40.49995],[17.60978,40.49682],[17.60816,40.49605],[17.60553,40.49532],[17.60473,40.49513],[17.60432,40.49504],[17.59868,40.49398],[17.59593,40.4873],[17.58787,40.48081],[17.58329,40.47614],[17.58366,40.46744],[17.5838,40.4602],[17.5831,40.45845],[17.58239,40.45638],[17.58898,40.4508],[17.58983,40.45029],[17.59014,40.45002],[17.59023,40.44944],[17.58921,40.44845],[17.58837,40.44766],[17.58339,40.44306],[17.58112,40.44121],[17.5779,40.43894],[17.57728,40.43851],[17.57301,40.44202],[17.56541,40.44301],[17.56542,40.4429],[17.56544,40.44267],[17.56529,40.44159],[17.56514,40.44079],[17.56494,40.43981],[17.56457,40.43827],[17.56455,40.43822],[17.56439,40.43777],[17.56434,40.43763],[17.56415,40.43749],[17.56384,40.43725],[17.56285,40.43703],[17.56208,40.43689],[17.56098,40.43691],[17.55993,40.43713],[17.5592,40.43752],[17.55869,40.43825],[17.55836,40.43956],[17.55792,40.44061],[17.55715,40.44174],[17.55683,40.44217],[17.55591,40.44339],[17.55543,40.44399],[17.55522,40.44418],[17.55466,40.44468],[17.55405,40.44506],[17.55395,40.44512],[17.55115,40.44624],[17.54958,40.44649],[17.54291,40.44554],[17.54211,40.44528],[17.54208,40.44509],[17.54208,40.44506],[17.54223,40.44493],[17.54276,40.44448],[17.544,40.44417],[17.54494,40.44402],[17.5463,40.44383],[17.54666,40.44362],[17.54681,40.44353],[17.54679,40.44262],[17.54665,40.44066],[17.54661,40.44036],[17.54635,40.43844],[17.5433,40.44056],[17.5386,40.44343],[17.53226,40.4477],[17.52386,40.45476],[17.5199,40.46062],[17.52021,40.46812],[17.5202,40.46819],[17.52009,40.46902],[17.51965,40.47041],[17.51951,40.47071],[17.5193,40.47117],[17.51915,40.47149],[17.51895,40.47175],[17.51865,40.47212],[17.51858,40.4722],[17.51779,40.47309],[17.51174,40.47809],[17.51027,40.47883],[17.50582,40.47897],[17.49973,40.47967],[17.49829,40.4799],[17.48968,40.48148],[17.48863,40.48169],[17.48852,40.48172],[17.48699,40.48216],[17.48561,40.48149],[17.48475,40.48104],[17.48393,40.48054],[17.48368,40.47996],[17.48367,40.47993],[17.48472,40.47516],[17.48592,40.47218],[17.47978,40.46716],[17.4763,40.46645],[17.47281,40.46526],[17.47171,40.46434],[17.47175,40.46403],[17.47044,40.45679],[17.4595,40.46113],[17.45256,40.46105],[17.45597,40.45943],[17.4566,40.45879],[17.45653,40.45719],[17.4565,40.45656],[17.45627,40.45625],[17.45471,40.45517],[17.45422,40.45487],[17.45365,40.45476],[17.45112,40.45397],[17.44798,40.4524],[17.44637,40.45057],[17.45073,40.44311],[17.45502,40.43771],[17.45468,40.43172],[17.45442,40.42684],[17.4546,40.4227],[17.45561,40.42086],[17.44917,40.42011],[17.44594,40.4195],[17.44309,40.4187],[17.43734,40.41624],[17.42987,40.41289],[17.4254,40.41071],[17.4202,40.40726],[17.4199,40.40617],[17.41876,40.40199],[17.41832,40.39994],[17.41821,40.39905],[17.41813,40.39785],[17.41713,40.39201],[17.41605,40.38701],[17.41441,40.3843],[17.41218,40.38337],[17.40908,40.37704],[17.40936,40.37048],[17.41186,40.36819],[17.41916,40.36766],[17.43451,40.36621],[17.43938,40.35946],[17.43909,40.35838],[17.43732,40.35198],[17.43687,40.35047],[17.43651,40.34965],[17.43556,40.34883],[17.43554,40.34881],[17.43462,40.3484],[17.4335,40.34835],[17.43161,40.33701],[17.43223,40.33139],[17.43994,40.33049],[17.44284,40.32981],[17.44323,40.32966],[17.44854,40.32734],[17.45284,40.32372],[17.45487,40.32033],[17.45803,40.31698],[17.46042,40.31612],[17.46282,40.31586],[17.4691,40.3146],[17.47636,40.31319],[17.48436,40.31232],[17.48506,40.31222],[17.48666,40.31195],[17.49234,40.31061],[17.49307,40.31042],[17.49477,40.30996],[17.49616,40.30908],[17.49627,40.309],[17.4969,40.30853],[17.49938,40.3065],[17.50364,40.30253],[17.5041,40.29726],[17.50394,40.29711],[17.50393,40.29705],[17.50396,40.29699],[17.50412,40.29681],[17.50421,40.29671],[17.50454,40.29647],[17.505,40.29618],[17.50543,40.29593],[17.50565,40.29581],[17.50579,40.29575],[17.50591,40.29569],[17.50796,40.29498],[17.50836,40.29486],[17.50888,40.29473],[17.51016,40.29463],[17.51249,40.29464],[17.52237,40.29475],[17.52856,40.29498],[17.53093,40.29507],[17.54793,40.29716],[17.55633,40.29731],[17.56396,40.2978],[17.58178,40.29926],[17.59899,40.29976],[17.61009,40.30053],[17.62622,40.30212],[17.65499,40.30405],[17.65703,40.30419],[17.65856,40.30426],[17.66282,40.30445],[17.67261,40.30463],[17.68133,40.30445],[17.69447,40.30364],[17.70455,40.30273],[17.72298,40.30073],[17.73547,40.29878],[17.73774,40.29704],[17.73995,40.29591],[17.74197,40.29523],[17.74309,40.295],[17.74913,40.29578],[17.75632,40.29685],[17.75641,40.2972],[17.75695,40.29758],[17.75838,40.29777],[17.76056,40.29752],[17.76168,40.29717],[17.76201,40.29707],[17.76285,40.29665],[17.76386,40.29614],[17.76795,40.3116]]],[[[17.39179,40.48379],[17.38967,40.48737],[17.38797,40.49028],[17.37956,40.49241],[17.37508,40.49483],[17.37164,40.49828],[17.35222,40.49566],[17.3508,40.49529],[17.34926,40.49403],[17.34894,40.49362],[17.34887,40.49325],[17.3489,40.49314],[17.34901,40.49276],[17.34943,40.49235],[17.35284,40.49048],[17.35288,40.48574],[17.34565,40.47958],[17.33658,40.47629],[17.33618,40.47638],[17.33558,40.47651],[17.33455,40.47649],[17.3335,40.47601],[17.33341,40.4759],[17.33281,40.47508],[17.33269,40.4744],[17.33264,40.47416],[17.3326,40.4731],[17.33275,40.47183],[17.33286,40.4709],[17.33316,40.47003],[17.33366,40.46931],[17.33613,40.4661],[17.33709,40.46496],[17.34021,40.46234],[17.34173,40.45434],[17.34096,40.44904],[17.34105,40.44859],[17.34112,40.44856],[17.34175,40.44831],[17.34395,40.44767],[17.34644,40.44792],[17.3432,40.44588],[17.3419,40.44635],[17.34133,40.44565],[17.34129,40.44559],[17.34113,40.44534],[17.34087,40.44493],[17.3407,40.44468],[17.3403,40.44402],[17.34015,40.44354],[17.34043,40.44232],[17.34063,40.44153],[17.34111,40.44012],[17.34143,40.43937],[17.34144,40.43934],[17.34221,40.43765],[17.34384,40.43424],[17.34396,40.43407],[17.34521,40.4322],[17.34627,40.43082],[17.34684,40.43012],[17.34756,40.42936],[17.34847,40.42841],[17.34864,40.42825],[17.34868,40.42821],[17.35208,40.42876],[17.35246,40.42885],[17.35312,40.42902],[17.35842,40.42859],[17.36625,40.42597],[17.37111,40.42183],[17.37117,40.42176],[17.37145,40.42137],[17.37156,40.42058],[17.37158,40.42018],[17.37162,40.41907],[17.37156,40.41594],[17.3677,40.40944],[17.36516,40.40797],[17.36551,40.40579],[17.36666,40.40197],[17.36903,40.39884],[17.36895,40.39624],[17.36882,40.39625],[17.36778,40.39629],[17.36461,40.39643],[17.36474,40.39583],[17.36521,40.395],[17.36539,40.39481],[17.36578,40.39441],[17.36661,40.39371],[17.36669,40.39363],[17.36675,40.39359],[17.36743,40.39299],[17.36789,40.39247],[17.36831,40.39185],[17.36852,40.39152],[17.3686,40.39141],[17.36891,40.3909],[17.36899,40.39075],[17.36936,40.38971],[17.3694,40.38947],[17.36903,40.38947],[17.36788,40.38948],[17.36151,40.38953],[17.36138,40.38999],[17.36127,40.39117],[17.36085,40.39523],[17.36018,40.39569],[17.35794,40.3968],[17.36038,40.40003],[17.36467,40.40804],[17.36473,40.40969],[17.36474,40.41001],[17.36054,40.4099],[17.35427,40.40831],[17.35401,40.40654],[17.35379,40.40511],[17.35362,40.40396],[17.35226,40.40474],[17.3495,40.40596],[17.34627,40.40687],[17.34592,40.40072],[17.34569,40.39666],[17.34859,40.39655],[17.3487,40.39655],[17.34876,40.39654],[17.34838,40.39102],[17.34721,40.39026],[17.34335,40.39025],[17.33704,40.39036],[17.3327,40.39053],[17.33198,40.39168],[17.33184,40.39216],[17.33166,40.39297],[17.33166,40.39301],[17.33351,40.39284],[17.33422,40.39277],[17.3343,40.39277],[17.33433,40.39276],[17.33468,40.39274],[17.33542,40.39558],[17.33537,40.39901],[17.33458,40.40918],[17.33462,40.4096],[17.3313,40.40961],[17.33015,40.40946],[17.32988,40.40779],[17.32914,40.40312],[17.33061,40.40108],[17.33121,40.40088],[17.33179,40.40059],[17.33182,40.40053],[17.33197,40.40026],[17.33205,40.40011],[17.33211,40.39984],[17.33217,40.39955],[17.3322,40.39896],[17.33224,40.39635],[17.33109,40.39537],[17.33026,40.39538],[17.32907,40.39549],[17.32819,40.39557],[17.32795,40.39559],[17.32757,40.39562],[17.32728,40.39565],[17.3263,40.39576],[17.32571,40.39584],[17.32557,40.39586],[17.32446,40.39614],[17.32238,40.39727],[17.31989,40.39902],[17.31526,40.39714],[17.30641,40.39594],[17.30099,40.39578],[17.29862,40.39679],[17.29401,40.3976],[17.29163,40.39775],[17.28904,40.39783],[17.28832,40.39717],[17.28344,40.38401],[17.28492,40.37997],[17.28578,40.37987],[17.29605,40.37889],[17.29768,40.37809],[17.30505,40.37237],[17.30839,40.36929],[17.31506,40.36568],[17.32431,40.36171],[17.32964,40.36186],[17.33836,40.36189],[17.33929,40.36181],[17.34013,40.36172],[17.34117,40.36066],[17.34244,40.35952],[17.3454,40.35724],[17.34877,40.35492],[17.34922,40.35468],[17.34979,40.35441],[17.35072,40.35411],[17.35168,40.35392],[17.35215,40.35397],[17.35232,40.35402],[17.35248,40.35416],[17.35251,40.35423],[17.36081,40.35262],[17.36543,40.34938],[17.37035,40.34822],[17.37548,40.34808],[17.37833,40.34672],[17.38156,40.34361],[17.38501,40.33831],[17.38616,40.33734],[17.38841,40.34342],[17.38944,40.34634],[17.39166,40.35265],[17.39239,40.35475],[17.38636,40.36231],[17.38184,40.37365],[17.38213,40.37975],[17.38455,40.38009],[17.39733,40.38125],[17.39763,40.38124],[17.39847,40.38121],[17.39869,40.3812],[17.40101,40.38117],[17.40252,40.38115],[17.40626,40.3816],[17.40709,40.38175],[17.4085,40.38224],[17.40881,40.38246],[17.41196,40.38632],[17.41229,40.39118],[17.40917,40.3925],[17.40874,40.39321],[17.40853,40.39485],[17.40832,40.39651],[17.40802,40.40081],[17.40867,40.40447],[17.40953,40.40612],[17.40951,40.40618],[17.40932,40.40688],[17.40698,40.4096],[17.40572,40.41086],[17.40437,40.41168],[17.40304,40.41239],[17.40192,40.41289],[17.40068,40.41339],[17.39977,40.41385],[17.39775,40.41565],[17.39728,40.41627],[17.39464,40.42106],[17.39447,40.42432],[17.39476,40.42566],[17.39466,40.42624],[17.3944,40.42684],[17.39406,40.4274],[17.39364,40.42799],[17.39301,40.4288],[17.39289,40.42893],[17.39248,40.42939],[17.39237,40.42949],[17.39192,40.42989],[17.39119,40.43039],[17.39075,40.43064],[17.39024,40.43092],[17.38951,40.4313],[17.39224,40.43261],[17.39271,40.43255],[17.39376,40.43235],[17.39406,40.43218],[17.39434,40.43181],[17.39439,40.43174],[17.39613,40.42832],[17.39609,40.42671],[17.39589,40.42645],[17.39589,40.42632],[17.39591,40.42604],[17.39593,40.4258],[17.39601,40.42537],[17.39627,40.42461],[17.39656,40.42435],[17.40242,40.42647],[17.40342,40.43205],[17.41016,40.42942],[17.41351,40.43182],[17.41356,40.43267],[17.4183,40.43575],[17.41839,40.43576],[17.41923,40.43588],[17.42076,40.43611],[17.42172,40.43615],[17.42353,40.43568],[17.42504,40.4351],[17.42628,40.43106],[17.43233,40.43024],[17.43304,40.43014],[17.4331,40.43013],[17.4348,40.434],[17.43477,40.43431],[17.43442,40.43604],[17.43432,40.43639],[17.43425,40.43658],[17.43311,40.43726],[17.43198,40.43711],[17.42552,40.44033],[17.42685,40.44357],[17.42681,40.44457],[17.42598,40.44533],[17.42551,40.44577],[17.43092,40.45395],[17.43143,40.46176],[17.42754,40.47077],[17.4261,40.47267],[17.42573,40.4732],[17.42547,40.47371],[17.42536,40.47416],[17.42537,40.47429],[17.42624,40.47658],[17.42636,40.47789],[17.42641,40.47935],[17.42633,40.48114],[17.41918,40.48826],[17.41557,40.49165],[17.41333,40.49332],[17.41076,40.49338],[17.41051,40.49339],[17.40934,40.49226],[17.40709,40.49041],[17.39778,40.48346],[17.39396,40.48458],[17.39179,40.48379]]]]}},{"type":"Feature","properties":{"name":"castel-del-monte","comuni_count":10},"geometry":{"type":"MultiPolygon","coordinates":[[[[16.18553,41.0188],[16.18849,41.01163],[16.19157,41.00877],[16.1971,41.0102],[16.19886,41.01098],[16.20056,41.01181],[16.20231,41.01279],[16.20618,41.01497],[16.20717,41.01608],[16.21012,41.02283],[16.21704,41.02272],[16.2175,41.02235],[16.21826,41.02181],[16.21904,41.02141],[16.21995,41.02097],[16.22108,41.02047],[16.22161,41.0203],[16.22215,41.02014],[16.22385,41.01974],[16.23398,41.0186],[16.23531,41.01847],[16.23661,41.01866],[16.238,41.01887],[16.23896,41.01908],[16.23941,41.01915],[16.23979,41.0192],[16.24168,41.01926],[16.24288,41.01902],[16.24583,41.01803],[16.25208,41.01577],[16.25242,41.01561],[16.25366,41.01507],[16.25404,41.01478],[16.25418,41.01439],[16.25423,41.01428],[16.25602,41.01193],[16.25665,41.01132],[16.25743,41.01058],[16.25768,41.0104],[16.25799,41.01017],[16.25825,41.01001],[16.25847,41.00986],[16.25914,41.0097],[16.26188,41.00845],[16.26602,41.00581],[16.26642,41.00535],[16.2721,41.00065],[16.28069,40.99265],[16.29246,40.98688],[16.30635,40.98085],[16.31928,40.97171],[16.32721,40.96575],[16.34268,40.95866],[16.34574,40.95748],[16.35228,40.95862],[16.36429,40.96259],[16.37583,40.96377],[16.38565,40.96314],[16.40267,40.96158],[16.40623,40.95857],[16.41655,40.95866],[16.43184,40.96062],[16.44043,40.96077],[16.44317,40.96192],[16.45735,40.96989],[16.45748,40.97002],[16.45838,40.9707],[16.46867,40.97803],[16.4694,40.97849],[16.47147,40.97881],[16.47188,40.97885],[16.47205,40.97756],[16.47486,40.97546],[16.48743,40.97002],[16.50325,40.96313],[16.50514,40.96227],[16.50596,40.96183],[16.50609,40.96176],[16.51846,40.95513],[16.52199,40.95323],[16.52316,40.95259],[16.52786,40.94984],[16.52915,40.94894],[16.53167,40.94722],[16.53238,40.94691],[16.53264,40.9468],[16.53845,40.94445],[16.54046,40.94377],[16.54178,40.9431],[16.54346,40.94261],[16.54624,40.94231],[16.54793,40.94218],[16.54871,40.94221],[16.56391,40.93304],[16.56507,40.93272],[16.56924,40.9316],[16.57722,40.93073],[16.57809,40.93083],[16.57999,40.93116],[16.58046,40.93124],[16.58265,40.93182],[16.58341,40.93206],[16.58421,40.93232],[16.59033,40.93471],[16.5923,40.93574],[16.59775,40.93582],[16.60872,40.93114],[16.61559,40.92974],[16.6164,40.93034],[16.61668,40.93056],[16.62046,40.93543],[16.6226,40.93871],[16.62257,40.93883],[16.6225,40.93921],[16.62674,40.94585],[16.63208,40.95191],[16.64378,40.96305],[16.64762,40.96657],[16.65033,40.96622],[16.65214,40.96599],[16.65455,40.96567],[16.6547,40.96565],[16.6548,40.96562],[16.68311,40.9652],[16.68353,40.96519],[16.68614,40.96576],[16.68718,40.96639],[16.68806,40.96754],[16.68912,40.96985],[16.68949,40.97072],[16.69149,40.97666],[16.69174,40.97742],[16.69178,40.97755],[16.69182,40.97772],[16.69493,40.98978],[16.69465,40.99523],[16.69501,41.00139],[16.69605,41.00634],[16.69617,41.00667],[16.69626,41.00731],[16.69632,41.00867],[16.69632,41.00883],[16.69629,41.00987],[16.6948,41.01093],[16.69468,41.01101],[16.69446,41.01115],[16.69297,41.01186],[16.6922,41.01219],[16.69133,41.01244],[16.69069,41.01259],[16.68903,41.01293],[16.68431,41.01649],[16.68416,41.01678],[16.68408,41.01694],[16.68409,41.01727],[16.68411,41.01785],[16.68413,41.01805],[16.68421,41.01878],[16.68774,41.02836],[16.68786,41.02864],[16.6879,41.02873],[16.68799,41.02893],[16.68833,41.02908],[16.69974,41.03377],[16.71055,41.03758],[16.72168,41.0402],[16.72373,41.04089],[16.7274,41.04414],[16.72761,41.0518],[16.7292,41.06015],[16.72996,41.06176],[16.73419,41.06489],[16.73845,41.0668],[16.74074,41.06998],[16.73963,41.07164],[16.74898,41.07417],[16.74984,41.07421],[16.74941,41.07713],[16.74897,41.07869],[16.74884,41.07891],[16.74824,41.07983],[16.74788,41.07999],[16.7482,41.08654],[16.7524,41.09319],[16.75569,41.09962],[16.75222,41.10513],[16.75117,41.10773],[16.74993,41.1125],[16.74965,41.11376],[16.74962,41.11395],[16.74954,41.11438],[16.74959,41.11445],[16.74976,41.11468],[16.74997,41.11483],[16.75013,41.11494],[16.75022,41.11501],[16.75064,41.1157],[16.75135,41.11761],[16.75151,41.11821],[16.75146,41.11853],[16.75087,41.12221],[16.7492,41.12377],[16.74635,41.12615],[16.74315,41.12952],[16.73897,41.13428],[16.72369,41.15215],[16.72364,41.15286],[16.72326,41.15321],[16.7216,41.15385],[16.72093,41.1541],[16.72002,41.15439],[16.71834,41.15468],[16.71742,41.15479],[16.71728,41.15481],[16.71696,41.15391],[16.70172,41.15108],[16.69313,41.14974],[16.68451,41.14936],[16.67365,41.14654],[16.66416,41.14356],[16.66052,41.14017],[16.65787,41.13847],[16.64855,41.14011],[16.64204,41.13605],[16.63483,41.13598],[16.63457,41.13621],[16.63366,41.13694],[16.63226,41.13801],[16.62768,41.13591],[16.62123,41.12933],[16.62028,41.12384],[16.61946,41.12194],[16.61895,41.12092],[16.61695,41.11912],[16.61482,41.11765],[16.60813,41.11753],[16.60572,41.1196],[16.60346,41.12153],[16.60213,41.12346],[16.6012,41.12614],[16.59948,41.13096],[16.59556,41.13546],[16.59493,41.13674],[16.59547,41.13721],[16.59436,41.13716],[16.59376,41.13744],[16.59119,41.13879],[16.59005,41.14047],[16.59,41.14092],[16.59036,41.14159],[16.58862,41.1468],[16.58498,41.15179],[16.57979,41.15714],[16.57416,41.1598],[16.5739,41.15989],[16.57315,41.16007],[16.57215,41.16027],[16.57172,41.16034],[16.57059,41.16051],[16.56981,41.16054],[16.56646,41.15985],[16.56579,41.15971],[16.56575,41.15969],[16.5652,41.15941],[16.56492,41.15898],[16.5648,41.1588],[16.56474,41.15869],[16.56447,41.15824],[16.55119,41.15984],[16.53763,41.16153],[16.53496,41.16093],[16.5339,41.16003],[16.53224,41.15867],[16.53193,41.15846],[16.53175,41.15834],[16.5264,41.1547],[16.52608,41.15456],[16.52602,41.15454],[16.52595,41.15453],[16.52502,41.15444],[16.51312,41.1568],[16.51175,41.15749],[16.50809,41.15937],[16.50384,41.15134],[16.49785,41.15179],[16.48271,41.15365],[16.47476,41.15239],[16.47241,41.1494],[16.47046,41.14889],[16.46789,41.15248],[16.4656,41.15643],[16.46368,41.1636],[16.45992,41.17036],[16.45646,41.17388],[16.44338,41.17984],[16.43711,41.18747],[16.4368,41.18784],[16.43632,41.1882],[16.43564,41.18842],[16.42929,41.19021],[16.42905,41.19026],[16.42878,41.19032],[16.43099,41.19658],[16.43566,41.20544],[16.43338,41.20868],[16.4312,41.21214],[16.43118,41.21217],[16.43107,41.21239],[16.43097,41.2126],[16.43091,41.21272],[16.43022,41.21441],[16.42933,41.21764],[16.42896,41.21903],[16.43082,41.2203],[16.43146,41.22073],[16.43377,41.22165],[16.43722,41.22116],[16.44345,41.21864],[16.44336,41.21827],[16.44332,41.21809],[16.44329,41.21799],[16.44236,41.21581],[16.44212,41.21528],[16.44119,41.21543],[16.44115,41.21544],[16.44107,41.21546],[16.43976,41.21582],[16.43927,41.21597],[16.43707,41.21334],[16.43414,41.20879],[16.43539,41.20784],[16.43766,41.20681],[16.44382,41.21111],[16.4466,41.21441],[16.44684,41.21491],[16.44682,41.21522],[16.44669,41.21542],[16.44661,41.21553],[16.44658,41.21558],[16.44633,41.21581],[16.446,41.21603],[16.4558,41.2266],[16.4502,41.23401],[16.45314,41.23849],[16.45677,41.24302],[16.46091,41.24779],[16.46585,41.25269],[16.46759,41.25576],[16.464,41.25731],[16.4587,41.25954],[16.45443,41.26007],[16.45211,41.26056],[16.44835,41.2621],[16.44783,41.26232],[16.44272,41.26589],[16.43506,41.27048],[16.426,41.27687],[16.41936,41.28251],[16.40372,41.28492],[16.40316,41.28489],[16.40196,41.28495],[16.40085,41.28513],[16.38687,41.2904],[16.38495,41.29136],[16.37546,41.29652],[16.36475,41.30191],[16.36357,41.30247],[16.35872,41.30473],[16.35483,41.30585],[16.35366,41.30474],[16.34748,41.29933],[16.34285,41.29447],[16.34,41.28915],[16.33674,41.28559],[16.33361,41.28285],[16.33355,41.28285],[16.33258,41.28273],[16.33215,41.28238],[16.33188,41.28216],[16.3316,41.28193],[16.33092,41.28125],[16.33089,41.28122],[16.32835,41.27744],[16.32766,41.27581],[16.32873,41.27424],[16.33026,41.27336],[16.33043,41.27257],[16.32892,41.27085],[16.3281,41.2701],[16.3272,41.26952],[16.32692,41.26934],[16.32606,41.27043],[16.32524,41.2712],[16.3211,41.26972],[16.31465,41.26526],[16.30812,41.25783],[16.30877,41.25732],[16.30342,41.25669],[16.30007,41.2582],[16.29903,41.25913],[16.29765,41.26157],[16.29187,41.2658],[16.28906,41.26582],[16.28565,41.26319],[16.28634,41.2613],[16.28663,41.26052],[16.28684,41.25995],[16.28789,41.26006],[16.28955,41.25784],[16.28887,41.25773],[16.28663,41.25751],[16.28561,41.25752],[16.28385,41.25784],[16.28126,41.25848],[16.27585,41.25984],[16.27048,41.26388],[16.27267,41.26287],[16.27509,41.26374],[16.27513,41.26428],[16.27516,41.26524],[16.27514,41.26573],[16.2751,41.26669],[16.27499,41.26695],[16.27454,41.26751],[16.27445,41.26755],[16.27421,41.26769],[16.26604,41.26892],[16.2604,41.2684],[16.25759,41.26573],[16.25303,41.26427],[16.24583,41.26283],[16.23108,41.2655],[16.22129,41.26914],[16.21667,41.27145],[16.21652,41.27136],[16.21554,41.2707],[16.21515,41.27044],[16.21379,41.26947],[16.21089,41.26691],[16.21074,41.26676],[16.21043,41.26646],[16.20992,41.26592],[16.20669,41.26248],[16.20546,41.26121],[16.20424,41.26021],[16.20374,41.25981],[16.2022,41.25863],[16.19618,41.25442],[16.19417,41.2533],[16.191,41.25276],[16.18841,41.25264],[16.18456,41.24808],[16.18318,41.24315],[16.18135,41.23806],[16.1778,41.23067],[16.17779,41.23064],[16.17684,41.22973],[16.17621,41.22962],[16.17596,41.22959],[16.17573,41.22957],[16.175,41.22953],[16.17485,41.22952],[16.17444,41.22952],[16.1744,41.22952],[16.16406,41.22992],[16.15697,41.2304],[16.1447,41.23191],[16.14331,41.23483],[16.13203,41.23507],[16.12419,41.23693],[16.11821,41.24235],[16.11809,41.24282],[16.11475,41.252],[16.10647,41.26039],[16.09999,41.27077],[16.0952,41.27535],[16.09457,41.27587],[16.09392,41.27631],[16.09342,41.27632],[16.09308,41.27633],[16.09247,41.27604],[16.09069,41.27528],[16.08984,41.27495],[16.0872,41.274],[16.08468,41.27322],[16.07932,41.27169],[16.07808,41.27137],[16.0772,41.27121],[16.07571,41.27153],[16.06702,41.27509],[16.0658,41.27375],[16.06264,41.27126],[16.06049,41.26962],[16.05818,41.26809],[16.05797,41.26797],[16.05717,41.26755],[16.05858,41.26005],[16.0604,41.25611],[16.04979,41.24655],[16.04022,41.24064],[16.03259,41.23821],[16.02829,41.23801],[16.02281,41.23511],[16.02255,41.23477],[16.02237,41.23454],[16.02182,41.23365],[16.02053,41.23101],[16.01981,41.22936],[16.02041,41.2205],[16.01293,41.2118],[16.00802,41.20888],[16.00462,41.2095],[15.99542,41.20601],[15.99583,41.20265],[15.99648,41.19944],[15.99216,41.19582],[15.99161,41.1954],[15.9911,41.19531],[15.99098,41.19529],[15.99016,41.19544],[15.98861,41.19631],[15.98831,41.19669],[15.9816,41.19489],[15.97698,41.19135],[15.96862,41.18945],[15.96236,41.18633],[15.95691,41.18491],[15.95046,41.18339],[15.9429,41.18411],[15.93203,41.18297],[15.92709,41.18084],[15.9176,41.17406],[15.91337,41.16848],[15.91051,41.1661],[15.90345,41.16282],[15.89775,41.15821],[15.89288,41.154],[15.88384,41.1508],[15.87412,41.14431],[15.87333,41.14375],[15.87201,41.14251],[15.87043,41.14049],[15.87028,41.14001],[15.87025,41.13992],[15.87447,41.13714],[15.87493,41.13683],[15.87531,41.13678],[15.87565,41.13688],[15.87596,41.13698],[15.87608,41.13701],[15.87611,41.13702],[15.87696,41.13733],[15.8777,41.13772],[15.88673,41.13022],[15.89436,41.12325],[15.90079,41.12641],[15.90405,41.12397],[15.90652,41.12212],[15.91016,41.11938],[15.91021,41.11934],[15.9103,41.11927],[15.91058,41.11905],[15.91114,41.11861],[15.91263,41.11739],[15.9214,41.11154],[15.93178,41.10901],[15.93755,41.11358],[15.94218,41.11262],[15.9522,41.11056],[15.95415,41.10944],[15.95704,41.10574],[15.95714,41.1056],[15.95753,41.1051],[15.95767,41.10492],[15.95775,41.10481],[15.95817,41.10416],[15.95846,41.10372],[15.95969,41.10125],[15.9598,41.10091],[15.95992,41.10056],[15.95992,41.10046],[15.95996,41.10005],[15.95969,41.09913],[15.95962,41.09889],[15.95901,41.0979],[15.95865,41.09746],[15.95838,41.09714],[15.95739,41.09611],[15.95732,41.09604],[15.95414,41.09312],[15.95517,41.09291],[15.958,41.09278],[15.95816,41.09279],[15.95907,41.09284],[15.96629,41.09346],[15.97625,41.09417],[15.97712,41.09367],[15.97773,41.09328],[15.98304,41.0887],[15.98356,41.08642],[15.98358,41.08543],[15.98218,41.08278],[15.98211,41.08273],[15.98207,41.08271],[15.98138,41.08228],[15.98015,41.08159],[15.98229,41.07742],[15.98605,41.07201],[15.98963,41.0675],[15.99106,41.06571],[15.99869,41.05477],[16.00343,41.05603],[16.00937,41.05724],[16.01976,41.05195],[16.02689,41.04787],[16.03479,41.04111],[16.0399,41.03414],[16.04047,41.02836],[16.04052,41.02808],[16.04169,41.02437],[16.04356,41.01987],[16.04635,41.01526],[16.04729,41.01403],[16.04804,41.01322],[16.05002,41.01171],[16.06108,41.00444],[16.06459,41.00216],[16.07019,40.99962],[16.07063,40.99943],[16.07209,40.99883],[16.08364,40.99424],[16.09609,40.98971],[16.10309,40.98409],[16.10346,40.98348],[16.10404,40.98315],[16.10638,40.98231],[16.10721,40.98234],[16.1083,40.98255],[16.10864,40.98274],[16.11336,40.98598],[16.11654,40.98991],[16.12063,40.99095],[16.12825,40.99181],[16.13158,40.99192],[16.13667,40.99334],[16.13726,40.99351],[16.14441,40.99617],[16.14531,40.99656],[16.14577,40.99693],[16.14593,40.99741],[16.14601,40.9979],[16.14614,40.99873],[16.14618,40.99902],[16.14624,40.99942],[16.14698,41.00044],[16.14936,41.00213],[16.15025,41.00271],[16.15254,41.00381],[16.16544,41.00975],[16.16645,41.01018],[16.16672,41.0103],[16.1679,41.01065],[16.18158,41.0168],[16.18553,41.0188]]]]}},{"type":"Feature","properties":{"name":"salice-salentino","comuni_count":7},"geometry":{"type":"MultiPolygon","coordinates":[[[[17.83602,40.36253],[17.83587,40.35792],[17.83596,40.35732],[17.83614,40.35657],[17.83671,40.35553],[17.83697,40.35525],[17.84628,40.34684],[17.85127,40.34328],[17.86316,40.33752],[17.86427,40.33706],[17.87001,40.33504],[17.87204,40.33446],[17.87359,40.33403],[17.87961,40.33172],[17.89285,40.32665],[17.89309,40.32656],[17.89465,40.32629],[17.8951,40.32626],[17.8992,40.32626],[17.89941,40.32626],[17.90009,40.32626],[17.90279,40.32631],[17.9068,40.32645],[17.90876,40.32659],[17.90946,40.32663],[17.91021,40.32666],[17.91475,40.32676],[17.91719,40.3267],[17.91763,40.32458],[17.91802,40.32227],[17.92246,40.31391],[17.93744,40.30741],[17.9381,40.30727],[17.94824,40.30716],[17.95085,40.30761],[17.96133,40.3098],[17.96306,40.31018],[17.9635,40.31029],[17.96444,40.31055],[17.96559,40.31093],[17.96809,40.31176],[17.98051,40.31601],[17.98901,40.31914],[17.99761,40.32196],[18.00422,40.32337],[18.00429,40.32352],[18.00521,40.32585],[18.00181,40.32868],[17.99992,40.33079],[17.9999,40.33156],[18.00032,40.3325],[18.00082,40.33361],[18.00087,40.33372],[18.00146,40.3343],[18.00169,40.33452],[18.00169,40.3394],[18.00166,40.33987],[18.00151,40.34062],[18.00143,40.34091],[18.0011,40.34196],[18.00069,40.34311],[17.99955,40.34611],[17.99483,40.36202],[17.99762,40.36293],[18.00423,40.36562],[18.00906,40.36879],[18.01093,40.37047],[18.01545,40.37467],[18.01884,40.37758],[18.02382,40.37884],[18.03069,40.37887],[18.03459,40.38165],[18.03764,40.38708],[18.04854,40.3955],[18.05265,40.39743],[18.05663,40.39856],[18.05707,40.40093],[18.05241,40.40645],[18.0411,40.41451],[18.02711,40.42072],[18.02694,40.42067],[18.02681,40.42064],[18.0266,40.42067],[18.02628,40.42072],[18.02231,40.42348],[18.02145,40.42418],[18.02101,40.42455],[18.02034,40.42544],[18.01876,40.42754],[18.01799,40.42863],[18.01615,40.43138],[18.01608,40.43174],[18.0161,40.43192],[18.01614,40.43236],[18.01885,40.43659],[18.0195,40.43749],[18.01612,40.43905],[18.00413,40.44564],[18.00175,40.44741],[18.00003,40.44863],[17.99979,40.44878],[17.99922,40.44913],[17.99795,40.4499],[17.99671,40.45042],[17.99559,40.45073],[17.99251,40.45159],[17.98512,40.45331],[17.98404,40.4534],[17.98349,40.45356],[17.98258,40.45382],[17.98254,40.45383],[17.98172,40.45424],[17.98085,40.45467],[17.98023,40.45507],[17.97853,40.45647],[17.97846,40.45653],[17.99095,40.46502],[17.99087,40.46533],[17.9902,40.46768],[17.98735,40.47187],[17.98356,40.47637],[17.97956,40.4802],[17.97397,40.48689],[17.96648,40.49637],[17.95948,40.50558],[17.95772,40.51193],[17.95628,40.51665],[17.95553,40.51803],[17.95099,40.51667],[17.9455,40.51484],[17.94055,40.51283],[17.93611,40.51127],[17.92867,40.5087],[17.92152,40.50691],[17.91028,40.5034],[17.90078,40.50008],[17.89518,40.49735],[17.89513,40.49733],[17.89503,40.49728],[17.89422,40.49689],[17.89279,40.4961],[17.89052,40.49474],[17.88886,40.4937],[17.88509,40.49128],[17.88397,40.49052],[17.88331,40.48999],[17.88294,40.48968],[17.88291,40.48965],[17.8827,40.48947],[17.88218,40.48899],[17.88203,40.48885],[17.87992,40.48686],[17.87984,40.48673],[17.87973,40.48651],[17.87966,40.48612],[17.87956,40.48547],[17.87849,40.47828],[17.87381,40.4793],[17.86587,40.48035],[17.85982,40.4814],[17.85408,40.48316],[17.85248,40.48313],[17.85106,40.48222],[17.85049,40.48117],[17.84795,40.47561],[17.84729,40.47364],[17.84725,40.47181],[17.84725,40.47167],[17.84616,40.47174],[17.84433,40.47186],[17.84399,40.47189],[17.84337,40.47195],[17.84284,40.47201],[17.84226,40.47208],[17.84188,40.47212],[17.83807,40.47257],[17.83779,40.47261],[17.83647,40.47281],[17.8364,40.47282],[17.83486,40.47309],[17.83452,40.47315],[17.83441,40.47317],[17.83276,40.47364],[17.82864,40.47546],[17.82523,40.47697],[17.81701,40.47706],[17.81667,40.4769],[17.81634,40.4762],[17.81561,40.47328],[17.80808,40.4681],[17.80805,40.46457],[17.80829,40.46217],[17.80831,40.46058],[17.8064,40.45662],[17.80603,40.4568],[17.80327,40.45822],[17.80082,40.4595],[17.79758,40.46129],[17.79579,40.46229],[17.79299,40.46404],[17.79263,40.46327],[17.79044,40.45854],[17.78901,40.45545],[17.7892,40.45507],[17.79015,40.4531],[17.79037,40.45307],[17.79276,40.45267],[17.79504,40.44853],[17.79606,40.44542],[17.79347,40.44137],[17.78811,40.4398],[17.78647,40.43964],[17.78633,40.43964],[17.78349,40.43951],[17.78373,40.43647],[17.78394,40.43293],[17.78421,40.42803],[17.7843,40.42618],[17.78431,40.42591],[17.78431,40.42582],[17.78437,40.42287],[17.78425,40.41931],[17.78397,40.41598],[17.78372,40.41443],[17.78149,40.40478],[17.78131,40.40429],[17.78126,40.40415],[17.78094,40.40355],[17.7809,40.40348],[17.78047,40.40281],[17.77958,40.40208],[17.77496,40.39882],[17.77389,40.39813],[17.77363,40.39799],[17.77289,40.39761],[17.77153,40.39698],[17.77144,40.39622],[17.77133,40.39517],[17.7713,40.39497],[17.77136,40.39341],[17.77137,40.39315],[17.77758,40.38817],[17.78076,40.38853],[17.7854,40.38981],[17.78887,40.39106],[17.78925,40.39122],[17.7896,40.39137],[17.78985,40.39131],[17.79042,40.39118],[17.79051,40.39116],[17.79059,40.39114],[17.79075,40.39107],[17.79098,40.39096],[17.79203,40.39046],[17.79208,40.39043],[17.79212,40.3904],[17.79286,40.38985],[17.79363,40.38915],[17.79736,40.38511],[17.79745,40.38501],[17.79774,40.38458],[17.79778,40.38451],[17.79809,40.38376],[17.79832,40.38312],[17.79835,40.383],[17.79846,40.38227],[17.7985,40.38149],[17.79848,40.38077],[17.79842,40.38011],[17.79833,40.37965],[17.79945,40.37493],[17.79975,40.36829],[17.79944,40.358],[17.79923,40.35352],[17.79944,40.35357],[17.80128,40.354],[17.80182,40.35412],[17.80293,40.35435],[17.80335,40.35443],[17.80491,40.35471],[17.80579,40.35483],[17.81408,40.35596],[17.82638,40.35957],[17.82729,40.36011],[17.82921,40.36092],[17.83046,40.36142],[17.8309,40.36157],[17.83258,40.36211],[17.83321,40.36225],[17.83395,40.36233],[17.83602,40.36253]]]]}},{"type":"Feature","properties":{"name":"copertino","comuni_count":6},"geometry":{"type":"MultiPolygon","coordinates":[[[[18.06848,40.22372],[18.0706,40.22374],[18.07264,40.22373],[18.07329,40.22151],[18.07328,40.22148],[18.07322,40.22091],[18.07318,40.22065],[18.07741,40.20926],[18.08133,40.2026],[18.0849,40.1935],[18.08596,40.19058],[18.09409,40.19244],[18.09902,40.19354],[18.09921,40.19121],[18.09928,40.18614],[18.09784,40.17931],[18.09421,40.17116],[18.0936,40.16733],[18.09861,40.16303],[18.10248,40.1601],[18.10791,40.15654],[18.11283,40.15331],[18.11505,40.15162],[18.12,40.15152],[18.11981,40.15335],[18.12015,40.15426],[18.12222,40.15606],[18.12689,40.15959],[18.12966,40.15859],[18.12984,40.15742],[18.12767,40.15347],[18.12656,40.15237],[18.12671,40.15202],[18.12757,40.15001],[18.13195,40.14761],[18.13563,40.14685],[18.14227,40.1451],[18.15286,40.14192],[18.16429,40.13832],[18.16502,40.13801],[18.16609,40.13755],[18.16643,40.13742],[18.16751,40.13723],[18.17387,40.13844],[18.18283,40.14306],[18.18567,40.14297],[18.186,40.14443],[18.18736,40.15145],[18.18801,40.15562],[18.19294,40.15792],[18.19371,40.15792],[18.19454,40.1576],[18.20086,40.1545],[18.2064,40.15419],[18.21276,40.15832],[18.21421,40.15973],[18.21459,40.16007],[18.21468,40.16016],[18.21517,40.16086],[18.21472,40.16104],[18.21258,40.16169],[18.20883,40.16254],[18.20799,40.16264],[18.20213,40.16432],[18.19379,40.17294],[18.19127,40.1795],[18.18602,40.18354],[18.18366,40.18799],[18.18239,40.19202],[18.17084,40.19345],[18.16899,40.19332],[18.16854,40.19342],[18.16767,40.19413],[18.16322,40.19894],[18.15604,40.21532],[18.15549,40.2205],[18.15551,40.22079],[18.15573,40.22102],[18.1593,40.22359],[18.16143,40.22391],[18.16456,40.22373],[18.1715,40.22466],[18.17318,40.2282],[18.17283,40.23205],[18.17206,40.23989],[18.16837,40.24214],[18.16831,40.24217],[18.16826,40.2422],[18.17249,40.24419],[18.172,40.24495],[18.16933,40.2502],[18.16985,40.25238],[18.16937,40.25962],[18.16789,40.26426],[18.16743,40.26559],[18.1657,40.26668],[18.16331,40.267],[18.16189,40.26834],[18.15972,40.2704],[18.15858,40.27157],[18.15775,40.27248],[18.15586,40.27485],[18.15552,40.27531],[18.15484,40.27667],[18.15321,40.28009],[18.15284,40.28136],[18.15284,40.28231],[18.15312,40.28442],[18.15191,40.28482],[18.14888,40.28634],[18.14773,40.28718],[18.14638,40.28859],[18.1462,40.28883],[18.1462,40.28889],[18.14621,40.28915],[18.14627,40.28933],[18.14632,40.28947],[18.14674,40.29001],[18.14689,40.29013],[18.14695,40.29018],[18.14838,40.2978],[18.14722,40.30067],[18.14652,40.30313],[18.14848,40.30582],[18.15022,40.30785],[18.15578,40.31058],[18.15799,40.31558],[18.16139,40.32313],[18.16266,40.32558],[18.16246,40.3272],[18.16048,40.32792],[18.15862,40.32766],[18.15843,40.32729],[18.15839,40.32723],[18.15829,40.32708],[18.15752,40.32605],[18.15745,40.32597],[18.15734,40.32583],[18.15716,40.32566],[18.15585,40.32448],[18.1554,40.32418],[18.15459,40.32376],[18.15295,40.32349],[18.149,40.32318],[18.14784,40.324],[18.14534,40.32708],[18.14307,40.32381],[18.14181,40.32112],[18.14174,40.32106],[18.13986,40.31911],[18.13982,40.31908],[18.13965,40.31901],[18.13951,40.31894],[18.13499,40.31946],[18.13306,40.32047],[18.13147,40.32134],[18.13036,40.32175],[18.13033,40.32176],[18.13027,40.32176],[18.13019,40.32174],[18.12985,40.32148],[18.12373,40.31653],[18.12009,40.31251],[18.11766,40.31472],[18.11461,40.3176],[18.1116,40.32064],[18.11253,40.32194],[18.11514,40.32282],[18.11914,40.32476],[18.11945,40.32496],[18.11951,40.32502],[18.12076,40.32678],[18.1192,40.33487],[18.11756,40.33755],[18.12016,40.33972],[18.12095,40.34562],[18.12098,40.34588],[18.1213,40.34996],[18.11516,40.35033],[18.10823,40.35097],[18.1007,40.35196],[18.09674,40.35257],[18.09508,40.35817],[18.09432,40.36215],[18.09411,40.36419],[18.09408,40.36439],[18.09394,40.36499],[18.09389,40.36502],[18.09237,40.36557],[18.09213,40.36565],[18.09199,40.36568],[18.09189,40.3657],[18.09182,40.36571],[18.09175,40.36571],[18.09165,40.3657],[18.09157,40.36568],[18.09151,40.36567],[18.09145,40.36565],[18.09009,40.36527],[18.08658,40.36315],[18.08685,40.36122],[18.08709,40.36119],[18.08745,40.36116],[18.08756,40.36114],[18.08763,40.36111],[18.08765,40.36108],[18.08766,40.36104],[18.08765,40.36101],[18.08763,40.36098],[18.08558,40.35932],[18.08373,40.35828],[18.08203,40.35736],[18.07558,40.3553],[18.07365,40.35509],[18.06562,40.35467],[18.06255,40.35479],[18.05189,40.36084],[18.05096,40.36169],[18.04911,40.3649],[18.04922,40.36633],[18.04949,40.36674],[18.05214,40.36951],[18.04807,40.3725],[18.04275,40.37358],[18.04221,40.3732],[18.04171,40.37278],[18.04158,40.37266],[18.04042,40.37143],[18.04005,40.37095],[18.0385,40.36898],[18.0379,40.36765],[18.03292,40.3635],[18.02715,40.3613],[18.02283,40.36007],[18.01856,40.35931],[18.01574,40.35819],[18.01029,40.35552],[18.00649,40.35196],[18.00599,40.35008],[18.00528,40.3481],[18.00485,40.3478],[18.00394,40.34738],[18.00377,40.3473],[18.0037,40.34727],[18.00365,40.34725],[18.00287,40.34703],[18.00167,40.34669],[18.00133,40.3466],[18.0008,40.34645],[18.00066,40.34641],[17.99955,40.34611],[18.00069,40.34311],[18.0011,40.34196],[18.00143,40.34091],[18.00151,40.34062],[18.00166,40.33987],[18.00169,40.3394],[18.00169,40.33452],[18.00146,40.3343],[18.00087,40.33372],[18.00082,40.33361],[18.00032,40.3325],[17.9999,40.33156],[17.99992,40.33079],[18.00181,40.32868],[18.00521,40.32585],[18.00824,40.32411],[18.01794,40.31802],[18.02414,40.31648],[18.02099,40.31508],[18.0081,40.30869],[18.00802,40.30861],[18.00791,40.30848],[18.00774,40.30805],[18.00772,40.30799],[18.00763,40.3075],[18.00767,40.3067],[18.00773,40.30556],[18.00776,40.30544],[18.00807,40.30408],[18.00832,40.30361],[18.01095,40.29938],[18.01122,40.29904],[18.01133,40.2989],[18.01167,40.29855],[18.01294,40.29729],[18.01578,40.29498],[18.01707,40.29447],[18.01898,40.29323],[18.02209,40.2903],[18.02246,40.28995],[18.02403,40.28815],[18.02547,40.28617],[18.02559,40.286],[18.0258,40.28571],[18.02695,40.28383],[18.02702,40.28361],[18.02706,40.28346],[18.02669,40.27765],[18.02663,40.27728],[18.02627,40.27621],[18.02436,40.27399],[18.02397,40.27376],[18.02018,40.27198],[18.01956,40.27169],[18.01905,40.27145],[18.01886,40.27138],[18.0164,40.27062],[18.01407,40.2702],[18.01257,40.27076],[18.01141,40.27149],[18.01125,40.27148],[18.00482,40.27122],[18.00353,40.27112],[18.0026,40.27102],[18.00168,40.2708],[17.9939,40.26831],[17.99084,40.26698],[17.98544,40.26172],[17.9854,40.26166],[17.98521,40.26129],[17.98518,40.26122],[17.98502,40.26074],[17.98487,40.25996],[17.98482,40.25897],[17.98401,40.25146],[17.98637,40.25168],[17.98714,40.25176],[17.99303,40.25598],[17.99409,40.25675],[17.99506,40.25745],[17.99838,40.25987],[17.99971,40.2601],[18.00547,40.25714],[18.00755,40.25419],[18.00801,40.25095],[18.01317,40.24786],[18.02154,40.2458],[18.0306,40.24203],[18.03777,40.2412],[18.04407,40.24066],[18.04753,40.2402],[18.04902,40.23992],[18.04924,40.23784],[18.04899,40.23605],[18.04825,40.23239],[18.04885,40.22959],[18.05163,40.22505],[18.05297,40.22339],[18.05481,40.22179],[18.05739,40.22084],[18.05955,40.22127],[18.06276,40.22278],[18.06575,40.22429],[18.06693,40.22459],[18.06848,40.22372]]]]}},{"type":"Feature","properties":{"name":"gioia-del-colle","comuni_count":16},"geometry":{"type":"MultiPolygon","coordinates":[[[[16.83975,41.0114],[16.83652,41.01053],[16.83401,41.00967],[16.82923,41.00717],[16.8229,41.00599],[16.81346,41.01189],[16.81079,41.01951],[16.80053,41.02313],[16.79819,41.02389],[16.79038,41.02654],[16.77931,41.02751],[16.77815,41.02637],[16.77083,41.01678],[16.7683,41.01044],[16.76119,41.00287],[16.76029,41.0007],[16.76003,40.99751],[16.76186,40.99456],[16.76432,40.98691],[16.7653,40.97468],[16.76508,40.97398],[16.76442,40.97321],[16.76395,40.97297],[16.75981,40.97554],[16.74863,40.98298],[16.74221,40.99102],[16.73654,40.99538],[16.72846,40.99869],[16.72657,41.0026],[16.72373,41.00944],[16.71649,41.0163],[16.71444,41.0178],[16.71249,41.01836],[16.70421,41.01953],[16.6975,41.0163],[16.68903,41.01293],[16.69069,41.01259],[16.69133,41.01244],[16.6922,41.01219],[16.69297,41.01186],[16.69446,41.01115],[16.69468,41.01101],[16.6948,41.01093],[16.69629,41.00987],[16.69632,41.00883],[16.69632,41.00867],[16.69626,41.00731],[16.69617,41.00667],[16.69605,41.00634],[16.69501,41.00139],[16.69465,40.99523],[16.69493,40.98978],[16.69182,40.97772],[16.69178,40.97755],[16.69174,40.97742],[16.69149,40.97666],[16.68949,40.97072],[16.68912,40.96985],[16.68806,40.96754],[16.68718,40.96639],[16.68614,40.96576],[16.68353,40.96519],[16.68311,40.9652],[16.6548,40.96562],[16.6547,40.96565],[16.65455,40.96567],[16.65214,40.96599],[16.65033,40.96622],[16.64762,40.96657],[16.64378,40.96305],[16.63208,40.95191],[16.62674,40.94585],[16.6225,40.93921],[16.62257,40.93883],[16.6226,40.93871],[16.62046,40.93543],[16.61668,40.93056],[16.6164,40.93034],[16.61559,40.92974],[16.60872,40.93114],[16.59775,40.93582],[16.5923,40.93574],[16.59033,40.93471],[16.58421,40.93232],[16.58341,40.93206],[16.58265,40.93182],[16.58046,40.93124],[16.57999,40.93116],[16.57809,40.93083],[16.57722,40.93073],[16.56924,40.9316],[16.56507,40.93272],[16.56391,40.93304],[16.54871,40.94221],[16.54793,40.94218],[16.54624,40.94231],[16.54346,40.94261],[16.54178,40.9431],[16.54046,40.94377],[16.53845,40.94445],[16.53264,40.9468],[16.53238,40.94691],[16.53167,40.94722],[16.52915,40.94894],[16.52786,40.94984],[16.52316,40.95259],[16.52199,40.95323],[16.51846,40.95513],[16.50609,40.96176],[16.50596,40.96183],[16.50514,40.96227],[16.50325,40.96313],[16.48743,40.97002],[16.47486,40.97546],[16.47205,40.97756],[16.47188,40.97885],[16.47147,40.97881],[16.4694,40.97849],[16.46867,40.97803],[16.45838,40.9707],[16.45748,40.97002],[16.45735,40.96989],[16.44317,40.96192],[16.44043,40.96077],[16.43184,40.96062],[16.41655,40.95866],[16.40623,40.95857],[16.40267,40.96158],[16.38565,40.96314],[16.37583,40.96377],[16.36429,40.96259],[16.35228,40.95862],[16.34574,40.95748],[16.34548,40.95725],[16.34439,40.95524],[16.34403,40.95457],[16.34384,40.95393],[16.34367,40.95327],[16.34361,40.95274],[16.34382,40.95216],[16.34446,40.95181],[16.35449,40.94707],[16.36929,40.93903],[16.38207,40.93206],[16.39237,40.92727],[16.39632,40.92576],[16.40151,40.92397],[16.40677,40.92171],[16.41213,40.91822],[16.41807,40.91206],[16.42414,40.90621],[16.43239,40.8991],[16.43362,40.89768],[16.43425,40.89688],[16.43468,40.89629],[16.43508,40.89572],[16.43546,40.89504],[16.43877,40.88917],[16.44525,40.87647],[16.44549,40.87596],[16.44559,40.8755],[16.44577,40.87424],[16.44585,40.87322],[16.44591,40.87224],[16.44607,40.86961],[16.44619,40.86687],[16.44617,40.86618],[16.44581,40.86295],[16.44573,40.86235],[16.44554,40.86168],[16.44514,40.86083],[16.44386,40.85593],[16.44327,40.85168],[16.44327,40.85161],[16.44326,40.85106],[16.44359,40.85051],[16.44368,40.85037],[16.44415,40.84988],[16.4462,40.84848],[16.44829,40.84698],[16.44892,40.84653],[16.4503,40.84516],[16.45051,40.84492],[16.45222,40.84219],[16.45311,40.84051],[16.45351,40.83938],[16.45494,40.83355],[16.45584,40.82955],[16.45646,40.82559],[16.4565,40.82548],[16.45669,40.82493],[16.45671,40.82489],[16.45849,40.82192],[16.46962,40.80676],[16.47786,40.79891],[16.48239,40.79522],[16.48995,40.7903],[16.4929,40.78767],[16.49568,40.78518],[16.49683,40.78379],[16.49697,40.78361],[16.5016,40.7773],[16.50471,40.76982],[16.50566,40.76697],[16.50412,40.76508],[16.50105,40.76229],[16.50665,40.75776],[16.50844,40.75336],[16.51449,40.74921],[16.51725,40.74861],[16.52049,40.74708],[16.52266,40.74605],[16.5237,40.74387],[16.52375,40.74358],[16.52378,40.74321],[16.5236,40.74294],[16.52218,40.74102],[16.52157,40.74061],[16.52106,40.74033],[16.52036,40.74007],[16.52352,40.73543],[16.53476,40.72823],[16.53838,40.72541],[16.53969,40.7252],[16.54143,40.72524],[16.54331,40.72545],[16.54402,40.72554],[16.54277,40.72974],[16.53694,40.73457],[16.5379,40.74212],[16.53609,40.74282],[16.53138,40.74464],[16.53129,40.74517],[16.5338,40.74948],[16.53421,40.75002],[16.53454,40.75044],[16.5358,40.75193],[16.53687,40.7529],[16.53727,40.7531],[16.53765,40.75329],[16.54613,40.75599],[16.55261,40.75801],[16.55447,40.75765],[16.55554,40.75699],[16.55807,40.75507],[16.5586,40.75447],[16.56079,40.74993],[16.56114,40.74637],[16.56829,40.73716],[16.57244,40.73694],[16.57798,40.742],[16.57781,40.74239],[16.57763,40.74269],[16.57583,40.7452],[16.57322,40.74798],[16.57064,40.74936],[16.57004,40.74962],[16.5696,40.74989],[16.56896,40.75039],[16.56866,40.75069],[16.56738,40.75239],[16.56687,40.75333],[16.56686,40.75371],[16.56685,40.75396],[16.56697,40.75446],[16.56834,40.75791],[16.56921,40.75909],[16.57456,40.7618],[16.58027,40.76226],[16.58558,40.76259],[16.58713,40.76179],[16.58859,40.76066],[16.58886,40.7603],[16.58885,40.7596],[16.58877,40.75914],[16.58892,40.75805],[16.58921,40.75632],[16.58936,40.75546],[16.5915,40.75377],[16.59436,40.75264],[16.59531,40.75279],[16.59605,40.7531],[16.59705,40.75374],[16.59795,40.75423],[16.5991,40.75456],[16.60081,40.75486],[16.6037,40.75522],[16.60479,40.75536],[16.60601,40.75549],[16.60669,40.7555],[16.6079,40.75525],[16.61435,40.7529],[16.61995,40.75351],[16.62707,40.75417],[16.63308,40.75339],[16.6386,40.75109],[16.63874,40.75102],[16.6391,40.75084],[16.63805,40.74916],[16.63714,40.74817],[16.6403,40.74475],[16.6454,40.74538],[16.64753,40.74418],[16.65168,40.74087],[16.64935,40.73803],[16.65286,40.7363],[16.66152,40.73683],[16.66153,40.73687],[16.66153,40.73691],[16.66158,40.7372],[16.66165,40.73765],[16.66172,40.73809],[16.66179,40.73854],[16.66186,40.73898],[16.66193,40.73943],[16.662,40.73987],[16.66205,40.74024],[16.66336,40.74887],[16.66773,40.7443],[16.67006,40.74132],[16.67226,40.73919],[16.67294,40.73869],[16.67321,40.73849],[16.67384,40.73814],[16.67403,40.73803],[16.67751,40.73614],[16.67821,40.73581],[16.68457,40.73297],[16.69288,40.72916],[16.7014,40.72501],[16.71136,40.72007],[16.71585,40.71796],[16.72076,40.71569],[16.7249,40.71383],[16.72758,40.71241],[16.72761,40.7124],[16.72851,40.71198],[16.72862,40.71193],[16.72874,40.71188],[16.72986,40.71147],[16.73017,40.71138],[16.73102,40.71116],[16.73149,40.71104],[16.73232,40.71089],[16.73277,40.71082],[16.73397,40.7108],[16.73411,40.71079],[16.73426,40.71079],[16.73477,40.71092],[16.73513,40.71102],[16.74895,40.71773],[16.7643,40.72395],[16.76448,40.72399],[16.76602,40.72432],[16.77028,40.72548],[16.77803,40.72844],[16.77906,40.72886],[16.77956,40.72907],[16.78611,40.73245],[16.7868,40.73327],[16.78966,40.72627],[16.79406,40.71463],[16.79774,40.70466],[16.80007,40.69501],[16.80071,40.69455],[16.80096,40.69438],[16.80536,40.69286],[16.80862,40.69199],[16.81003,40.69226],[16.81388,40.69313],[16.8149,40.69322],[16.8217,40.69384],[16.82184,40.69385],[16.82021,40.69651],[16.81974,40.69712],[16.81903,40.69812],[16.8186,40.69917],[16.81856,40.69925],[16.81837,40.70009],[16.81822,40.70075],[16.81816,40.701],[16.81806,40.70145],[16.81805,40.70151],[16.81792,40.70236],[16.81789,40.70255],[16.8179,40.70281],[16.81792,40.70326],[16.81793,40.70355],[16.81804,40.70621],[16.82985,40.70877],[16.8333,40.70932],[16.83441,40.7095],[16.84214,40.71279],[16.84276,40.71312],[16.84298,40.71325],[16.84377,40.71383],[16.84483,40.71481],[16.84561,40.71558],[16.84606,40.7161],[16.84645,40.71699],[16.84664,40.71768],[16.84708,40.71897],[16.84888,40.7205],[16.85068,40.72163],[16.85209,40.72221],[16.85516,40.72346],[16.85585,40.72358],[16.85668,40.72369],[16.86389,40.72154],[16.86729,40.71823],[16.87065,40.71147],[16.87511,40.71648],[16.89235,40.71512],[16.89933,40.71198],[16.89928,40.71152],[16.89938,40.70865],[16.89942,40.70803],[16.89967,40.70766],[16.90034,40.70742],[16.90355,40.70673],[16.90407,40.70662],[16.91011,40.70689],[16.91115,40.70697],[16.91168,40.70705],[16.91195,40.70709],[16.92698,40.71167],[16.93071,40.71286],[16.93075,40.71324],[16.93077,40.71348],[16.93081,40.71403],[16.93062,40.71511],[16.93034,40.71561],[16.92715,40.72068],[16.92412,40.72473],[16.92364,40.7251],[16.92325,40.72567],[16.92306,40.726],[16.92333,40.72911],[16.92593,40.73683],[16.92632,40.73725],[16.9287,40.73874],[16.93373,40.74045],[16.93754,40.74155],[16.9432,40.74268],[16.94569,40.74306],[16.94696,40.74315],[16.94804,40.74319],[16.94893,40.74321],[16.94963,40.7432],[16.95049,40.74314],[16.95352,40.74281],[16.95644,40.74248],[16.95702,40.7424],[16.95712,40.74239],[16.95811,40.74225],[16.96066,40.74197],[16.96234,40.74184],[16.9707,40.74132],[16.97078,40.74132],[16.97082,40.74132],[16.97153,40.74133],[16.97259,40.74166],[16.97344,40.74196],[16.9735,40.74199],[16.97398,40.74216],[16.98092,40.74475],[16.99605,40.75073],[17.0059,40.75464],[17.01265,40.75826],[17.01545,40.75982],[17.01845,40.75591],[17.01885,40.75001],[17.00458,40.73464],[17.00218,40.73329],[17.00087,40.73237],[17.00093,40.73157],[17.00095,40.7314],[17.01225,40.72298],[17.01907,40.71668],[17.01956,40.71588],[17.02063,40.7147],[17.02153,40.71393],[17.02257,40.71308],[17.02398,40.71266],[17.03207,40.71215],[17.03246,40.71213],[17.03369,40.71207],[17.05026,40.71659],[17.05548,40.71905],[17.06296,40.7211],[17.08262,40.71984],[17.08568,40.71924],[17.08769,40.71789],[17.08808,40.71707],[17.08811,40.71646],[17.08771,40.71435],[17.08737,40.71301],[17.08712,40.71235],[17.08707,40.71225],[17.08682,40.71142],[17.0869,40.7109],[17.08917,40.71015],[17.09038,40.7099],[17.09647,40.70883],[17.09828,40.71189],[17.10166,40.71446],[17.11296,40.71354],[17.11676,40.71093],[17.1162,40.70977],[17.1159,40.70905],[17.11588,40.70838],[17.11616,40.70819],[17.12274,40.707],[17.123,40.707],[17.12358,40.70699],[17.12386,40.70701],[17.1249,40.70708],[17.14372,40.70912],[17.14539,40.7093],[17.1457,40.70934],[17.14688,40.70948],[17.1473,40.70957],[17.14768,40.70966],[17.14827,40.70985],[17.14852,40.70993],[17.14949,40.71076],[17.14984,40.71159],[17.14987,40.71168],[17.15007,40.71231],[17.15026,40.71331],[17.15046,40.71442],[17.15052,40.71477],[17.15052,40.71481],[17.15042,40.71568],[17.15045,40.71683],[17.15058,40.71816],[17.15091,40.72097],[17.15119,40.72215],[17.15322,40.72989],[17.15605,40.73988],[17.15627,40.74028],[17.1565,40.74071],[17.15704,40.74165],[17.15792,40.74238],[17.1589,40.7431],[17.15987,40.74376],[17.16238,40.74477],[17.18939,40.7565],[17.19077,40.75711],[17.196,40.75941],[17.19935,40.76089],[17.19983,40.7611],[17.20055,40.76142],[17.20095,40.76155],[17.20128,40.76167],[17.20308,40.76092],[17.20303,40.76402],[17.2038,40.77072],[17.20396,40.77278],[17.20393,40.77314],[17.2039,40.77345],[17.20378,40.77432],[17.20349,40.77472],[17.20006,40.77852],[17.19417,40.78756],[17.18815,40.79417],[17.18748,40.79449],[17.18702,40.79477],[17.18512,40.79753],[17.18504,40.79778],[17.18461,40.79943],[17.18459,40.79956],[17.18457,40.79966],[17.18456,40.79976],[17.18498,40.80005],[17.18581,40.80037],[17.19336,40.80292],[17.19598,40.8041],[17.19946,40.80593],[17.19982,40.80613],[17.19995,40.80624],[17.20016,40.80642],[17.20098,40.80741],[17.20113,40.8078],[17.20099,40.80808],[17.20007,40.80888],[17.19913,40.80957],[17.19861,40.80991],[17.19905,40.81314],[17.20071,40.81919],[17.20227,40.82097],[17.2155,40.82236],[17.22146,40.82369],[17.22054,40.8255],[17.21866,40.82766],[17.21477,40.83401],[17.21435,40.83545],[17.22123,40.83458],[17.23025,40.83402],[17.23172,40.8314],[17.23153,40.82843],[17.23321,40.82705],[17.2358,40.82625],[17.23853,40.82607],[17.23871,40.82672],[17.23883,40.82739],[17.23905,40.82873],[17.23905,40.82877],[17.239,40.82919],[17.23899,40.82927],[17.23865,40.82984],[17.23708,40.83201],[17.23691,40.83225],[17.24971,40.83069],[17.25625,40.83198],[17.25705,40.83227],[17.25772,40.83259],[17.25204,40.84057],[17.24846,40.84388],[17.24316,40.84867],[17.24125,40.8466],[17.2411,40.84644],[17.24104,40.84637],[17.24172,40.84532],[17.24201,40.84493],[17.24229,40.84454],[17.2424,40.84447],[17.24298,40.84406],[17.24315,40.84393],[17.24023,40.84137],[17.23855,40.83992],[17.23753,40.8392],[17.23747,40.83924],[17.23589,40.84026],[17.23304,40.84315],[17.23065,40.84902],[17.231,40.85177],[17.2333,40.85546],[17.23628,40.85842],[17.24183,40.8602],[17.24234,40.86773],[17.2352,40.8718],[17.22733,40.87639],[17.22099,40.88123],[17.21492,40.88673],[17.21161,40.89001],[17.20968,40.89394],[17.20588,40.90198],[17.20575,40.90656],[17.20586,40.90893],[17.2055,40.91111],[17.19745,40.91666],[17.1914,40.9218],[17.19043,40.92235],[17.18841,40.92346],[17.18809,40.92357],[17.18762,40.92359],[17.18732,40.91678],[17.18909,40.90499],[17.18811,40.89813],[17.18801,40.89765],[17.188,40.89762],[17.18772,40.89728],[17.18674,40.89643],[17.18666,40.89638],[17.18613,40.89609],[17.18604,40.89604],[17.18536,40.896],[17.17416,40.901],[17.16769,40.9046],[17.16381,40.90548],[17.16109,40.9039],[17.15538,40.90259],[17.15504,40.90276],[17.1532,40.90435],[17.15035,40.90956],[17.15019,40.90988],[17.14999,40.91079],[17.14973,40.912],[17.14952,40.91338],[17.14997,40.91486],[17.15154,40.91793],[17.15595,40.91721],[17.16154,40.91756],[17.16547,40.91972],[17.16822,40.92135],[17.16979,40.9257],[17.17126,40.93335],[17.17129,40.93354],[17.17141,40.93415],[17.17146,40.93516],[17.16974,40.9418],[17.16781,40.94455],[17.16547,40.94485],[17.16289,40.94527],[17.16266,40.94534],[17.1624,40.94542],[17.1624,40.94547],[17.16234,40.94663],[17.16437,40.95286],[17.16633,40.96016],[17.16376,40.96385],[17.16322,40.96805],[17.16526,40.97259],[17.16415,40.97768],[17.15892,40.98764],[17.1596,40.99475],[17.15822,41.0063],[17.14934,41.01873],[17.14352,41.02391],[17.14107,41.02503],[17.13971,41.01771],[17.13277,41.01521],[17.12979,41.01927],[17.11811,41.01852],[17.10633,41.01936],[17.10504,41.01946],[17.10259,41.01961],[17.09179,41.01053],[17.09162,41.01017],[17.09147,41.00987],[17.09108,41.00935],[17.08899,41.00696],[17.08873,41.0067],[17.08788,41.00621],[17.08759,41.00608],[17.08756,41.00606],[17.08707,41.00585],[17.08263,41.00445],[17.08083,41.0045],[17.07801,41.0051],[17.07683,41.00537],[17.07623,41.00563],[17.07517,41.00626],[17.07411,41.00741],[17.06763,41.00875],[17.06628,41.00873],[17.06241,41.00689],[17.06217,41.00634],[17.06078,41.00218],[17.06071,41.00181],[17.06071,41.00178],[17.06013,40.99933],[17.0543,40.99925],[17.05087,41.00258],[17.04942,41.00692],[17.05068,41.00822],[17.05097,41.01257],[17.05087,41.0126],[17.05069,41.01263],[17.05011,41.01271],[17.04815,41.01025],[17.04806,41.01247],[17.04804,41.013],[17.04803,41.01326],[17.04862,41.01469],[17.0496,41.01566],[17.04898,41.01942],[17.04124,41.02317],[17.03978,41.03085],[17.0335,41.03362],[17.0281,41.03888],[17.02534,41.03974],[17.02061,41.03913],[17.01176,41.0361],[17.01045,41.03295],[17.00702,41.02703],[17.00605,41.02636],[17.00119,41.02325],[16.99339,41.02029],[16.98807,41.01864],[16.98427,41.01926],[16.97875,41.01742],[16.97588,41.01515],[16.97092,41.01092],[16.9686,41.00868],[16.96315,41.00482],[16.95992,41.00447],[16.95797,41.00259],[16.95736,41.00183],[16.95792,40.99247],[16.95778,40.99035],[16.95131,40.99516],[16.94633,40.99777],[16.94254,40.99788],[16.94042,41.00198],[16.91917,41.00811],[16.91296,41.0117],[16.9074,41.01144],[16.90396,41.00741],[16.89583,41.01114],[16.88997,41.01323],[16.88474,41.01521],[16.87552,41.01916],[16.86429,41.02505],[16.86037,41.02813],[16.86086,41.02649],[16.86078,41.02588],[16.86071,41.0254],[16.86042,41.02313],[16.85342,41.01962],[16.84851,41.01762],[16.84602,41.01679],[16.84555,41.01453],[16.83975,41.0114]]],[[[17.21197,40.81041],[17.20747,40.80994],[17.20681,40.80943],[17.20618,40.80858],[17.20479,40.80658],[17.20456,40.8059],[17.2127,40.80013],[17.22008,40.80392],[17.22384,40.80609],[17.22392,40.8062],[17.22388,40.80658],[17.22375,40.80731],[17.22371,40.80752],[17.2235,40.80782],[17.22281,40.8087],[17.21971,40.81241],[17.21761,40.81184],[17.21197,40.81041]]],[[[17.24166,40.82575],[17.24302,40.82295],[17.24357,40.8255],[17.24195,40.82574],[17.24166,40.82575]]]]}},{"type":"Feature","properties":{"name":"locorotondo","comuni_count":3},"geometry":{"type":"MultiPolygon","coordinates":[[[[17.2829,40.7783],[17.28293,40.7798],[17.28287,40.78026],[17.28255,40.78087],[17.28204,40.78098],[17.28145,40.78093],[17.28134,40.78086],[17.28053,40.78033],[17.28016,40.78007],[17.28012,40.78005],[17.28022,40.77887],[17.28034,40.77874],[17.28062,40.77842],[17.28259,40.77813],[17.2829,40.7783]]],[[[17.29933,40.78679],[17.29968,40.78854],[17.29864,40.78904],[17.29826,40.78885],[17.29707,40.78784],[17.29736,40.78721],[17.29741,40.78718],[17.29775,40.78698],[17.2985,40.78675],[17.29906,40.78664],[17.29933,40.78679]]],[[[17.29054,40.78931],[17.29118,40.78929],[17.29126,40.78942],[17.2914,40.78972],[17.29142,40.78975],[17.29165,40.79033],[17.29181,40.79074],[17.29128,40.79093],[17.29062,40.79108],[17.29015,40.79105],[17.28971,40.79005],[17.28958,40.78951],[17.28998,40.78935],[17.29016,40.78933],[17.29034,40.78931],[17.29054,40.78931]]],[[[17.35361,40.74859],[17.35231,40.7481],[17.35225,40.74807],[17.35201,40.74795],[17.35174,40.74782],[17.3514,40.74765],[17.35095,40.74743],[17.35072,40.74694],[17.35057,40.7466],[17.35052,40.74647],[17.35024,40.74558],[17.35013,40.74508],[17.35011,40.745],[17.34987,40.74379],[17.34977,40.74325],[17.34943,40.73593],[17.34944,40.7346],[17.34961,40.73341],[17.34966,40.73316],[17.34984,40.73289],[17.35247,40.73173],[17.35331,40.73139],[17.35403,40.73122],[17.35458,40.7311],[17.35533,40.73095],[17.35707,40.73064],[17.35758,40.73057],[17.36596,40.72828],[17.37011,40.72912],[17.37523,40.73264],[17.37846,40.73512],[17.37916,40.73541],[17.38702,40.73813],[17.39055,40.7382],[17.39287,40.73802],[17.39366,40.73783],[17.39434,40.73617],[17.39449,40.7357],[17.39452,40.73532],[17.39433,40.73384],[17.39416,40.73319],[17.39385,40.73268],[17.39342,40.73237],[17.39603,40.72789],[17.40275,40.71984],[17.40307,40.71971],[17.40346,40.71967],[17.40356,40.71966],[17.4038,40.71963],[17.40435,40.71974],[17.40452,40.71978],[17.40655,40.72063],[17.4071,40.72095],[17.4098,40.72278],[17.41102,40.72491],[17.41241,40.72611],[17.41443,40.72667],[17.41903,40.7272],[17.42093,40.7272],[17.4266,40.72626],[17.43226,40.72487],[17.43788,40.72304],[17.43842,40.72287],[17.43885,40.72263],[17.44202,40.71996],[17.44733,40.71543],[17.44919,40.71479],[17.45247,40.71402],[17.45472,40.71358],[17.45539,40.71362],[17.45543,40.71362],[17.45713,40.714],[17.4641,40.71596],[17.47419,40.71964],[17.47497,40.72454],[17.47405,40.72469],[17.47243,40.72513],[17.46918,40.72671],[17.46896,40.72715],[17.46888,40.72731],[17.46909,40.7288],[17.46962,40.73125],[17.46984,40.73206],[17.47063,40.73392],[17.47162,40.73453],[17.47996,40.73937],[17.4805,40.73965],[17.48217,40.74031],[17.48221,40.74032],[17.48335,40.74056],[17.48398,40.74069],[17.48656,40.74102],[17.48786,40.74102],[17.48916,40.74074],[17.48926,40.74072],[17.48935,40.74068],[17.49164,40.7396],[17.49185,40.73943],[17.49245,40.73897],[17.49272,40.73862],[17.49319,40.73801],[17.49625,40.74165],[17.49685,40.74243],[17.49688,40.7425],[17.49707,40.74287],[17.4971,40.74293],[17.49722,40.74358],[17.49684,40.74421],[17.49676,40.74431],[17.49548,40.74582],[17.49451,40.74688],[17.49138,40.75009],[17.49103,40.75043],[17.48433,40.7557],[17.48243,40.75683],[17.48152,40.75718],[17.48021,40.75761],[17.47957,40.75744],[17.479,40.75704],[17.47854,40.75692],[17.47841,40.75692],[17.47753,40.7569],[17.4766,40.75699],[17.47621,40.75744],[17.47616,40.75845],[17.47625,40.76088],[17.47672,40.76289],[17.47772,40.76689],[17.47889,40.77027],[17.48486,40.78444],[17.48584,40.78618],[17.48692,40.78781],[17.49246,40.7929],[17.49537,40.79873],[17.49572,40.79922],[17.49769,40.80176],[17.50134,40.80611],[17.50553,40.8062],[17.50797,40.80567],[17.50861,40.80576],[17.50906,40.80609],[17.50934,40.8063],[17.50958,40.80659],[17.50981,40.80689],[17.51048,40.80776],[17.51475,40.81376],[17.51502,40.81439],[17.51334,40.8151],[17.50941,40.81675],[17.50791,40.81739],[17.50397,40.81889],[17.50208,40.81944],[17.4783,40.82967],[17.47413,40.83159],[17.47281,40.83221],[17.47194,40.83285],[17.47075,40.83377],[17.46997,40.83443],[17.46947,40.83502],[17.4683,40.83652],[17.4681,40.83694],[17.46798,40.8374],[17.46796,40.83786],[17.46796,40.83817],[17.46801,40.83857],[17.4682,40.83941],[17.46828,40.8395],[17.47011,40.83993],[17.47045,40.83999],[17.46561,40.84386],[17.45091,40.85219],[17.44799,40.85341],[17.4425,40.8555],[17.4365,40.85765],[17.42186,40.86575],[17.41612,40.86971],[17.41054,40.87407],[17.39274,40.88863],[17.38921,40.89225],[17.37635,40.88772],[17.37029,40.88554],[17.3556,40.87735],[17.35546,40.87726],[17.35474,40.87682],[17.3542,40.87445],[17.34667,40.86905],[17.34151,40.86336],[17.34164,40.86168],[17.34085,40.86049],[17.33907,40.85846],[17.33359,40.85332],[17.32155,40.84306],[17.31206,40.84101],[17.31195,40.83783],[17.31044,40.829],[17.30034,40.82237],[17.29774,40.82012],[17.29722,40.81973],[17.29704,40.81953],[17.29569,40.81786],[17.29572,40.817],[17.31016,40.81092],[17.30167,40.80208],[17.30323,40.79878],[17.30398,40.79724],[17.30565,40.79525],[17.30601,40.79503],[17.30626,40.79489],[17.30673,40.79491],[17.30718,40.79493],[17.30725,40.79494],[17.30733,40.79497],[17.30865,40.79387],[17.3104,40.7904],[17.3074,40.7875],[17.30172,40.78456],[17.30092,40.78456],[17.30067,40.78456],[17.29605,40.78457],[17.29563,40.78474],[17.29512,40.78494],[17.29448,40.78568],[17.29468,40.78644],[17.29472,40.78649],[17.29536,40.78721],[17.29592,40.78807],[17.29587,40.78856],[17.29155,40.78876],[17.29077,40.7885],[17.29066,40.78847],[17.2892,40.78757],[17.28917,40.78753],[17.28882,40.787],[17.28912,40.78213],[17.29311,40.77906],[17.30107,40.77451],[17.30111,40.77448],[17.30132,40.77317],[17.30129,40.77308],[17.30109,40.77247],[17.30077,40.77209],[17.29719,40.77336],[17.29291,40.77409],[17.28354,40.77372],[17.28216,40.77239],[17.28298,40.76762],[17.28999,40.76235],[17.29857,40.75405],[17.3015,40.74913],[17.30682,40.74464],[17.3157,40.74094],[17.32059,40.7414],[17.32303,40.74358],[17.32526,40.74297],[17.33293,40.74055],[17.33556,40.73782],[17.34026,40.73927],[17.34105,40.74292],[17.35066,40.74886],[17.35185,40.74878],[17.35361,40.74859]]]]}}]}