{"type":"Feature","properties":{"reg_name":"Puglia","slug":"puglia","_provenance":{"authority":"ISTAT (openpolis/geojson-italy limits_IT_regions)","licence":"CC BY 4.0","method":"mapshaper 6% simplify, interior rings dropped, 5dp"}},"geometry":{"type":"MultiPolygon","coordinates":[[[[17.99861,40.64903],[17.98218,40.64444],[17.94195,40.682],[17.9252,40.67951],[17.87407,40.68485],[17.82807,40.69509],[17.74733,40.73332],[17.7227,40.75099],[17.68153,40.76722],[17.6342,40.78069],[17.55943,40.79815],[17.47281,40.83221],[17.45721,40.84921],[17.41483,40.87068],[17.38523,40.8945],[17.35011,40.90574],[17.33432,40.92891],[17.30673,40.95223],[17.23704,40.99313],[17.20164,41.00367],[17.17541,41.0291],[17.14241,41.03694],[17.09361,41.06235],[17.04647,41.08032],[16.99762,41.08813],[16.96064,41.09789],[16.92857,41.11182],[16.89048,41.11877],[16.83996,41.13879],[16.80963,41.14033],[16.77932,41.15961],[16.69537,41.17796],[16.6602,41.19223],[16.62614,41.19483],[16.58208,41.20822],[16.57133,41.21865],[16.53183,41.23875],[16.45318,41.25979],[16.42177,41.28021],[16.38712,41.29024],[16.35906,41.30471],[16.26653,41.32692],[16.20703,41.35943],[16.16868,41.3694],[15.98057,41.44574],[15.9453,41.47132],[15.91825,41.50553],[15.90456,41.53246],[15.89423,41.57556],[15.90332,41.61828],[15.94352,41.64248],[16.01446,41.66952],[16.06538,41.69571],[16.07416,41.71107],[16.10491,41.72974],[16.14004,41.74091],[16.1866,41.77212],[16.19773,41.80359],[16.1951,41.82216],[16.17669,41.85511],[16.17646,41.88482],[16.16198,41.89042],[16.15328,41.90853],[16.11814,41.91657],[16.08975,41.93867],[16.01215,41.95044],[15.92456,41.93314],[15.74997,41.91652],[15.68653,41.91443],[15.64234,41.92663],[15.62305,41.92743],[15.52483,41.91189],[15.45827,41.90369],[15.39171,41.90063],[15.36339,41.90321],[15.33592,41.91673],[15.29288,41.92024],[15.20781,41.91921],[15.13805,41.92665],[15.13143,41.90302],[15.1388,41.87928],[15.12339,41.85953],[15.10366,41.84674],[15.10027,41.83379],[15.11644,41.81454],[15.11514,41.78956],[15.09737,41.76593],[15.11004,41.75378],[15.10284,41.74128],[15.12114,41.72023],[15.14339,41.71128],[15.1336,41.69797],[15.10607,41.68561],[15.06956,41.66007],[15.04831,41.65552],[15.0447,41.64035],[15.02269,41.62185],[14.99145,41.62908],[14.9887,41.63781],[14.9559,41.6434],[14.93488,41.62162],[14.94702,41.60968],[14.94854,41.57375],[14.93833,41.55073],[14.93703,41.52786],[14.96639,41.51901],[14.98006,41.50545],[15.02389,41.47695],[15.03244,41.45268],[15.07625,41.43278],[15.09878,41.43377],[15.08155,41.38773],[15.05847,41.37213],[15.07219,41.33246],[15.13056,41.31719],[15.12677,41.30295],[15.1502,41.28274],[15.201,41.28627],[15.21628,41.27524],[15.24705,41.27136],[15.27984,41.24079],[15.24618,41.23611],[15.25738,41.1974],[15.2275,41.18493],[15.20935,41.16769],[15.21079,41.14867],[15.23566,41.13988],[15.26719,41.10664],[15.29173,41.09354],[15.31436,41.10389],[15.35162,41.09477],[15.36745,41.08488],[15.39638,41.10682],[15.42749,41.09282],[15.4461,41.07801],[15.47835,41.07866],[15.48949,41.07003],[15.52948,41.05761],[15.55891,41.08739],[15.58755,41.09838],[15.61742,41.09926],[15.64656,41.08962],[15.67941,41.0868],[15.72522,41.09075],[15.7526,41.09734],[15.7684,41.08319],[15.79873,41.09198],[15.80537,41.11089],[15.88066,41.13684],[15.92097,41.11115],[15.95338,41.11081],[15.97625,41.09417],[15.99886,41.05399],[16.00725,41.05911],[16.04054,41.03637],[16.02793,41.02408],[16.03198,40.99838],[16.00285,40.97021],[15.97181,40.97213],[15.97663,40.95845],[16.09364,40.92027],[16.1213,40.89924],[16.13807,40.91835],[16.16297,40.92858],[16.20246,40.91753],[16.2238,40.88659],[16.2312,40.85489],[16.27823,40.80161],[16.31623,40.78311],[16.35008,40.7489],[16.38039,40.7364],[16.40015,40.70741],[16.43051,40.70475],[16.47968,40.7368],[16.49608,40.75829],[16.52255,40.74645],[16.56697,40.75446],[16.57461,40.76305],[16.60794,40.75183],[16.63282,40.75357],[16.72491,40.71383],[16.69662,40.70208],[16.72566,40.6776],[16.70976,40.63283],[16.72397,40.60245],[16.70569,40.55019],[16.72438,40.53529],[16.71582,40.52425],[16.73707,40.50383],[16.71959,40.48141],[16.73559,40.46792],[16.79261,40.46195],[16.80969,40.44694],[16.80938,40.43307],[16.85068,40.40124],[16.86652,40.39808],[16.90162,40.43549],[16.95839,40.4753],[16.99527,40.49494],[17.045,40.51237],[17.08505,40.51975],[17.12868,40.51733],[17.16264,40.50611],[17.18183,40.48144],[17.22017,40.47934],[17.24673,40.46214],[17.25567,40.44273],[17.22955,40.42381],[17.20889,40.4212],[17.23265,40.40108],[17.26766,40.3906],[17.3113,40.36634],[17.34002,40.3619],[17.37946,40.34647],[17.40213,40.33231],[17.42719,40.33248],[17.45803,40.31698],[17.49477,40.30996],[17.51054,40.29458],[17.67849,40.30471],[17.75695,40.29758],[17.81636,40.28959],[17.83938,40.28057],[17.85588,40.28562],[17.90452,40.2562],[17.92421,40.21753],[17.91981,40.19214],[17.96384,40.14754],[17.98718,40.14034],[18.01088,40.10685],[18.01101,40.08606],[17.99766,40.05066],[18.01915,40.02712],[18.01764,40.00702],[17.99485,39.99522],[18.04756,39.92879],[18.077,39.90703],[18.12075,39.88467],[18.15122,39.86122],[18.20474,39.83855],[18.26324,39.8362],[18.32708,39.80737],[18.34617,39.79146],[18.36899,39.79376],[18.38935,39.81564],[18.38592,39.83112],[18.39903,39.88908],[18.39018,39.90585],[18.40827,39.97784],[18.43166,40.0006],[18.43577,40.02475],[18.47521,40.04426],[18.48468,40.07747],[18.52038,40.10708],[18.50681,40.12471],[18.51341,40.13832],[18.48868,40.14699],[18.47896,40.17812],[18.46365,40.19292],[18.46454,40.22207],[18.44045,40.26942],[18.42283,40.29418],[18.38598,40.31446],[18.36269,40.34153],[18.31725,40.37201],[18.30553,40.39203],[18.27896,40.40731],[18.24911,40.43739],[18.20301,40.46709],[18.13925,40.48778],[18.07875,40.52772],[18.07473,40.53953],[18.04227,40.55856],[18.03525,40.57494],[18.04514,40.59718],[18.01814,40.62198],[18.01464,40.63657],[17.99861,40.64903]]]]}}