{"type":"Feature","properties":{"reg_name":"Sardegna","slug":"sardegna","_provenance":{"authority":"ISTAT (openpolis/geojson-italy limits_IT_regions)","licence":"CC BY 4.0","method":"mapshaper 6% simplify, interior rings dropped, 5dp"}},"geometry":{"type":"MultiPolygon","coordinates":[[[[8.36788,40.49643],[8.37394,40.49083],[8.38628,40.45292],[8.3982,40.42998],[8.39978,40.40349],[8.38917,40.36593],[8.379,40.35985],[8.39028,40.33759],[8.41987,40.33721],[8.44335,40.31867],[8.46381,40.3153],[8.46432,40.30041],[8.48297,40.28536],[8.47292,40.24247],[8.4621,40.21404],[8.46766,40.19949],[8.45576,40.17668],[8.46146,40.17013],[8.46006,40.15038],[8.47168,40.13043],[8.4849,40.11778],[8.4892,40.07963],[8.4537,40.05081],[8.43305,40.05012],[8.42154,40.04259],[8.38576,40.04387],[8.37826,40.02893],[8.40666,40.02898],[8.41387,40.01813],[8.4091,39.99623],[8.39271,39.97924],[8.40201,39.9448],[8.39881,39.90374],[8.43106,39.88821],[8.43857,39.8753],[8.46811,39.90417],[8.50681,39.90804],[8.53173,39.89742],[8.54454,39.88465],[8.53982,39.8698],[8.55201,39.86398],[8.55476,39.83876],[8.54537,39.79519],[8.53093,39.76974],[8.51311,39.75337],[8.52109,39.74616],[8.49839,39.71834],[8.47225,39.74861],[8.45845,39.76943],[8.44406,39.75816],[8.44916,39.74009],[8.44725,39.71503],[8.45534,39.71112],[8.44437,39.67834],[8.45899,39.66744],[8.44956,39.63422],[8.45196,39.62319],[8.46501,39.61681],[8.47086,39.60162],[8.46478,39.57826],[8.45492,39.56356],[8.45112,39.54565],[8.43516,39.52279],[8.4041,39.4867],[8.3874,39.47586],[8.38326,39.45736],[8.39266,39.4468],[8.4109,39.44118],[8.41074,39.41803],[8.40277,39.4052],[8.38602,39.39363],[8.3761,39.36883],[8.38554,39.36555],[8.39669,39.33768],[8.41589,39.33613],[8.43699,39.292],[8.42531,39.26951],[8.41096,39.2644],[8.40093,39.25269],[8.36665,39.22817],[8.37225,39.20955],[8.39633,39.1993],[8.40679,39.1587],[8.41834,39.17118],[8.43712,39.15596],[8.43353,39.12985],[8.44268,39.11652],[8.46103,39.12121],[8.47165,39.11217],[8.48842,39.08456],[8.46458,39.058],[8.45649,39.08374],[8.43157,39.09589],[8.42574,39.10892],[8.40933,39.10183],[8.38642,39.09923],[8.37314,39.11222],[8.36033,39.10995],[8.35079,39.09692],[8.35819,39.08481],[8.34978,39.0764],[8.35643,39.06566],[8.36042,39.03768],[8.3891,38.99191],[8.40321,38.96231],[8.43029,38.96005],[8.44476,38.96992],[8.45142,38.98945],[8.45274,39.02473],[8.46846,39.04918],[8.46611,39.05701],[8.49867,39.06339],[8.52717,39.05915],[8.5442,39.04643],[8.56503,39.04539],[8.57493,39.03206],[8.57487,39.01705],[8.56501,38.99976],[8.58881,38.96447],[8.61256,38.95792],[8.62359,38.93756],[8.61834,38.9159],[8.60749,38.90612],[8.60666,38.89284],[8.62142,38.89032],[8.64967,38.89489],[8.68171,38.90936],[8.69339,38.91863],[8.71464,38.92501],[8.72021,38.93667],[8.76202,38.91698],[8.78047,38.91306],[8.78122,38.90257],[8.79409,38.89465],[8.81974,38.89452],[8.83254,38.87742],[8.8546,38.87855],[8.88156,38.89609],[8.90315,38.9051],[8.91465,38.91986],[8.9382,38.93511],[8.99012,38.97491],[8.9962,38.98541],[9.01183,38.98715],[9.02419,39.00376],[9.02437,39.02017],[9.04087,39.04179],[9.04579,39.05614],[9.01626,39.08746],[9.01633,39.10478],[9.00892,39.12128],[9.01924,39.14918],[9.0383,39.17213],[9.06123,39.19341],[9.09592,39.21411],[9.12344,39.20602],[9.14601,39.18395],[9.16478,39.20436],[9.19213,39.22119],[9.22986,39.22808],[9.24738,39.21644],[9.29749,39.21325],[9.33872,39.1936],[9.34583,39.18114],[9.37087,39.17389],[9.43402,39.12553],[9.48441,39.13567],[9.50253,39.1313],[9.51876,39.11329],[9.53915,39.13308],[9.56396,39.14162],[9.57001,39.17022],[9.57786,39.1844],[9.56444,39.18897],[9.57018,39.23929],[9.59119,39.27843],[9.62845,39.30634],[9.60489,39.31798],[9.59742,39.34576],[9.608,39.38843],[9.63117,39.43348],[9.64007,39.44207],[9.64595,39.46139],[9.64126,39.4826],[9.63259,39.49679],[9.63271,39.51494],[9.63907,39.53962],[9.65136,39.54925],[9.65551,39.57048],[9.65669,39.60575],[9.64719,39.6517],[9.6642,39.68264],[9.65942,39.69218],[9.67595,39.71089],[9.67469,39.75155],[9.66843,39.77675],[9.67389,39.80876],[9.6854,39.84212],[9.69673,39.85343],[9.68225,39.87135],[9.68318,39.90553],[9.69338,39.91928],[9.71583,39.92838],[9.68685,39.94842],[9.68664,39.98417],[9.69998,40.00073],[9.70549,40.03357],[9.72053,40.049],[9.72748,40.07041],[9.73562,40.07881],[9.72892,40.09083],[9.70063,40.10218],[9.66141,40.13908],[9.64376,40.17351],[9.63412,40.17979],[9.62571,40.20793],[9.623,40.24501],[9.63201,40.27699],[9.65436,40.30099],[9.66566,40.31976],[9.68231,40.33697],[9.7175,40.36653],[9.74174,40.38139],[9.7541,40.38108],[9.7729,40.40678],[9.77382,40.42182],[9.79259,40.44306],[9.81995,40.49618],[9.82716,40.52742],[9.79883,40.54237],[9.78836,40.57279],[9.76921,40.58318],[9.75176,40.60087],[9.75322,40.61524],[9.74298,40.62593],[9.74222,40.64544],[9.74987,40.65597],[9.75174,40.67391],[9.74602,40.68718],[9.72306,40.69972],[9.71497,40.70988],[9.71154,40.74028],[9.71496,40.75313],[9.68669,40.7665],[9.67249,40.78281],[9.67584,40.80689],[9.69189,40.8112],[9.68117,40.82658],[9.68923,40.83697],[9.70996,40.83256],[9.71618,40.84237],[9.69352,40.84637],[9.68476,40.85959],[9.66767,40.85305],[9.65236,40.86134],[9.65663,40.87502],[9.61595,40.88959],[9.6452,40.91764],[9.6136,40.9198],[9.59185,40.90081],[9.57666,40.90352],[9.56336,40.91906],[9.54635,40.91939],[9.50657,40.91133],[9.50237,40.92747],[9.52377,40.9335],[9.53913,40.92587],[9.57483,40.92799],[9.56835,40.94279],[9.59388,40.96848],[9.58279,40.9762],[9.58534,40.98802],[9.61097,41.00322],[9.63655,40.98779],[9.65265,40.98433],[9.664,40.9941],[9.62146,41.00613],[9.59628,41.02089],[9.57684,41.00286],[9.55093,41.00672],[9.56288,41.02523],[9.56122,41.03771],[9.52674,41.02881],[9.52353,41.05343],[9.5325,41.06178],[9.52985,41.07393],[9.54033,41.0898],[9.55169,41.07928],[9.57063,41.10052],[9.56689,41.11587],[9.53888,41.12269],[9.54606,41.1314],[9.52615,41.15684],[9.51474,41.15623],[9.51016,41.14073],[9.48568,41.14643],[9.47015,41.14179],[9.47175,41.12583],[9.44058,41.10334],[9.44217,41.13099],[9.42886,41.14577],[9.42197,41.16653],[9.40634,41.17642],[9.37056,41.18311],[9.36331,41.20758],[9.3382,41.20469],[9.33058,41.1953],[9.31031,41.19103],[9.28053,41.22784],[9.25973,41.24206],[9.23623,41.2466],[9.22524,41.25924],[9.20705,41.25075],[9.18095,41.24803],[9.1696,41.24165],[9.14424,41.24695],[9.14817,41.23077],[9.16726,41.22912],[9.15411,41.19721],[9.16774,41.16811],[9.15249,41.15542],[9.11881,41.15191],[9.11018,41.13493],[9.08622,41.12799],[9.05802,41.12814],[9.04168,41.13733],[9.01325,41.12542],[8.991,41.1039],[8.97607,41.08394],[8.92901,41.04366],[8.89258,41.02793],[8.87988,41.02866],[8.873,40.99546],[8.83655,40.95722],[8.7899,40.92217],[8.76845,40.91589],[8.70334,40.91583],[8.67029,40.89727],[8.63237,40.88133],[8.62532,40.86488],[8.60767,40.85124],[8.57175,40.83488],[8.5398,40.82635],[8.48635,40.81975],[8.44931,40.82126],[8.41366,40.839],[8.3686,40.83796],[8.31555,40.84431],[8.29001,40.85806],[8.24876,40.89153],[8.2327,40.91084],[8.23599,40.91704],[8.22648,40.95314],[8.1983,40.96918],[8.1773,40.93899],[8.19078,40.92441],[8.19233,40.91284],[8.21932,40.90009],[8.2238,40.88638],[8.21826,40.8685],[8.19534,40.83504],[8.1954,40.82809],[8.17576,40.80097],[8.16017,40.79089],[8.16752,40.78022],[8.1659,40.76574],[8.15169,40.74886],[8.13519,40.73767],[8.169,40.70914],[8.17485,40.69466],[8.20314,40.68846],[8.20411,40.67959],[8.18938,40.65727],[8.18673,40.63919],[8.14646,40.62608],[8.15088,40.57943],[8.16141,40.57736],[8.18149,40.59784],[8.18912,40.61578],[8.20975,40.61476],[8.21685,40.59413],[8.19815,40.57119],[8.24382,40.56987],[8.24565,40.58092],[8.28678,40.59518],[8.3068,40.58558],[8.31783,40.57133],[8.31284,40.55988],[8.33921,40.50917],[8.36788,40.49643]]],[[[9.41004,41.18643],[9.42248,41.19353],[9.41352,41.20728],[9.39808,41.19772],[9.41004,41.18643]]],[[[9.47128,41.24559],[9.46045,41.23492],[9.44481,41.20281],[9.44746,41.19088],[9.46477,41.18947],[9.47883,41.19952],[9.48167,41.23612],[9.47128,41.24559]]],[[[9.3438,41.25097],[9.33286,41.23563],[9.34567,41.22893],[9.36003,41.24404],[9.3438,41.25097]]],[[[9.43132,41.25921],[9.37805,41.23466],[9.37383,41.22738],[9.38133,41.21033],[9.40136,41.21022],[9.41659,41.21687],[9.43718,41.21365],[9.44771,41.23297],[9.43836,41.23536],[9.43132,41.25921]]],[[[9.73413,40.92262],[9.67354,40.89177],[9.69278,40.88785],[9.7117,40.9004],[9.74275,40.9123],[9.73413,40.92262]]],[[[8.3254,41.10553],[8.27617,41.10503],[8.27181,41.0995],[8.28529,41.07674],[8.26666,41.07322],[8.24462,41.04691],[8.22369,41.04344],[8.21804,41.02825],[8.22928,41.0232],[8.21296,41.0076],[8.20865,40.99018],[8.25583,40.98497],[8.26359,41.00267],[8.249,41.01772],[8.25095,41.03328],[8.28337,41.06444],[8.32195,41.05585],[8.33235,41.04996],[8.3406,41.07128],[8.33634,41.08045],[8.35042,41.08839],[8.34473,41.09737],[8.3254,41.10553]]],[[[8.30821,39.18018],[8.27168,39.1798],[8.25638,39.16891],[8.23052,39.16436],[8.21961,39.14779],[8.25032,39.1334],[8.24791,39.10848],[8.28129,39.09623],[8.30485,39.10179],[8.31018,39.11317],[8.30821,39.18018]]]]}}