{"type":"FeatureCollection","_provenance":{"authority":"ISTAT (comune geometry, openpolis/geojson-italy) / MASAF disciplinari (comune membership)","licence":"CC BY 4.0","method":"comune-union: ISTAT comuni dissolved per disciplinare comune lists (comune-level approximation; interior rings dropped, 5dp). Partial-territory comuni are included whole.","reviewed_at":"2026-09-07"},"features":[{"type":"Feature","properties":{"name":"vermentino-di-gallura","comuni_count":22},"geometry":{"type":"MultiPolygon","coordinates":[[[[8.99169,40.91572],[8.99162,40.91549],[8.99152,40.91534],[8.99121,40.91485],[8.99075,40.91417],[8.9902,40.91337],[8.98939,40.91223],[8.98914,40.91194],[8.98818,40.91084],[8.98341,40.90635],[8.97835,40.9031],[8.97811,40.90306],[8.97701,40.90289],[8.97643,40.90274],[8.97622,40.90268],[8.97576,40.90256],[8.96987,40.90044],[8.96195,40.89753],[8.95359,40.89534],[8.94586,40.89351],[8.93417,40.88882],[8.92582,40.88534],[8.90723,40.88941],[8.90619,40.88948],[8.90511,40.88955],[8.90323,40.88972],[8.9029,40.88975],[8.90263,40.8898],[8.90085,40.89007],[8.90064,40.8901],[8.90014,40.89019],[8.8978,40.89057],[8.89729,40.89067],[8.89647,40.89083],[8.89614,40.89038],[8.89567,40.88974],[8.8956,40.88965],[8.89532,40.88888],[8.8951,40.8881],[8.89507,40.88802],[8.89509,40.88787],[8.89523,40.88724],[8.89574,40.88669],[8.90016,40.88221],[8.90319,40.8783],[8.90244,40.87665],[8.89966,40.87524],[8.89746,40.87332],[8.89633,40.87192],[8.89741,40.86751],[8.90534,40.85578],[8.91697,40.85418],[8.92733,40.85078],[8.93772,40.85813],[8.95008,40.86623],[8.95971,40.86485],[8.96798,40.86183],[8.96851,40.86213],[8.96931,40.86242],[8.96974,40.86258],[8.97036,40.86269],[8.97064,40.86274],[8.97143,40.86277],[8.97191,40.86274],[8.97241,40.86259],[8.97296,40.86234],[8.973,40.86233],[8.9743,40.86171],[8.97683,40.86033],[8.97695,40.86025],[8.9772,40.8601],[8.97731,40.85999],[8.97743,40.85989],[8.97748,40.85984],[8.97766,40.85966],[8.97815,40.859],[8.97822,40.8589],[8.97837,40.85869],[8.98014,40.85603],[8.98667,40.84944],[8.99288,40.84324],[8.99762,40.84506],[8.99761,40.84514],[8.99761,40.84533],[8.99762,40.84546],[8.99768,40.84578],[8.9978,40.84605],[8.99814,40.84633],[8.99868,40.84646],[9.00157,40.84661],[9.00817,40.84637],[9.0082,40.84636],[9.00827,40.84634],[9.00849,40.84627],[9.00859,40.8462],[9.0089,40.84599],[9.00927,40.8456],[9.00947,40.84507],[9.00948,40.84503],[9.00961,40.84458],[9.00959,40.84414],[9.00869,40.84171],[9.00852,40.84148],[9.00826,40.84129],[9.00793,40.84117],[9.00755,40.8411],[9.00716,40.84107],[9.00657,40.84108],[9.00583,40.84126],[9.00541,40.84132],[9.0046,40.84134],[9.0038,40.84125],[9.00334,40.84115],[8.99893,40.84014],[8.99838,40.83994],[8.99684,40.83933],[8.99654,40.83913],[8.99635,40.83889],[8.99629,40.83821],[8.99636,40.83748],[8.99663,40.83675],[8.99696,40.83611],[8.9972,40.83567],[8.99726,40.83557],[8.99733,40.83545],[8.99753,40.83518],[8.99813,40.83439],[9.00073,40.83131],[9.00377,40.82828],[9.00299,40.82328],[8.99907,40.82234],[8.99889,40.82225],[8.99818,40.82189],[8.99678,40.82111],[8.99538,40.8203],[8.99167,40.81728],[8.98962,40.81557],[8.98929,40.81528],[8.98898,40.81484],[8.98884,40.81461],[8.98876,40.81448],[8.98795,40.81303],[8.98776,40.81264],[8.98754,40.81217],[8.98752,40.81172],[8.98761,40.8112],[8.98781,40.81067],[8.98794,40.8103],[8.98842,40.80942],[8.98848,40.80932],[8.99198,40.80789],[9.00535,40.81202],[9.00681,40.80842],[9.01241,40.80592],[9.01586,40.8047],[9.0219,40.79957],[9.02634,40.79346],[9.02411,40.79155],[9.02365,40.79109],[9.02268,40.78979],[9.02241,40.78925],[9.0209,40.78493],[9.02117,40.78334],[9.02262,40.78153],[9.02489,40.77881],[9.02573,40.77519],[9.02041,40.76915],[9.01957,40.76583],[9.02025,40.76132],[9.0204,40.76078],[9.02069,40.76023],[9.02109,40.75968],[9.02191,40.75888],[9.02339,40.75831],[9.02501,40.75766],[9.02549,40.75732],[9.02667,40.75556],[9.02693,40.75515],[9.02707,40.75483],[9.02933,40.74809],[9.02928,40.74421],[9.02541,40.73192],[9.02524,40.73151],[9.02243,40.72568],[9.02213,40.72527],[9.02138,40.72459],[9.01919,40.72283],[9.01849,40.72229],[9.01781,40.72176],[9.01754,40.71835],[9.01788,40.71005],[9.0185,40.70486],[9.01841,40.70058],[9.01545,40.69628],[9.01511,40.69584],[9.01486,40.69554],[9.01459,40.69533],[9.01422,40.69512],[9.01324,40.6949],[9.01256,40.69491],[9.01181,40.69509],[9.01023,40.69565],[9.00919,40.69609],[9.00856,40.69637],[9.00828,40.69655],[9.00815,40.6967],[9.00798,40.69689],[9.00469,40.69635],[9.00319,40.6959],[9.00285,40.69577],[9.00259,40.69559],[9.00255,40.69556],[9.00233,40.69527],[9.00231,40.69501],[9.00416,40.69039],[9.00554,40.68754],[9.00629,40.68649],[9.0099,40.68218],[9.01063,40.68152],[9.01189,40.68077],[9.01245,40.68046],[9.01284,40.68031],[9.02819,40.67505],[9.03254,40.67423],[9.04401,40.67289],[9.04798,40.67245],[9.05037,40.67254],[9.05463,40.67325],[9.05511,40.67334],[9.05769,40.67364],[9.05898,40.67335],[9.06603,40.67014],[9.06945,40.66762],[9.06918,40.66693],[9.06882,40.6647],[9.06894,40.66308],[9.06915,40.66222],[9.06952,40.66115],[9.07043,40.65938],[9.07594,40.65709],[9.08738,40.65389],[9.09589,40.65153],[9.11226,40.64796],[9.11452,40.64701],[9.11472,40.64698],[9.11615,40.64673],[9.1178,40.64652],[9.11999,40.64629],[9.12105,40.64643],[9.13349,40.65306],[9.13321,40.65453],[9.13285,40.65717],[9.13362,40.65845],[9.13859,40.65836],[9.13965,40.65833],[9.14418,40.6582],[9.14589,40.65809],[9.15124,40.65793],[9.15217,40.65792],[9.15275,40.658],[9.15357,40.65812],[9.15819,40.65883],[9.1753,40.66179],[9.17949,40.66501],[9.192,40.67446],[9.1922,40.67458],[9.19224,40.6746],[9.19242,40.67471],[9.19283,40.67495],[9.19541,40.67641],[9.20196,40.68003],[9.2198,40.68692],[9.22079,40.68721],[9.22552,40.68809],[9.23084,40.69392],[9.23206,40.69806],[9.23213,40.69829],[9.23219,40.69851],[9.23421,40.70616],[9.23445,40.70706],[9.24257,40.7136],[9.24263,40.7135],[9.24288,40.71307],[9.24309,40.71288],[9.24311,40.71286],[9.24465,40.71164],[9.24547,40.71189],[9.24637,40.71235],[9.24656,40.71245],[9.24812,40.71332],[9.24843,40.71352],[9.2487,40.71369],[9.24892,40.71387],[9.24952,40.71436],[9.24989,40.71469],[9.25124,40.71593],[9.26925,40.73271],[9.26939,40.73286],[9.26995,40.73347],[9.27115,40.73499],[9.27353,40.738],[9.27376,40.73828],[9.27413,40.73884],[9.27676,40.74001],[9.28674,40.74028],[9.28902,40.73957],[9.29381,40.73789],[9.2983,40.73855],[9.30145,40.73619],[9.31127,40.73526],[9.32328,40.73437],[9.33113,40.73587],[9.33659,40.73565],[9.33681,40.73538],[9.33753,40.73509],[9.34223,40.73505],[9.34538,40.73607],[9.35035,40.73799],[9.35795,40.74132],[9.36314,40.74246],[9.36576,40.74141],[9.37046,40.74062],[9.37263,40.74038],[9.37901,40.74233],[9.38575,40.74476],[9.39588,40.74437],[9.40015,40.74377],[9.39898,40.74174],[9.39889,40.74141],[9.39892,40.74066],[9.399,40.74025],[9.39901,40.74019],[9.39956,40.73893],[9.39984,40.73836],[9.40022,40.7383],[9.40661,40.73756],[9.41122,40.7374],[9.42084,40.73477],[9.42319,40.73152],[9.42863,40.7333],[9.43071,40.73642],[9.43682,40.73706],[9.44626,40.73805],[9.45197,40.73772],[9.4558,40.73815],[9.47738,40.75381],[9.47956,40.76268],[9.47903,40.77201],[9.4873,40.78181],[9.49513,40.7891],[9.49527,40.78934],[9.50021,40.79814],[9.50319,40.80205],[9.50333,40.80194],[9.50679,40.79905],[9.51079,40.79552],[9.51098,40.79533],[9.51254,40.79374],[9.51253,40.7936],[9.51347,40.7925],[9.51703,40.78838],[9.52019,40.78677],[9.52069,40.78661],[9.52261,40.78988],[9.53172,40.79195],[9.54499,40.7922],[9.57244,40.79256],[9.57253,40.79256],[9.57499,40.79258],[9.57829,40.79254],[9.58365,40.78619],[9.58351,40.78562],[9.58327,40.78314],[9.58345,40.7787],[9.58357,40.77717],[9.58341,40.77474],[9.58164,40.75838],[9.58121,40.75448],[9.58116,40.75405],[9.58035,40.74753],[9.58015,40.74605],[9.57986,40.74403],[9.57861,40.73596],[9.57824,40.73401],[9.57776,40.732],[9.57988,40.71981],[9.58242,40.70907],[9.58309,40.70607],[9.59147,40.70224],[9.60076,40.69799],[9.60317,40.69691],[9.60383,40.6968],[9.60724,40.69708],[9.61909,40.69836],[9.62123,40.69869],[9.62371,40.69907],[9.62425,40.69896],[9.63184,40.69692],[9.63699,40.69552],[9.65226,40.69135],[9.6531,40.69106],[9.65669,40.68713],[9.66321,40.67895],[9.66614,40.67522],[9.66947,40.67116],[9.67478,40.66487],[9.67538,40.66755],[9.67769,40.66915],[9.68071,40.67003],[9.68111,40.67015],[9.68491,40.67193],[9.68902,40.67476],[9.69114,40.67689],[9.69125,40.67809],[9.69138,40.67843],[9.69164,40.67894],[9.6918,40.6791],[9.69856,40.67969],[9.70018,40.67977],[9.70216,40.67895],[9.70668,40.67642],[9.72427,40.67353],[9.73244,40.67213],[9.73649,40.66916],[9.73992,40.66188],[9.7424,40.66086],[9.74712,40.6589],[9.74922,40.658],[9.74883,40.66044],[9.7502,40.66923],[9.75041,40.67784],[9.74612,40.68703],[9.74602,40.68718],[9.74564,40.68762],[9.74225,40.69137],[9.73904,40.69382],[9.73786,40.69452],[9.7304,40.6968],[9.72344,40.69992],[9.72273,40.70035],[9.72111,40.70169],[9.72037,40.70237],[9.71891,40.7038],[9.71762,40.70556],[9.71577,40.70894],[9.71541,40.70992],[9.71356,40.71857],[9.7145,40.72538],[9.71528,40.72985],[9.71243,40.7362],[9.71208,40.73963],[9.71554,40.74374],[9.71845,40.74853],[9.71811,40.7498],[9.71774,40.75055],[9.71534,40.75158],[9.71552,40.75215],[9.71549,40.75298],[9.7151,40.75328],[9.70737,40.75495],[9.68754,40.76593],[9.68669,40.7665],[9.68381,40.76924],[9.68014,40.77312],[9.67297,40.78245],[9.67254,40.78277],[9.67249,40.78281],[9.67217,40.78334],[9.67141,40.78462],[9.67139,40.78467],[9.6707,40.78698],[9.67061,40.78733],[9.6705,40.78778],[9.67039,40.78823],[9.67019,40.79049],[9.67016,40.79139],[9.67016,40.79264],[9.67017,40.79274],[9.67018,40.79372],[9.67028,40.79565],[9.67032,40.79589],[9.67083,40.79859],[9.67115,40.79949],[9.67182,40.80129],[9.67199,40.80174],[9.67241,40.8026],[9.67303,40.80353],[9.67316,40.80372],[9.67335,40.80398],[9.67369,40.80446],[9.67435,40.8053],[9.67516,40.80622],[9.6752,40.80626],[9.67584,40.80689],[9.67659,40.80743],[9.67694,40.80762],[9.67746,40.80791],[9.67754,40.80794],[9.67809,40.80817],[9.67813,40.80818],[9.67839,40.80828],[9.68017,40.80882],[9.68091,40.80898],[9.68139,40.80904],[9.68362,40.8088],[9.68367,40.80879],[9.68443,40.80852],[9.6846,40.80842],[9.68505,40.80814],[9.68507,40.80797],[9.6851,40.80776],[9.68521,40.80673],[9.68607,40.80608],[9.6877,40.80629],[9.68814,40.8064],[9.69059,40.80928],[9.69118,40.81003],[9.69157,40.81071],[9.69181,40.81117],[9.69176,40.81193],[9.69159,40.81281],[9.68803,40.81724],[9.68216,40.82134],[9.68325,40.82886],[9.68518,40.83406],[9.68545,40.83466],[9.68586,40.83532],[9.68642,40.83585],[9.68726,40.83647],[9.68855,40.83707],[9.68904,40.83716],[9.69529,40.83673],[9.69816,40.83594],[9.69915,40.83348],[9.70187,40.8325],[9.70864,40.83163],[9.71562,40.8334],[9.71947,40.83485],[9.72473,40.83804],[9.72505,40.83825],[9.72578,40.83974],[9.72725,40.84333],[9.72496,40.84391],[9.71644,40.84223],[9.70421,40.84257],[9.69523,40.84692],[9.69269,40.84824],[9.69027,40.85028],[9.68964,40.85095],[9.68874,40.85222],[9.68824,40.85298],[9.68794,40.8535],[9.68736,40.85488],[9.68692,40.85606],[9.68683,40.85656],[9.68686,40.85794],[9.68459,40.85966],[9.6844,40.85977],[9.68341,40.86023],[9.6813,40.86114],[9.67774,40.86166],[9.67726,40.86171],[9.67601,40.86136],[9.67365,40.85938],[9.67195,40.85634],[9.66767,40.85305],[9.66701,40.85293],[9.66613,40.85304],[9.66518,40.85329],[9.66497,40.85366],[9.66484,40.85388],[9.66445,40.85514],[9.66428,40.85581],[9.65847,40.85641],[9.65291,40.86285],[9.65377,40.86818],[9.65665,40.87324],[9.65778,40.8757],[9.65424,40.8796],[9.65331,40.87988],[9.64846,40.88076],[9.64795,40.88081],[9.6478,40.88081],[9.6476,40.88073],[9.64607,40.88001],[9.64562,40.87907],[9.6458,40.87846],[9.64683,40.87805],[9.64766,40.87786],[9.64804,40.87699],[9.64421,40.87419],[9.64256,40.87309],[9.64072,40.87363],[9.6404,40.87373],[9.64022,40.87386],[9.64016,40.87394],[9.63816,40.87853],[9.63644,40.88302],[9.63587,40.8839],[9.6344,40.8844],[9.63307,40.88442],[9.62935,40.88502],[9.61774,40.88942],[9.61953,40.89608],[9.62934,40.90206],[9.64126,40.91361],[9.6452,40.91764],[9.64522,40.91777],[9.64483,40.91881],[9.64448,40.9197],[9.64413,40.92002],[9.64305,40.92011],[9.64153,40.91984],[9.63959,40.91942],[9.63948,40.91939],[9.63937,40.91935],[9.63024,40.91782],[9.62504,40.91907],[9.62177,40.92187],[9.61865,40.9215],[9.61238,40.91927],[9.61065,40.91858],[9.60903,40.91771],[9.60833,40.91726],[9.60756,40.91663],[9.60739,40.91647],[9.60731,40.91637],[9.60717,40.916],[9.60665,40.91432],[9.60658,40.9126],[9.60443,40.90994],[9.60114,40.90707],[9.59288,40.90205],[9.59254,40.90161],[9.59204,40.90098],[9.59185,40.90081],[9.59181,40.90079],[9.59142,40.90056],[9.5911,40.90038],[9.59007,40.89994],[9.58866,40.89961],[9.58749,40.89962],[9.58606,40.89985],[9.5843,40.90047],[9.58291,40.90097],[9.57738,40.90314],[9.57666,40.90352],[9.57595,40.90405],[9.5751,40.90472],[9.57426,40.90541],[9.57361,40.90605],[9.57162,40.90813],[9.57155,40.9082],[9.57132,40.90885],[9.57131,40.90903],[9.57129,40.9094],[9.5713,40.90948],[9.57133,40.90984],[9.57152,40.91022],[9.572,40.91088],[9.57221,40.91105],[9.57232,40.91112],[9.57238,40.91115],[9.56359,40.91943],[9.56348,40.91954],[9.56341,40.9196],[9.56264,40.92018],[9.56234,40.92033],[9.56169,40.92065],[9.56113,40.92079],[9.5599,40.92083],[9.55097,40.91994],[9.5378,40.9164],[9.52853,40.91554],[9.52339,40.91623],[9.51248,40.91282],[9.50695,40.91145],[9.50252,40.91288],[9.5024,40.91299],[9.50225,40.91331],[9.50215,40.91357],[9.50214,40.91362],[9.50212,40.91367],[9.50154,40.91802],[9.50148,40.91881],[9.50147,40.91893],[9.5015,40.91971],[9.50287,40.92093],[9.50727,40.92342],[9.50842,40.92394],[9.5115,40.92374],[9.51498,40.92323],[9.51493,40.92278],[9.51555,40.9223],[9.51825,40.9219],[9.52049,40.92164],[9.52431,40.92227],[9.52374,40.92477],[9.52237,40.92502],[9.52162,40.92514],[9.51502,40.92565],[9.51008,40.92511],[9.50968,40.92536],[9.50806,40.92666],[9.50764,40.92728],[9.50824,40.92869],[9.5211,40.93186],[9.52708,40.93344],[9.53298,40.93329],[9.53438,40.9331],[9.5356,40.93114],[9.53639,40.92946],[9.53673,40.92901],[9.53686,40.92883],[9.53786,40.92751],[9.53909,40.92589],[9.53913,40.92587],[9.54324,40.92584],[9.54525,40.92585],[9.54792,40.92626],[9.55714,40.92696],[9.55863,40.92606],[9.56104,40.9246],[9.56292,40.92401],[9.56634,40.92472],[9.57066,40.92615],[9.57346,40.92736],[9.5738,40.92752],[9.57499,40.92821],[9.57552,40.92898],[9.57489,40.93314],[9.57127,40.93393],[9.57104,40.93392],[9.57079,40.93398],[9.57014,40.9344],[9.56853,40.93547],[9.56834,40.9356],[9.56831,40.93562],[9.56822,40.93568],[9.56799,40.93607],[9.56797,40.93612],[9.56778,40.93652],[9.56777,40.93655],[9.56769,40.93697],[9.56765,40.93721],[9.56752,40.93832],[9.56751,40.93841],[9.56748,40.93877],[9.56741,40.93961],[9.56739,40.9402],[9.56744,40.94058],[9.56747,40.94082],[9.56799,40.94206],[9.56815,40.94244],[9.56835,40.94279],[9.56872,40.94321],[9.56902,40.9435],[9.57173,40.94561],[9.57256,40.9462],[9.57459,40.94707],[9.57619,40.9473],[9.58018,40.95476],[9.58196,40.95662],[9.58734,40.96029],[9.5901,40.96286],[9.59318,40.96586],[9.59343,40.96617],[9.59386,40.96789],[9.59388,40.96848],[9.5935,40.96871],[9.59284,40.96891],[9.59134,40.96897],[9.58583,40.97349],[9.58357,40.97584],[9.58292,40.9792],[9.5834,40.98267],[9.58484,40.98639],[9.58666,40.98839],[9.58888,40.98986],[9.58914,40.98996],[9.59142,40.99045],[9.59201,40.99052],[9.59285,40.99054],[9.5931,40.99044],[9.59322,40.9904],[9.59354,40.99023],[9.59397,40.98994],[9.59409,40.98969],[9.59784,40.99088],[9.60362,40.99714],[9.60952,41.00197],[9.6112,41.00316],[9.61192,41.0034],[9.61285,41.00358],[9.61764,41.00281],[9.62121,41.00035],[9.62111,40.99834],[9.62225,40.99584],[9.6234,40.99412],[9.63007,40.99107],[9.63893,40.9875],[9.64666,40.98535],[9.65366,40.98651],[9.66219,40.99361],[9.664,40.9941],[9.66437,40.99445],[9.66459,40.99518],[9.66472,40.99567],[9.66457,40.99644],[9.66413,40.99767],[9.6618,40.99829],[9.66046,40.99904],[9.6593,41.00036],[9.65852,41.00201],[9.65538,41.00434],[9.6506,41.0041],[9.65052,41.00409],[9.65041,41.00408],[9.65022,41.00406],[9.64788,41.00365],[9.64683,41.00337],[9.64517,41.00258],[9.64484,41.00237],[9.64408,41.00188],[9.64206,41.00117],[9.63864,41.00101],[9.63449,41.00151],[9.63105,41.00209],[9.63091,41.00213],[9.62336,41.0047],[9.62274,41.00502],[9.61174,41.01405],[9.60864,41.01753],[9.60656,41.01847],[9.5942,41.02175],[9.59287,41.01848],[9.58676,41.01134],[9.58636,41.01089],[9.58599,41.01072],[9.58568,41.01065],[9.58515,41.01058],[9.58506,41.01057],[9.58464,41.01055],[9.58438,41.01056],[9.5819,41.01202],[9.58173,41.01213],[9.58155,41.01231],[9.58034,41.0137],[9.58014,41.01393],[9.57854,41.00703],[9.57853,41.0046],[9.57839,41.00426],[9.57819,41.00406],[9.57687,41.00289],[9.5768,41.00287],[9.57616,41.00269],[9.57608,41.00267],[9.57594,41.00263],[9.5759,41.00262],[9.57583,41.00262],[9.57567,41.00263],[9.57561,41.00264],[9.57465,41.00271],[9.57452,41.00273],[9.57446,41.00275],[9.5742,41.00303],[9.56958,41.00794],[9.56274,41.00615],[9.55757,41.0034],[9.55706,41.00345],[9.55633,41.00352],[9.55548,41.00377],[9.55469,41.00416],[9.55462,41.0042],[9.55395,41.0046],[9.5535,41.00486],[9.55341,41.00492],[9.55188,41.00591],[9.55125,41.00639],[9.55123,41.00641],[9.55093,41.00672],[9.5509,41.00694],[9.55129,41.008],[9.55161,41.00871],[9.55879,41.02133],[9.5611,41.02849],[9.56291,41.03445],[9.56283,41.03488],[9.56228,41.03609],[9.56181,41.03699],[9.56105,41.03767],[9.55949,41.03746],[9.55674,41.03702],[9.55514,41.03645],[9.55036,41.03123],[9.53754,41.02795],[9.53228,41.02882],[9.52725,41.0271],[9.52586,41.02177],[9.52738,41.02049],[9.52906,41.02009],[9.5296,41.01967],[9.52966,41.01958],[9.52984,41.01933],[9.52987,41.01913],[9.52991,41.01888],[9.52972,41.01788],[9.5292,41.01703],[9.52909,41.01687],[9.52534,41.01273],[9.52111,41.00985],[9.51548,41.0087],[9.51184,41.00843],[9.50597,41.00903],[9.50528,41.00911],[9.50565,41.01023],[9.5061,41.01152],[9.50742,41.01501],[9.50776,41.01554],[9.50806,41.01577],[9.51387,41.01767],[9.52258,41.03138],[9.52402,41.03594],[9.525,41.04077],[9.52533,41.04437],[9.52416,41.04766],[9.52325,41.05186],[9.52583,41.05479],[9.52782,41.05691],[9.5398,41.06187],[9.54119,41.06499],[9.54096,41.06528],[9.54064,41.06545],[9.53994,41.06559],[9.53973,41.0656],[9.5395,41.06561],[9.53881,41.06556],[9.53791,41.06547],[9.53628,41.0651],[9.53389,41.06505],[9.53053,41.06671],[9.52929,41.06795],[9.52894,41.06874],[9.52868,41.06958],[9.52863,41.06973],[9.52864,41.07003],[9.52865,41.07048],[9.52865,41.07075],[9.52881,41.07138],[9.52893,41.07183],[9.529,41.0721],[9.52907,41.07234],[9.52919,41.07275],[9.52932,41.07299],[9.52951,41.07336],[9.52976,41.07378],[9.52985,41.07393],[9.53521,41.08249],[9.53901,41.08731],[9.53936,41.08773],[9.54125,41.0891],[9.54271,41.08976],[9.54369,41.08934],[9.54428,41.08893],[9.54457,41.08841],[9.54463,41.08821],[9.54442,41.08742],[9.54421,41.08701],[9.54284,41.08489],[9.54178,41.08348],[9.54459,41.08166],[9.54918,41.07881],[9.5526,41.07864],[9.56158,41.08412],[9.56298,41.0869],[9.56592,41.09576],[9.56738,41.10239],[9.56883,41.10984],[9.56688,41.11578],[9.5661,41.11653],[9.56546,41.11714],[9.56441,41.11801],[9.5611,41.1197],[9.55721,41.11962],[9.55506,41.11916],[9.55111,41.11695],[9.54905,41.11523],[9.54895,41.11509],[9.54888,41.11497],[9.54856,41.11447],[9.54831,41.11379],[9.54847,41.11354],[9.54842,41.1134],[9.54826,41.11317],[9.54823,41.11313],[9.54801,41.1129],[9.54718,41.11257],[9.54666,41.1125],[9.54659,41.11249],[9.54607,41.11253],[9.54591,41.11254],[9.54527,41.11261],[9.54477,41.11273],[9.54469,41.11275],[9.54084,41.11415],[9.54072,41.11421],[9.54065,41.11424],[9.54042,41.11444],[9.54025,41.115],[9.53969,41.11722],[9.53899,41.12128],[9.54063,41.12468],[9.54381,41.12792],[9.5451,41.12987],[9.546,41.13158],[9.54596,41.13211],[9.54589,41.13276],[9.54579,41.13369],[9.54564,41.13398],[9.53898,41.1367],[9.53831,41.13652],[9.53706,41.13579],[9.53442,41.13474],[9.52718,41.13367],[9.52662,41.13374],[9.526,41.13428],[9.52597,41.1353],[9.52612,41.13571],[9.52644,41.13602],[9.52959,41.13693],[9.53631,41.13845],[9.53719,41.13983],[9.5334,41.14304],[9.53264,41.14357],[9.53062,41.14486],[9.52893,41.14807],[9.53078,41.15236],[9.52674,41.15557],[9.52441,41.15665],[9.52168,41.15671],[9.51579,41.15601],[9.51204,41.15146],[9.51405,41.14936],[9.5149,41.14899],[9.51501,41.1489],[9.51576,41.14806],[9.51623,41.14751],[9.5189,41.14359],[9.51889,41.14263],[9.5121,41.14107],[9.50762,41.14178],[9.49637,41.14397],[9.49177,41.14385],[9.48241,41.14336],[9.47771,41.14124],[9.46758,41.14317],[9.46666,41.14298],[9.46575,41.14207],[9.46492,41.14091],[9.46444,41.13992],[9.46371,41.13735],[9.46375,41.13696],[9.46377,41.13678],[9.46442,41.13575],[9.46484,41.13545],[9.46565,41.13515],[9.46792,41.13447],[9.47192,41.13187],[9.47055,41.12822],[9.46665,41.1263],[9.46166,41.12119],[9.45748,41.11518],[9.45013,41.10439],[9.44102,41.10458],[9.44177,41.10958],[9.4404,41.12309],[9.44003,41.1276],[9.44348,41.13519],[9.4357,41.13676],[9.43214,41.14087],[9.432,41.14745],[9.43163,41.15201],[9.42961,41.15496],[9.42625,41.15538],[9.41249,41.15585],[9.40556,41.15707],[9.40541,41.15788],[9.40539,41.159],[9.40555,41.15942],[9.40593,41.15979],[9.41119,41.16289],[9.41393,41.16375],[9.41643,41.16421],[9.41701,41.16387],[9.41762,41.16388],[9.41818,41.16401],[9.42037,41.1648],[9.42074,41.16499],[9.42161,41.16564],[9.42185,41.16584],[9.42229,41.16626],[9.42255,41.16664],[9.42398,41.17158],[9.42377,41.17344],[9.42328,41.17721],[9.42262,41.17756],[9.42064,41.17808],[9.41805,41.17858],[9.41143,41.17782],[9.40996,41.17765],[9.40724,41.17673],[9.40634,41.17642],[9.40624,41.17616],[9.38552,41.18074],[9.3853,41.18153],[9.38391,41.18497],[9.38134,41.18736],[9.38086,41.1877],[9.37909,41.18773],[9.3778,41.18752],[9.37643,41.18683],[9.37588,41.1865],[9.37586,41.18635],[9.37584,41.18628],[9.37582,41.18617],[9.37524,41.18394],[9.37521,41.18386],[9.37507,41.18352],[9.37368,41.18307],[9.37313,41.18301],[9.37256,41.18297],[9.37056,41.18311],[9.37024,41.18324],[9.37005,41.18337],[9.37001,41.18343],[9.36992,41.18357],[9.36923,41.18467],[9.36673,41.189],[9.3653,41.19325],[9.36535,41.19631],[9.36606,41.2],[9.36486,41.20562],[9.36407,41.20696],[9.36391,41.20721],[9.36331,41.20758],[9.36298,41.20749],[9.35913,41.20641],[9.35608,41.20364],[9.35427,41.20269],[9.35417,41.20264],[9.35403,41.20265],[9.35314,41.20277],[9.35301,41.20279],[9.35272,41.20284],[9.35181,41.2031],[9.35163,41.20316],[9.35129,41.20375],[9.35093,41.20524],[9.35087,41.20654],[9.35083,41.20672],[9.35081,41.2068],[9.35069,41.20715],[9.35049,41.2074],[9.35022,41.2076],[9.34827,41.20746],[9.34184,41.20592],[9.33838,41.20316],[9.33137,41.19532],[9.33078,41.19451],[9.33416,41.19226],[9.33468,41.19204],[9.33732,41.19114],[9.33762,41.19112],[9.33784,41.19112],[9.33802,41.19116],[9.33819,41.19121],[9.33839,41.19131],[9.33863,41.19144],[9.33898,41.19175],[9.34149,41.19224],[9.33637,41.18734],[9.33502,41.18617],[9.33448,41.18596],[9.3335,41.18561],[9.33287,41.18544],[9.33264,41.18538],[9.33187,41.18532],[9.32925,41.18648],[9.32282,41.19108],[9.31927,41.19556],[9.32124,41.19681],[9.32242,41.19839],[9.32063,41.20287],[9.32034,41.20307],[9.3202,41.20308],[9.32005,41.20305],[9.31993,41.203],[9.31932,41.20271],[9.3168,41.20097],[9.31648,41.2007],[9.31614,41.20021],[9.31607,41.19986],[9.31617,41.19961],[9.31841,41.1956],[9.31843,41.19556],[9.31849,41.19536],[9.3185,41.19517],[9.31843,41.19466],[9.31842,41.19457],[9.3179,41.19367],[9.31761,41.19331],[9.31735,41.19298],[9.31717,41.19287],[9.3167,41.19258],[9.31605,41.19223],[9.31553,41.19203],[9.31538,41.19198],[9.31418,41.19163],[9.31196,41.19123],[9.31096,41.19108],[9.31061,41.19105],[9.31031,41.19103],[9.30857,41.19114],[9.30813,41.19108],[9.30644,41.19085],[9.30616,41.19081],[9.30584,41.19078],[9.30548,41.19075],[9.30468,41.1907],[9.30405,41.19066],[9.30395,41.19066],[9.30331,41.19065],[9.30188,41.19063],[9.30167,41.19066],[9.30122,41.19071],[9.2905,41.193],[9.29004,41.19332],[9.28914,41.1942],[9.2884,41.19516],[9.2882,41.19609],[9.2882,41.1964],[9.28921,41.19768],[9.29181,41.19892],[9.29526,41.20016],[9.29853,41.20356],[9.29643,41.2087],[9.29397,41.21315],[9.29003,41.21837],[9.28978,41.21861],[9.28946,41.21887],[9.28903,41.21903],[9.28786,41.21942],[9.28667,41.21922],[9.28661,41.21917],[9.28639,41.219],[9.2858,41.21789],[9.28605,41.21288],[9.28065,41.20602],[9.27877,41.19899],[9.27994,41.19431],[9.27999,41.19423],[9.27993,41.19382],[9.27953,41.19339],[9.27826,41.19319],[9.27739,41.19313],[9.27672,41.19317],[9.27544,41.19342],[9.27419,41.19375],[9.27276,41.19422],[9.27247,41.19433],[9.27224,41.19443],[9.27198,41.19461],[9.27031,41.19593],[9.27016,41.1962],[9.26999,41.1965],[9.26995,41.19677],[9.26997,41.19693],[9.27099,41.19975],[9.27667,41.20905],[9.28046,41.21507],[9.28162,41.21786],[9.28194,41.21918],[9.2817,41.22406],[9.28162,41.22454],[9.28044,41.22714],[9.27997,41.22811],[9.27954,41.22881],[9.2783,41.23015],[9.27131,41.23616],[9.26114,41.24093],[9.24105,41.24581],[9.2399,41.2452],[9.23927,41.24502],[9.23907,41.24508],[9.23856,41.2453],[9.23807,41.24552],[9.23759,41.24574],[9.23747,41.2458],[9.23701,41.24604],[9.2368,41.24619],[9.23628,41.24656],[9.23623,41.24659],[9.23463,41.24929],[9.23462,41.24971],[9.23481,41.25373],[9.23546,41.25516],[9.23599,41.25678],[9.23532,41.25822],[9.22936,41.25888],[9.22558,41.25914],[9.21506,41.25504],[9.21312,41.25323],[9.20803,41.25043],[9.19715,41.242],[9.19492,41.24048],[9.1949,41.24131],[9.19486,41.24205],[9.19447,41.2459],[9.18594,41.24769],[9.18095,41.24803],[9.17377,41.2453],[9.17039,41.24161],[9.16537,41.23642],[9.15953,41.24081],[9.15278,41.24465],[9.14605,41.24709],[9.14561,41.24715],[9.14424,41.24695],[9.14388,41.24674],[9.14166,41.24483],[9.13836,41.23856],[9.14097,41.23468],[9.14359,41.23244],[9.14771,41.23116],[9.1502,41.23193],[9.1528,41.23413],[9.15599,41.23558],[9.15609,41.23562],[9.15714,41.23595],[9.15775,41.23603],[9.15814,41.23603],[9.15997,41.23583],[9.16042,41.23566],[9.16165,41.23494],[9.16222,41.23456],[9.16285,41.23406],[9.16301,41.23393],[9.16326,41.23372],[9.16331,41.23368],[9.16603,41.23097],[9.16708,41.22899],[9.1659,41.21996],[9.16568,41.2184],[9.15928,41.20512],[9.15835,41.20341],[9.15686,41.203],[9.15681,41.20298],[9.15664,41.20293],[9.15575,41.20247],[9.15562,41.2023],[9.15556,41.20221],[9.15506,41.20142],[9.15503,41.2013],[9.15499,41.20114],[9.15411,41.19725],[9.15475,41.1937],[9.155,41.19313],[9.15507,41.19301],[9.15654,41.19163],[9.15855,41.18572],[9.16283,41.18213],[9.16899,41.17777],[9.16988,41.17725],[9.17106,41.17704],[9.17111,41.17651],[9.17116,41.17605],[9.17125,41.17514],[9.1712,41.1747],[9.17114,41.17425],[9.17111,41.17396],[9.17104,41.17372],[9.17074,41.1731],[9.16844,41.16901],[9.16809,41.16848],[9.16803,41.16841],[9.16774,41.16811],[9.15909,41.16087],[9.14907,41.15515],[9.13948,41.1538],[9.13128,41.15376],[9.1263,41.15486],[9.12596,41.15553],[9.12549,41.15581],[9.12458,41.15636],[9.12452,41.15635],[9.1232,41.15625],[9.12058,41.15518],[9.12022,41.15495],[9.11946,41.15405],[9.11905,41.15329],[9.11902,41.15315],[9.11894,41.1527],[9.11893,41.15265],[9.11881,41.15191],[9.11888,41.15154],[9.11898,41.15135],[9.11901,41.15128],[9.12039,41.14964],[9.12233,41.14941],[9.12309,41.14884],[9.12312,41.14846],[9.1231,41.14784],[9.12301,41.14746],[9.12287,41.14697],[9.12226,41.1462],[9.12204,41.14595],[9.12177,41.14566],[9.1208,41.1447],[9.11094,41.13559],[9.11078,41.13545],[9.11018,41.13493],[9.10938,41.1345],[9.1086,41.13424],[9.10839,41.13417],[9.10772,41.13395],[9.10422,41.13339],[9.09195,41.13015],[9.07971,41.12846],[9.0646,41.12735],[9.0643,41.12736],[9.06384,41.12737],[9.06051,41.12752],[9.06045,41.12752],[9.06031,41.12755],[9.06007,41.1276],[9.05825,41.12803],[9.05802,41.12814],[9.05738,41.12871],[9.05724,41.12888],[9.05217,41.13642],[9.05184,41.13685],[9.05084,41.13742],[9.04703,41.13803],[9.04633,41.13808],[9.04227,41.13735],[9.04147,41.13712],[9.04079,41.13654],[9.03965,41.13541],[9.03073,41.13058],[9.02184,41.12695],[9.01755,41.12599],[9.01544,41.12529],[9.01188,41.12379],[9.00831,41.12078],[8.99917,41.10872],[8.99719,41.10592],[8.99668,41.10488],[8.9943,41.10458],[8.99171,41.10388],[8.991,41.10367],[8.99029,41.1031],[8.99019,41.10298],[8.98179,41.09251],[8.98152,41.08663],[8.97771,41.08409],[8.97318,41.08196],[8.96995,41.07943],[8.96609,41.07517],[8.95688,41.06821],[8.95168,41.06121],[8.94999,41.05918],[8.94547,41.05607],[8.92939,41.04344],[8.92842,41.04367],[8.92623,41.04367],[8.92382,41.04261],[8.92204,41.04127],[8.92109,41.03994],[8.92108,41.03962],[8.9212,41.03754],[8.91605,41.03556],[8.91439,41.03649],[8.90841,41.0368],[8.9038,41.03562],[8.89881,41.03284],[8.89232,41.02722],[8.8892,41.02665],[8.88538,41.0274],[8.88221,41.02822],[8.88324,41.02249],[8.88784,41.01802],[8.88828,41.01748],[8.88828,41.01745],[8.88824,41.01728],[8.88816,41.01714],[8.88778,41.01646],[8.88744,41.01592],[8.88726,41.01578],[8.88708,41.01564],[8.88665,41.01534],[8.88657,41.01529],[8.88593,41.01502],[8.88562,41.01493],[8.88542,41.01488],[8.88538,41.01487],[8.8852,41.01484],[8.88493,41.01479],[8.88461,41.01478],[8.88452,41.0148],[8.88444,41.01481],[8.88282,41.0152],[8.88229,41.0154],[8.88216,41.01549],[8.87999,41.01712],[8.8795,41.0174],[8.87834,41.01766],[8.87767,41.01766],[8.87047,41.01544],[8.87,41.01514],[8.86936,41.01454],[8.86912,41.01412],[8.87032,41.01212],[8.87058,41.01187],[8.87094,41.01162],[8.87143,41.01126],[8.87151,41.01121],[8.87197,41.01099],[8.87211,41.01111],[8.87211,41.0112],[8.87202,41.01126],[8.87153,41.01162],[8.87106,41.01196],[8.87094,41.01204],[8.87077,41.01216],[8.87056,41.01231],[8.87047,41.01258],[8.87047,41.01261],[8.8705,41.01303],[8.87093,41.01338],[8.87114,41.01349],[8.87153,41.01344],[8.87272,41.01311],[8.87536,41.01172],[8.87607,41.01127],[8.8766,41.00998],[8.8766,41.00991],[8.8766,41.00984],[8.87657,41.00948],[8.87647,41.00876],[8.87043,40.9928],[8.86604,40.98736],[8.8598,40.98077],[8.85366,40.97476],[8.84927,40.97038],[8.84413,40.96513],[8.84014,40.961],[8.83722,40.95794],[8.83624,40.95701],[8.83522,40.95607],[8.82442,40.94681],[8.81897,40.94228],[8.81287,40.93801],[8.80789,40.93461],[8.80268,40.93116],[8.80257,40.93099],[8.80251,40.93091],[8.80258,40.93055],[8.80324,40.93052],[8.80357,40.93063],[8.80412,40.93083],[8.8111,40.93384],[8.81269,40.93455],[8.81459,40.93542],[8.81662,40.93652],[8.81968,40.9383],[8.82594,40.9428],[8.83078,40.94669],[8.83267,40.94801],[8.84544,40.94429],[8.85347,40.94187],[8.86188,40.93925],[8.86247,40.93904],[8.86654,40.93732],[8.87193,40.93426],[8.87426,40.93247],[8.88177,40.93272],[8.89016,40.93323],[8.8971,40.93368],[8.90336,40.93782],[8.91855,40.94566],[8.92913,40.95055],[8.93204,40.95146],[8.93351,40.95431],[8.9342,40.95588],[8.93521,40.95819],[8.94371,40.96231],[8.9456,40.95712],[8.96171,40.95909],[8.96941,40.95567],[8.97189,40.95288],[8.97509,40.94896],[8.97542,40.94555],[8.97533,40.94426],[8.97518,40.94388],[8.97496,40.94362],[8.97159,40.94133],[8.97115,40.94113],[8.96728,40.93966],[8.96504,40.93907],[8.96381,40.9389],[8.96307,40.93878],[8.96297,40.93877],[8.96249,40.93849],[8.9623,40.93838],[8.96186,40.93784],[8.96143,40.93684],[8.96126,40.93609],[8.96127,40.93569],[8.96148,40.93527],[8.96681,40.93215],[8.96738,40.93184],[8.96747,40.93179],[8.96789,40.93169],[8.97271,40.9316],[8.98042,40.93134],[8.98076,40.93078],[8.98505,40.92268],[8.98593,40.91989],[8.986,40.91905],[8.986,40.91902],[8.98589,40.91773],[8.98583,40.9167],[8.98585,40.91493],[8.9859,40.91494],[8.98955,40.91543],[8.99169,40.91572]]],[[[9.11931,41.1582],[9.11926,41.15811],[9.11918,41.15796],[9.11916,41.15792],[9.11912,41.15785],[9.11907,41.15755],[9.11955,41.15739],[9.11982,41.1574],[9.12005,41.15746],[9.12041,41.15768],[9.12042,41.1579],[9.12017,41.15836],[9.11999,41.15845],[9.11975,41.15846],[9.1196,41.15847],[9.11944,41.15836],[9.11931,41.1582]]],[[[9.11931,41.1582],[9.11924,41.15843],[9.11921,41.15848],[9.11916,41.15847],[9.11904,41.15844],[9.11891,41.1584],[9.1188,41.15838],[9.11883,41.15819],[9.11884,41.15811],[9.11931,41.1582]]],[[[9.76687,40.68519],[9.76673,40.68516],[9.76661,40.68499],[9.76661,40.68494],[9.76692,40.68478],[9.76702,40.68481],[9.76709,40.6849],[9.76711,40.68495],[9.76707,40.68507],[9.76702,40.68518],[9.76687,40.68519]]],[[[9.71832,40.73615],[9.71874,40.73631],[9.71871,40.73647],[9.7186,40.73683],[9.71842,40.73687],[9.71831,40.73682],[9.71729,40.7364],[9.7172,40.73633],[9.71736,40.73617],[9.71772,40.7361],[9.71832,40.73615]]],[[[9.58917,40.95819],[9.5898,40.95867],[9.58944,40.95912],[9.58938,40.95918],[9.58929,40.95923],[9.58833,40.95916],[9.58774,40.95898],[9.58766,40.95833],[9.58767,40.95827],[9.58767,40.95816],[9.58787,40.9578],[9.5883,40.95769],[9.58917,40.95819]]],[[[9.64379,40.98285],[9.64305,40.98292],[9.64194,40.98297],[9.64081,40.98298],[9.63995,40.98255],[9.64018,40.98079],[9.64029,40.98028],[9.64046,40.97983],[9.6427,40.97795],[9.64273,40.97793],[9.64295,40.97775],[9.64454,40.97812],[9.64492,40.97825],[9.64564,40.97862],[9.6461,40.97888],[9.64629,40.97907],[9.64651,40.97978],[9.6465,40.98005],[9.64606,40.98075],[9.64549,40.9815],[9.64502,40.98192],[9.64379,40.98285]]],[[[9.70816,40.87548],[9.70809,40.87587],[9.70794,40.87591],[9.7079,40.87591],[9.7077,40.87591],[9.70738,40.87563],[9.70721,40.87513],[9.70723,40.87494],[9.70723,40.87488],[9.70729,40.8749],[9.70748,40.87494],[9.7077,40.875],[9.7083,40.87536],[9.70823,40.87544],[9.70816,40.87548]]],[[[9.77819,40.87549],[9.77809,40.87562],[9.77747,40.87558],[9.77691,40.87525],[9.77693,40.87473],[9.77696,40.8745],[9.77697,40.87436],[9.77725,40.87362],[9.7774,40.87339],[9.77755,40.87329],[9.77789,40.87307],[9.77843,40.87314],[9.77863,40.87343],[9.77905,40.8745],[9.7791,40.8748],[9.77878,40.87517],[9.77849,40.87535],[9.77842,40.87539],[9.77819,40.87549]]],[[[9.72964,40.87636],[9.72804,40.87685],[9.71845,40.87605],[9.71679,40.87623],[9.71533,40.87594],[9.71442,40.87517],[9.71075,40.87061],[9.71056,40.8703],[9.71036,40.86972],[9.71035,40.86888],[9.71098,40.86771],[9.71357,40.86609],[9.72959,40.86028],[9.73112,40.85958],[9.7322,40.85919],[9.73264,40.85916],[9.7328,40.85915],[9.73574,40.85945],[9.73699,40.85996],[9.73908,40.86168],[9.73991,40.86254],[9.74097,40.86406],[9.74114,40.86447],[9.7419,40.86972],[9.74067,40.87214],[9.73913,40.87343],[9.73521,40.87553],[9.72964,40.87636]]],[[[9.67141,40.87877],[9.67093,40.87857],[9.67008,40.87808],[9.67015,40.87792],[9.6702,40.8778],[9.67024,40.87773],[9.67122,40.87713],[9.67165,40.87692],[9.67179,40.87687],[9.67205,40.87699],[9.67313,40.87756],[9.67336,40.87779],[9.67342,40.87785],[9.67322,40.87801],[9.67166,40.87873],[9.67155,40.87875],[9.67141,40.87877]]],[[[9.64089,40.88641],[9.6407,40.88649],[9.64045,40.88654],[9.64035,40.88652],[9.6401,40.88647],[9.63951,40.88601],[9.63946,40.88594],[9.63911,40.88533],[9.63904,40.88503],[9.63912,40.8848],[9.63914,40.88474],[9.63931,40.88456],[9.63956,40.8844],[9.64128,40.88503],[9.64139,40.88578],[9.64119,40.88616],[9.64116,40.88622],[9.64099,40.88645],[9.64089,40.88641]]],[[[9.65107,40.8901],[9.65036,40.89018],[9.64689,40.8887],[9.64679,40.88856],[9.64687,40.88822],[9.64697,40.88797],[9.64787,40.88694],[9.64807,40.88685],[9.6482,40.88679],[9.64906,40.88672],[9.65319,40.88726],[9.6536,40.88733],[9.65445,40.88758],[9.65483,40.88775],[9.65535,40.88838],[9.65521,40.88869],[9.65519,40.88874],[9.65107,40.8901]]],[[[9.6685,40.89357],[9.66856,40.89364],[9.66858,40.89367],[9.66857,40.89378],[9.66846,40.89396],[9.66795,40.89418],[9.66762,40.89392],[9.66755,40.89384],[9.66754,40.89375],[9.66763,40.8936],[9.66773,40.89356],[9.66832,40.89351],[9.6685,40.89357]]],[[[9.67483,40.8965],[9.67519,40.89669],[9.6752,40.89676],[9.67523,40.89692],[9.67488,40.89706],[9.67457,40.89693],[9.67444,40.89675],[9.67444,40.89654],[9.67458,40.89642],[9.67483,40.8965]]],[[[9.58403,40.90544],[9.58393,40.90563],[9.58349,40.90569],[9.58324,40.9056],[9.58236,40.90541],[9.58199,40.90538],[9.58164,40.90481],[9.58161,40.90466],[9.58175,40.90446],[9.58178,40.90443],[9.58194,40.90424],[9.58221,40.90415],[9.58227,40.90413],[9.58408,40.905],[9.5843,40.90526],[9.58403,40.90544]]],[[[9.5087,40.91819],[9.50844,40.91822],[9.50813,40.91809],[9.50803,40.91781],[9.50827,40.91754],[9.50889,40.91758],[9.50922,40.91768],[9.50922,40.91783],[9.50919,40.91795],[9.50883,40.91814],[9.5087,40.91819]]],[[[9.64795,40.91786],[9.64801,40.91798],[9.6476,40.91816],[9.64731,40.91818],[9.64635,40.91768],[9.64635,40.91764],[9.64638,40.91722],[9.64661,40.91714],[9.647,40.91711],[9.64718,40.9172],[9.64722,40.91722],[9.64738,40.91734],[9.64795,40.91786]]],[[[9.51254,40.91819],[9.51128,40.91799],[9.5081,40.9169],[9.50785,40.91677],[9.50777,40.91672],[9.50766,40.91661],[9.50776,40.91649],[9.508,40.91629],[9.50882,40.91621],[9.50934,40.91625],[9.51006,40.91642],[9.51024,40.91646],[9.5107,40.91659],[9.51112,40.91678],[9.51246,40.91803],[9.51254,40.91819]]],[[[9.56614,40.92012],[9.56708,40.9204],[9.56713,40.92049],[9.56703,40.92054],[9.56695,40.92058],[9.56685,40.92062],[9.56681,40.92062],[9.56668,40.92063],[9.56655,40.92061],[9.56624,40.92045],[9.56574,40.92014],[9.56582,40.92007],[9.56614,40.92012]]],[[[9.63823,40.92026],[9.6383,40.92031],[9.63841,40.92039],[9.6384,40.92051],[9.63831,40.92058],[9.63811,40.92072],[9.63787,40.92059],[9.63804,40.92023],[9.63823,40.92026]]],[[[9.63288,40.91989],[9.63305,40.92001],[9.63311,40.9201],[9.63261,40.92076],[9.63225,40.92068],[9.632,40.92047],[9.63177,40.92025],[9.63246,40.91978],[9.63275,40.91981],[9.63288,40.91989]]],[[[9.64155,40.92013],[9.64165,40.9202],[9.6417,40.92038],[9.64149,40.92096],[9.64127,40.92096],[9.64114,40.92086],[9.64098,40.92073],[9.64095,40.92048],[9.64107,40.92022],[9.64127,40.9201],[9.64139,40.92003],[9.64155,40.92013]]],[[[9.513,40.92186],[9.51287,40.92207],[9.51275,40.92213],[9.51235,40.92198],[9.51149,40.92162],[9.51056,40.92091],[9.51058,40.92058],[9.51149,40.92016],[9.51284,40.92113],[9.51304,40.92154],[9.513,40.92186]]],[[[9.64196,40.92158],[9.64109,40.92138],[9.64105,40.92127],[9.64139,40.92111],[9.64192,40.92104],[9.64202,40.92103],[9.64217,40.92109],[9.6423,40.92116],[9.64229,40.92127],[9.64224,40.92141],[9.64196,40.92158]]],[[[9.63317,40.92205],[9.63306,40.92189],[9.633,40.92177],[9.63292,40.92162],[9.63294,40.92139],[9.63315,40.92085],[9.63324,40.92071],[9.63367,40.92086],[9.63416,40.92138],[9.63411,40.92169],[9.63392,40.92183],[9.63377,40.92191],[9.63362,40.92199],[9.63317,40.92205]]],[[[9.63531,40.92328],[9.63536,40.92343],[9.63537,40.92363],[9.63536,40.92375],[9.63526,40.92378],[9.63509,40.92368],[9.63495,40.92351],[9.6349,40.92334],[9.63504,40.92322],[9.63516,40.9232],[9.63531,40.92328]]],[[[9.7355,40.92416],[9.73695,40.92715],[9.73695,40.92758],[9.73277,40.92542],[9.73116,40.92427],[9.73075,40.92393],[9.72923,40.92244],[9.72737,40.9205],[9.72753,40.92031],[9.7241,40.91705],[9.71602,40.9134],[9.71117,40.91095],[9.70945,40.91006],[9.70698,40.90869],[9.70527,40.90775],[9.68915,40.8987],[9.68194,40.89525],[9.67834,40.89409],[9.67692,40.89359],[9.67364,40.89204],[9.67354,40.89177],[9.67363,40.89038],[9.67399,40.88986],[9.68555,40.89239],[9.68595,40.89188],[9.68625,40.8916],[9.68787,40.89062],[9.69182,40.88823],[9.69278,40.88785],[9.69445,40.88853],[9.69678,40.8895],[9.69737,40.88985],[9.69856,40.89062],[9.70396,40.89433],[9.70445,40.89478],[9.70454,40.89486],[9.70574,40.89591],[9.70837,40.89791],[9.7106,40.89953],[9.71674,40.90322],[9.72058,40.90505],[9.72566,40.90688],[9.7326,40.90926],[9.73551,40.90974],[9.73788,40.90977],[9.74052,40.91054],[9.74152,40.91103],[9.74163,40.91108],[9.74207,40.91149],[9.74222,40.91163],[9.74275,40.9123],[9.74099,40.9168],[9.73982,40.91978],[9.7392,40.92037],[9.73776,40.92087],[9.73747,40.92081],[9.7374,40.9208],[9.73713,40.9207],[9.73688,40.9206],[9.73682,40.92058],[9.73569,40.92012],[9.73525,40.92386],[9.7355,40.92416]]],[[[9.52732,40.93036],[9.52766,40.93122],[9.52716,40.93158],[9.5262,40.93202],[9.52591,40.93176],[9.52591,40.93149],[9.52592,40.9306],[9.52599,40.93012],[9.52684,40.92996],[9.52732,40.93036]]],[[[9.52965,41.04202],[9.52862,41.04233],[9.52764,41.04225],[9.5286,41.0415],[9.52864,41.04147],[9.52868,41.04145],[9.52873,41.04144],[9.52882,41.04143],[9.52906,41.0414],[9.52965,41.04202]]],[[[9.33388,41.19113],[9.33342,41.19127],[9.33233,41.19119],[9.33176,41.19114],[9.33166,41.19104],[9.33151,41.19056],[9.33151,41.19008],[9.33277,41.18977],[9.33314,41.18973],[9.33345,41.1897],[9.33379,41.18971],[9.33421,41.18974],[9.33507,41.19003],[9.33512,41.19005],[9.33547,41.19026],[9.33534,41.19053],[9.33527,41.19057],[9.33498,41.19072],[9.33425,41.19108],[9.33388,41.19113]]],[[[9.31783,41.203],[9.3175,41.20317],[9.31738,41.20307],[9.31727,41.20298],[9.3173,41.20285],[9.31735,41.20255],[9.31736,41.20244],[9.31768,41.20232],[9.31806,41.20225],[9.31838,41.20219],[9.31846,41.20229],[9.31839,41.20249],[9.31814,41.20277],[9.31792,41.20293],[9.31783,41.203]]],[[[9.70855,40.82715],[9.70864,40.82877],[9.70858,40.82879],[9.70831,40.82892],[9.70754,40.82888],[9.70666,40.82774],[9.70666,40.82765],[9.70666,40.82722],[9.70682,40.82707],[9.70694,40.82697],[9.70701,40.82691],[9.70706,40.82686],[9.70746,40.8267],[9.70858,40.82674],[9.70855,40.82715]]],[[[9.7248,40.84647],[9.7245,40.84639],[9.72391,40.84597],[9.72392,40.84594],[9.724,40.84584],[9.72413,40.84582],[9.72419,40.84583],[9.72433,40.8459],[9.72451,40.84601],[9.72468,40.84613],[9.72478,40.84629],[9.72482,40.84642],[9.7248,40.84647]]],[[[9.72395,40.84768],[9.72349,40.84767],[9.72318,40.84758],[9.72291,40.84748],[9.72276,40.84737],[9.72242,40.84714],[9.72238,40.84712],[9.72211,40.84693],[9.72187,40.84675],[9.72182,40.84647],[9.72176,40.84613],[9.7217,40.84555],[9.72177,40.84526],[9.72212,40.84505],[9.72226,40.84503],[9.72282,40.84527],[9.72354,40.8457],[9.72436,40.84658],[9.72471,40.84705],[9.72479,40.84733],[9.72459,40.84749],[9.72395,40.84768]]],[[[9.67695,40.86375],[9.67736,40.86376],[9.67745,40.86411],[9.67756,40.86467],[9.67688,40.86507],[9.67638,40.86509],[9.67627,40.8651],[9.67626,40.86502],[9.67623,40.86468],[9.67656,40.86375],[9.67695,40.86375]]],[[[9.27915,41.23304],[9.27896,41.23303],[9.2786,41.23277],[9.27853,41.23267],[9.27854,41.23235],[9.27923,41.23248],[9.27944,41.23254],[9.27956,41.23258],[9.27965,41.23266],[9.27982,41.23288],[9.27982,41.23297],[9.27975,41.23299],[9.27915,41.23304]]],[[[9.15438,41.2459],[9.1542,41.24598],[9.15295,41.24544],[9.15288,41.24532],[9.15308,41.24486],[9.15319,41.24477],[9.15353,41.24487],[9.15432,41.2457],[9.15438,41.2459]]],[[[9.18369,41.25225],[9.18342,41.25206],[9.18292,41.251],[9.18284,41.2499],[9.18418,41.24909],[9.18438,41.24897],[9.18448,41.24892],[9.18482,41.24875],[9.18507,41.24924],[9.1853,41.2505],[9.18525,41.25067],[9.18496,41.25126],[9.18468,41.25154],[9.18435,41.25186],[9.18394,41.25225],[9.18369,41.25225]]],[[[9.18577,41.25278],[9.18578,41.25351],[9.18558,41.2535],[9.18546,41.25342],[9.18541,41.25336],[9.18537,41.25297],[9.1854,41.25287],[9.18551,41.25275],[9.18561,41.25268],[9.18573,41.25267],[9.18577,41.25278]]],[[[9.23914,41.25428],[9.23912,41.25438],[9.23904,41.25455],[9.23887,41.25467],[9.23878,41.25473],[9.23786,41.25499],[9.23773,41.25491],[9.23714,41.2544],[9.23692,41.25404],[9.23649,41.25303],[9.23671,41.25262],[9.23803,41.2525],[9.23882,41.25295],[9.2393,41.2538],[9.23916,41.25422],[9.23914,41.25428]]],[[[9.2396,41.25617],[9.23966,41.25632],[9.23971,41.25646],[9.23963,41.25655],[9.23952,41.25668],[9.23922,41.25655],[9.2387,41.25611],[9.23861,41.25573],[9.23892,41.25565],[9.23898,41.25564],[9.23932,41.25586],[9.23944,41.25594],[9.2396,41.25617]]],[[[9.24123,41.25722],[9.24117,41.25723],[9.24095,41.25724],[9.24065,41.25723],[9.2405,41.25722],[9.24031,41.2572],[9.24028,41.25699],[9.24032,41.25691],[9.24073,41.25626],[9.24146,41.25615],[9.24169,41.25617],[9.24184,41.25619],[9.24236,41.25649],[9.24234,41.25667],[9.24162,41.2572],[9.24123,41.25722]]],[[[8.86402,41.01564],[8.86392,41.01575],[8.86381,41.01578],[8.86315,41.01573],[8.86305,41.01572],[8.86297,41.01569],[8.86259,41.01554],[8.8617,41.01486],[8.86212,41.01274],[8.86214,41.01269],[8.86228,41.01259],[8.86246,41.01253],[8.86321,41.01247],[8.86337,41.01246],[8.86358,41.01248],[8.86368,41.01252],[8.86376,41.01256],[8.8638,41.01261],[8.86388,41.01295],[8.86398,41.01413],[8.86401,41.0147],[8.86403,41.01553],[8.86402,41.01564]]]]}},{"type":"Feature","properties":{"name":"carignano-del-sulcis","comuni_count":17},"geometry":{"type":"MultiPolygon","coordinates":[[[[8.34584,39.07626],[8.34575,39.07637],[8.34562,39.0765],[8.34552,39.07661],[8.34505,39.07689],[8.34499,39.07684],[8.34504,39.07672],[8.34515,39.07656],[8.34525,39.07647],[8.34543,39.07632],[8.34553,39.07625],[8.34567,39.07623],[8.3458,39.07623],[8.34584,39.07626]]],[[[8.3734,39.02329],[8.37189,39.02138],[8.37153,39.02086],[8.37099,39.01992],[8.37092,39.01951],[8.37107,39.01873],[8.3756,39.01318],[8.38011,39.00978],[8.38359,39.00337],[8.38475,38.99927],[8.38809,38.99413],[8.39129,38.99156],[8.39403,38.98681],[8.39444,38.98267],[8.39661,38.97682],[8.39697,38.97593],[8.39786,38.97514],[8.39914,38.97496],[8.40302,38.9675],[8.40295,38.96737],[8.40282,38.96696],[8.40259,38.96618],[8.40288,38.96461],[8.40338,38.96283],[8.40454,38.961],[8.40669,38.95882],[8.40808,38.95766],[8.40934,38.95699],[8.41335,38.95545],[8.41339,38.95544],[8.41384,38.95531],[8.41409,38.95526],[8.41424,38.95529],[8.41491,38.95561],[8.41508,38.95574],[8.41522,38.95586],[8.41525,38.95595],[8.42145,38.96043],[8.42555,38.96024],[8.43029,38.96006],[8.43223,38.96092],[8.43589,38.9628],[8.44194,38.96813],[8.44184,38.97455],[8.44465,38.98254],[8.44727,38.98351],[8.44862,38.98538],[8.45048,38.98898],[8.45143,38.99611],[8.45116,38.99718],[8.45043,39.003],[8.44979,39.00835],[8.45071,39.01609],[8.4527,39.02451],[8.45276,39.02473],[8.45285,39.02492],[8.45322,39.02567],[8.45347,39.02612],[8.454,39.02702],[8.4543,39.02748],[8.45525,39.02893],[8.45881,39.03425],[8.46096,39.03718],[8.46477,39.04289],[8.47005,39.05156],[8.46833,39.05524],[8.47328,39.05802],[8.47824,39.05925],[8.48563,39.06098],[8.49508,39.06284],[8.49775,39.06321],[8.50946,39.0622],[8.51163,39.06232],[8.51234,39.06207],[8.51437,39.06161],[8.51509,39.06147],[8.53072,39.05934],[8.53447,39.05682],[8.53261,39.0559],[8.53502,39.05287],[8.53692,39.0514],[8.54277,39.04735],[8.54854,39.04444],[8.54873,39.0444],[8.54877,39.04439],[8.54914,39.04434],[8.54943,39.04431],[8.54982,39.04435],[8.55045,39.04461],[8.55155,39.04516],[8.55192,39.04536],[8.55208,39.04546],[8.55214,39.0455],[8.55237,39.04566],[8.553,39.04613],[8.55311,39.04626],[8.55334,39.04634],[8.55365,39.04645],[8.5541,39.04659],[8.55436,39.04667],[8.55489,39.04678],[8.55507,39.04681],[8.5557,39.04683],[8.55984,39.0469],[8.56043,39.04685],[8.56073,39.04682],[8.56085,39.0468],[8.56142,39.04667],[8.56258,39.04643],[8.56262,39.04642],[8.56315,39.04622],[8.56398,39.04586],[8.5649,39.04543],[8.56781,39.0429],[8.56869,39.04191],[8.56899,39.04152],[8.56944,39.04085],[8.57112,39.03833],[8.57305,39.03528],[8.57493,39.03206],[8.57494,39.03203],[8.57501,39.03182],[8.57514,39.03137],[8.57535,39.03028],[8.57536,39.03023],[8.57545,39.02971],[8.57608,39.02533],[8.5764,39.02375],[8.57643,39.0229],[8.5764,39.02212],[8.57639,39.02185],[8.5759,39.01952],[8.57555,39.01847],[8.57534,39.01798],[8.57487,39.01705],[8.5748,39.01694],[8.57465,39.01671],[8.57412,39.01595],[8.57389,39.0157],[8.57287,39.01487],[8.57267,39.01472],[8.57259,39.01466],[8.57246,39.01457],[8.57232,39.01448],[8.57159,39.01449],[8.57155,39.0145],[8.57147,39.01451],[8.56663,39.00997],[8.56612,39.00661],[8.56493,39.00149],[8.56495,39.00116],[8.5651,39.00028],[8.56524,38.99961],[8.56615,38.99708],[8.5663,38.99672],[8.56684,38.99564],[8.56713,38.99512],[8.56743,38.99461],[8.56837,38.99323],[8.57187,38.9887],[8.57345,38.98476],[8.57512,38.98052],[8.57803,38.97502],[8.58427,38.9699],[8.58609,38.96783],[8.58923,38.96415],[8.58931,38.96401],[8.58924,38.96374],[8.58901,38.96294],[8.58861,38.96252],[8.58773,38.96238],[8.58561,38.96152],[8.58508,38.96043],[8.58485,38.95993],[8.58484,38.9597],[8.58528,38.95853],[8.58671,38.95576],[8.5868,38.95565],[8.58709,38.95542],[8.59407,38.95735],[8.59617,38.95952],[8.5963,38.96101],[8.59698,38.96164],[8.59802,38.96226],[8.59934,38.96264],[8.6004,38.96277],[8.60337,38.96301],[8.60349,38.96297],[8.60363,38.96294],[8.60485,38.96254],[8.60614,38.96211],[8.60638,38.96203],[8.60668,38.96193],[8.60684,38.96186],[8.60696,38.9618],[8.6073,38.96165],[8.60754,38.96151],[8.60789,38.96132],[8.60909,38.96063],[8.60928,38.96051],[8.60982,38.96015],[8.61049,38.95962],[8.61256,38.95792],[8.61558,38.95423],[8.61647,38.95288],[8.61794,38.95057],[8.61872,38.94926],[8.61903,38.94874],[8.61921,38.94838],[8.61967,38.94748],[8.6199,38.94703],[8.61992,38.94699],[8.62064,38.94551],[8.62142,38.94388],[8.62149,38.94374],[8.62207,38.94208],[8.62231,38.94139],[8.62321,38.93687],[8.62273,38.93413],[8.62049,38.93101],[8.62069,38.92054],[8.61618,38.91529],[8.61207,38.91097],[8.60705,38.9041],[8.60665,38.90143],[8.60664,38.89962],[8.60766,38.89337],[8.61041,38.89111],[8.61658,38.89106],[8.62339,38.89173],[8.62683,38.89315],[8.63264,38.89518],[8.63542,38.89589],[8.63943,38.89585],[8.64226,38.89569],[8.64319,38.89562],[8.64384,38.89551],[8.64432,38.89534],[8.6451,38.89498],[8.64538,38.89481],[8.64609,38.8944],[8.64639,38.89422],[8.6467,38.89395],[8.64708,38.8936],[8.64717,38.8935],[8.64755,38.89305],[8.64768,38.8929],[8.6477,38.89285],[8.648,38.89229],[8.64782,38.89201],[8.64774,38.8919],[8.64771,38.89187],[8.64745,38.8917],[8.64727,38.89157],[8.64713,38.89148],[8.6464,38.89089],[8.64541,38.88959],[8.64399,38.88758],[8.64097,38.88294],[8.64108,38.88108],[8.64136,38.87944],[8.64276,38.8773],[8.64514,38.87625],[8.64558,38.87616],[8.646,38.87614],[8.64663,38.87623],[8.63928,38.86987],[8.63798,38.86926],[8.6378,38.86914],[8.63721,38.86874],[8.63684,38.86826],[8.63679,38.86819],[8.6366,38.86793],[8.6366,38.8679],[8.63662,38.86778],[8.63663,38.86767],[8.63668,38.8674],[8.64011,38.86497],[8.64329,38.86418],[8.64431,38.8641],[8.64544,38.86409],[8.64957,38.86735],[8.65533,38.8685],[8.65799,38.87065],[8.65659,38.87282],[8.65566,38.87674],[8.65583,38.87777],[8.65851,38.88195],[8.65582,38.8831],[8.64919,38.88574],[8.64875,38.88603],[8.64825,38.88687],[8.64821,38.8893],[8.64828,38.88991],[8.64834,38.89035],[8.64835,38.89037],[8.64923,38.89344],[8.64967,38.89489],[8.65178,38.89662],[8.65272,38.89719],[8.65287,38.89726],[8.65344,38.89752],[8.65427,38.8979],[8.65603,38.89828],[8.6561,38.89829],[8.65614,38.89829],[8.65627,38.89827],[8.65632,38.89827],[8.6569,38.89819],[8.65731,38.89813],[8.65791,38.89767],[8.65795,38.89764],[8.65797,38.89762],[8.65801,38.89759],[8.65805,38.89755],[8.65806,38.89751],[8.65812,38.8972],[8.65813,38.89712],[8.66076,38.89482],[8.66455,38.894],[8.66465,38.89401],[8.66512,38.89406],[8.66533,38.8941],[8.66546,38.89413],[8.66559,38.89416],[8.66697,38.89478],[8.66768,38.89511],[8.66896,38.89594],[8.66975,38.89662],[8.67016,38.89706],[8.67021,38.89711],[8.67026,38.89716],[8.67028,38.8972],[8.67076,38.89849],[8.67061,38.899],[8.67047,38.89928],[8.67042,38.89941],[8.67037,38.89951],[8.67028,38.89969],[8.66791,38.90385],[8.66411,38.90892],[8.66412,38.91251],[8.66451,38.91274],[8.66454,38.91275],[8.66463,38.91281],[8.6649,38.91283],[8.66606,38.91292],[8.66635,38.91295],[8.66697,38.91247],[8.66717,38.91233],[8.66783,38.91146],[8.66801,38.91113],[8.66822,38.91076],[8.66863,38.91027],[8.66867,38.91022],[8.66871,38.91018],[8.66878,38.91011],[8.66912,38.90977],[8.66918,38.90971],[8.66925,38.90966],[8.66934,38.90959],[8.66956,38.90942],[8.67008,38.90903],[8.67013,38.909],[8.67152,38.90831],[8.6727,38.90819],[8.67566,38.90827],[8.67776,38.90855],[8.68049,38.9091],[8.68164,38.90935],[8.68184,38.90946],[8.68419,38.91095],[8.68833,38.9145],[8.69833,38.91723],[8.71565,38.92426],[8.71859,38.92613],[8.7205,38.93111],[8.7203,38.9365],[8.73029,38.93223],[8.74145,38.92657],[8.74893,38.92353],[8.75542,38.92053],[8.75995,38.91808],[8.76118,38.91723],[8.76596,38.9159],[8.7712,38.91472],[8.77226,38.91451],[8.77444,38.91427],[8.77447,38.91428],[8.77474,38.91442],[8.77484,38.91454],[8.77494,38.91466],[8.77498,38.91492],[8.77483,38.91538],[8.77381,38.92091],[8.77026,38.92861],[8.77059,38.93065],[8.77228,38.93472],[8.77268,38.93504],[8.7734,38.93559],[8.77359,38.93571],[8.77376,38.93582],[8.77383,38.93584],[8.77437,38.93593],[8.79141,38.93762],[8.79431,38.93719],[8.79676,38.93478],[8.79689,38.91979],[8.79522,38.91538],[8.7945,38.91359],[8.79293,38.91245],[8.79252,38.91224],[8.78609,38.90649],[8.78443,38.90064],[8.78347,38.89817],[8.78676,38.89775],[8.79104,38.89552],[8.79373,38.89389],[8.79522,38.89259],[8.79693,38.89046],[8.79782,38.88841],[8.79863,38.88617],[8.79887,38.88574],[8.80052,38.88412],[8.80178,38.88386],[8.80245,38.88401],[8.8028,38.88428],[8.80296,38.8844],[8.8031,38.88452],[8.80339,38.88475],[8.80341,38.88477],[8.80153,38.88915],[8.79952,38.89242],[8.79944,38.89251],[8.79926,38.89272],[8.79901,38.89308],[8.79889,38.89341],[8.79889,38.89378],[8.79892,38.89472],[8.79893,38.89476],[8.79898,38.8952],[8.7996,38.89729],[8.79989,38.89771],[8.80277,38.89948],[8.80598,38.89966],[8.80614,38.89957],[8.80696,38.89886],[8.80701,38.89842],[8.80938,38.89352],[8.81201,38.89492],[8.8165,38.89513],[8.81674,38.89513],[8.81734,38.89503],[8.81756,38.89498],[8.81771,38.89495],[8.81929,38.89458],[8.82186,38.89325],[8.82783,38.88806],[8.82708,38.88399],[8.82899,38.88122],[8.8346,38.8767],[8.83542,38.87696],[8.83881,38.88039],[8.83967,38.88261],[8.83843,38.88955],[8.83644,38.89338],[8.83466,38.89729],[8.83573,38.90593],[8.83585,38.91428],[8.83298,38.9253],[8.8273,38.9332],[8.82578,38.93635],[8.82561,38.93671],[8.82119,38.94885],[8.82692,38.95397],[8.82726,38.95515],[8.82438,38.96508],[8.82273,38.97948],[8.8221,38.98141],[8.8215,38.98321],[8.81948,38.98906],[8.81723,38.99589],[8.81526,39.00263],[8.81464,39.00496],[8.81563,39.01799],[8.82392,39.03694],[8.82946,39.04295],[8.83189,39.04739],[8.83256,39.04846],[8.8354,39.05298],[8.83974,39.06001],[8.84452,39.06785],[8.8467,39.07159],[8.85251,39.0831],[8.85307,39.08423],[8.85311,39.08453],[8.85105,39.08726],[8.85023,39.08836],[8.84982,39.08922],[8.84962,39.08988],[8.84821,39.09486],[8.84784,39.09676],[8.84872,39.09924],[8.84697,39.10047],[8.84209,39.10541],[8.83738,39.11042],[8.83175,39.11165],[8.8244,39.11666],[8.823,39.11764],[8.82218,39.11858],[8.82222,39.1245],[8.82112,39.12859],[8.82017,39.13015],[8.82044,39.13197],[8.82126,39.13712],[8.82197,39.14116],[8.82359,39.14339],[8.82457,39.14447],[8.82631,39.1468],[8.82632,39.14867],[8.82119,39.1555],[8.81147,39.1653],[8.80525,39.16738],[8.8022,39.16843],[8.79363,39.17137],[8.78654,39.17382],[8.77079,39.17941],[8.76605,39.18614],[8.76531,39.18822],[8.76456,39.18944],[8.76305,39.19199],[8.76026,39.19702],[8.75995,39.19759],[8.75856,39.20023],[8.75821,39.20095],[8.75763,39.20248],[8.75083,39.22351],[8.74926,39.22873],[8.74831,39.23191],[8.74769,39.23151],[8.74636,39.23056],[8.74464,39.22926],[8.74247,39.22761],[8.74046,39.22603],[8.73953,39.22528],[8.73868,39.22458],[8.73809,39.22419],[8.7372,39.22379],[8.73372,39.22228],[8.7321,39.22164],[8.73179,39.22154],[8.7118,39.21728],[8.71128,39.21718],[8.71066,39.21707],[8.70816,39.21752],[8.70494,39.21824],[8.69961,39.21788],[8.69019,39.21619],[8.67672,39.21729],[8.66562,39.21887],[8.65367,39.2184],[8.6513,39.21845],[8.6483,39.21853],[8.64544,39.2187],[8.64497,39.21875],[8.64394,39.21886],[8.64367,39.21894],[8.64331,39.21904],[8.63912,39.22061],[8.6389,39.22094],[8.63899,39.22337],[8.63915,39.22576],[8.6392,39.22636],[8.63747,39.23129],[8.61189,39.22937],[8.60316,39.22903],[8.59995,39.22944],[8.59618,39.22969],[8.59517,39.22966],[8.59429,39.22961],[8.59313,39.22943],[8.59259,39.2293],[8.5921,39.22833],[8.59004,39.22332],[8.58791,39.21809],[8.58553,39.21278],[8.58195,39.21382],[8.5725,39.21333],[8.56906,39.21228],[8.56875,39.21218],[8.56835,39.21223],[8.55247,39.21593],[8.54977,39.21854],[8.54967,39.21883],[8.54955,39.21956],[8.54922,39.22191],[8.54928,39.2224],[8.54935,39.22287],[8.54941,39.22329],[8.54952,39.22354],[8.54964,39.22376],[8.5499,39.22413],[8.54993,39.22416],[8.55074,39.22488],[8.55102,39.22508],[8.55129,39.22514],[8.55168,39.22523],[8.55203,39.22526],[8.55236,39.22525],[8.55505,39.22919],[8.55848,39.23569],[8.56059,39.24088],[8.56153,39.24268],[8.56412,39.24599],[8.5652,39.24682],[8.56545,39.24695],[8.56582,39.24714],[8.56631,39.24735],[8.56677,39.24744],[8.56749,39.24751],[8.568,39.24756],[8.57806,39.25201],[8.57854,39.25234],[8.57909,39.25278],[8.57938,39.25307],[8.58047,39.25448],[8.58068,39.25475],[8.58806,39.26727],[8.58987,39.27293],[8.58973,39.27316],[8.58601,39.2761],[8.58333,39.27822],[8.58184,39.27761],[8.58159,39.27741],[8.58145,39.27707],[8.56905,39.27841],[8.55692,39.28105],[8.55081,39.28287],[8.54812,39.28237],[8.54532,39.27985],[8.54575,39.27295],[8.54422,39.26316],[8.54237,39.26307],[8.54013,39.26385],[8.53765,39.26367],[8.53717,39.26351],[8.53617,39.26278],[8.53361,39.25906],[8.53006,39.25279],[8.52256,39.25472],[8.51935,39.25527],[8.50794,39.25666],[8.50157,39.25939],[8.50143,39.25968],[8.50084,39.26027],[8.50005,39.26051],[8.49737,39.26112],[8.49571,39.26134],[8.49392,39.26048],[8.49511,39.25822],[8.49498,39.25787],[8.49181,39.25568],[8.48994,39.25546],[8.48608,39.25554],[8.48266,39.25565],[8.48197,39.25567],[8.4816,39.25569],[8.48069,39.25574],[8.47455,39.25589],[8.46179,39.25538],[8.45936,39.25295],[8.45748,39.24895],[8.45731,39.24544],[8.45885,39.2395],[8.45992,39.23559],[8.46186,39.23325],[8.46216,39.23312],[8.4627,39.23286],[8.4632,39.23253],[8.4635,39.23234],[8.46375,39.23212],[8.46404,39.23161],[8.46406,39.23156],[8.46528,39.22912],[8.46561,39.2284],[8.46605,39.2258],[8.46633,39.22201],[8.46565,39.22154],[8.4656,39.22151],[8.46451,39.22094],[8.46437,39.22087],[8.45993,39.21885],[8.45161,39.21543],[8.44539,39.21314],[8.44162,39.21177],[8.43839,39.2106],[8.43578,39.20974],[8.43541,39.20961],[8.43441,39.20991],[8.42896,39.21162],[8.4279,39.21195],[8.42668,39.21234],[8.42549,39.21273],[8.42503,39.21288],[8.42414,39.21318],[8.42391,39.2134],[8.42387,39.21347],[8.42364,39.21385],[8.42347,39.21414],[8.42341,39.2143],[8.42326,39.21476],[8.42253,39.21633],[8.42243,39.21654],[8.4222,39.217],[8.42194,39.21754],[8.4216,39.21821],[8.42083,39.21978],[8.41982,39.22177],[8.41534,39.23054],[8.41501,39.2311],[8.41478,39.23149],[8.4139,39.23244],[8.41388,39.23247],[8.41264,39.23371],[8.40495,39.24135],[8.40319,39.24273],[8.3986,39.24548],[8.39439,39.24824],[8.39423,39.24865],[8.39072,39.24606],[8.37487,39.23416],[8.36698,39.22832],[8.36692,39.22742],[8.3686,39.21639],[8.37188,39.20923],[8.37604,39.20607],[8.38171,39.20188],[8.3901,39.19722],[8.39231,39.19971],[8.39447,39.19929],[8.39624,39.19892],[8.3967,39.19832],[8.3994,39.19411],[8.39865,39.1896],[8.40333,39.1741],[8.40645,39.16352],[8.40679,39.1588],[8.41136,39.14951],[8.41394,39.14829],[8.41604,39.1475],[8.41736,39.14785],[8.41491,39.15675],[8.41198,39.16121],[8.41078,39.16192],[8.40955,39.16394],[8.40939,39.16495],[8.40961,39.16642],[8.41076,39.16917],[8.41261,39.17103],[8.414,39.17214],[8.41727,39.1713],[8.42351,39.16643],[8.43405,39.15898],[8.43653,39.1565],[8.43763,39.1536],[8.43817,39.14165],[8.43456,39.13191],[8.43575,39.12544],[8.43693,39.12081],[8.43976,39.11497],[8.44644,39.11735],[8.45752,39.11978],[8.46141,39.12058],[8.46485,39.11954],[8.46604,39.11896],[8.46646,39.11871],[8.46764,39.11776],[8.46851,39.11691],[8.46971,39.11552],[8.47238,39.11222],[8.47532,39.10372],[8.47761,39.09606],[8.48465,39.08636],[8.48772,39.08884],[8.48602,39.08613],[8.48596,39.0848],[8.48792,39.0848],[8.48846,39.08474],[8.48846,39.08466],[8.48842,39.08456],[8.48807,39.08399],[8.48736,39.08293],[8.48682,39.08212],[8.48606,39.08099],[8.48158,39.07495],[8.47904,39.07159],[8.47858,39.06408],[8.47885,39.06254],[8.47875,39.06228],[8.47869,39.06216],[8.47801,39.06095],[8.47799,39.06092],[8.47785,39.06077],[8.47755,39.06053],[8.47744,39.06047],[8.47718,39.06032],[8.47673,39.06006],[8.47639,39.05988],[8.47598,39.05968],[8.47536,39.05939],[8.47523,39.05933],[8.47472,39.05917],[8.47466,39.05915],[8.47457,39.05913],[8.46658,39.05742],[8.46291,39.06086],[8.45976,39.06497],[8.45771,39.07316],[8.45669,39.07825],[8.4569,39.079],[8.45715,39.0811],[8.4571,39.08137],[8.45683,39.08279],[8.45655,39.0836],[8.45649,39.08374],[8.45598,39.08425],[8.45575,39.08446],[8.45459,39.08538],[8.45209,39.08713],[8.45132,39.08762],[8.44203,39.09223],[8.43378,39.0952],[8.43068,39.0978],[8.42812,39.10395],[8.42621,39.10907],[8.42618,39.1091],[8.42543,39.1091],[8.42315,39.1088],[8.42144,39.10789],[8.4194,39.10661],[8.41925,39.10651],[8.41902,39.10638],[8.41752,39.10556],[8.41419,39.10383],[8.4112,39.10231],[8.41024,39.10207],[8.41016,39.10205],[8.4097,39.10198],[8.40744,39.10187],[8.40727,39.10187],[8.40721,39.10187],[8.40623,39.10221],[8.40611,39.1023],[8.40604,39.10235],[8.40524,39.10372],[8.3956,39.10156],[8.39535,39.10147],[8.3952,39.10141],[8.39516,39.1014],[8.39503,39.10135],[8.3948,39.10128],[8.39477,39.10127],[8.39126,39.10035],[8.38766,39.09944],[8.38701,39.09944],[8.38576,39.09943],[8.38038,39.09964],[8.38016,39.09972],[8.37998,39.0998],[8.37983,39.09987],[8.37899,39.10054],[8.37851,39.10096],[8.37838,39.10112],[8.37827,39.10128],[8.37789,39.10185],[8.37788,39.10188],[8.37782,39.10201],[8.37611,39.10655],[8.37362,39.11154],[8.37126,39.11356],[8.36998,39.11407],[8.36206,39.10919],[8.36139,39.1013],[8.35442,39.09851],[8.35075,39.09751],[8.35156,39.09639],[8.35808,39.08755],[8.35096,39.08195],[8.35095,39.082],[8.35093,39.08206],[8.35088,39.08227],[8.35087,39.08231],[8.35086,39.08235],[8.35085,39.08238],[8.35082,39.08246],[8.3508,39.0825],[8.35078,39.08253],[8.35074,39.08257],[8.35063,39.08269],[8.35019,39.08303],[8.34977,39.08298],[8.34977,39.08246],[8.34993,39.07849],[8.35022,39.07587],[8.35131,39.07372],[8.35439,39.06927],[8.35643,39.06566],[8.35652,39.06547],[8.35704,39.06426],[8.35714,39.06389],[8.35975,39.05354],[8.36049,39.05043],[8.36074,39.04432],[8.36249,39.03697],[8.36389,39.0319],[8.36464,39.03011],[8.36705,39.02662],[8.36983,39.02262],[8.37045,39.02174],[8.37063,39.02171],[8.37083,39.02171],[8.37259,39.02234],[8.3734,39.02329]]],[[[8.20825,39.14731],[8.20826,39.1474],[8.20826,39.14747],[8.20813,39.14756],[8.20803,39.1476],[8.20765,39.14765],[8.20745,39.14763],[8.20729,39.1476],[8.20734,39.14752],[8.2076,39.14729],[8.20784,39.14717],[8.20791,39.14715],[8.20801,39.14716],[8.20814,39.14723],[8.20825,39.14731]]],[[[8.24314,39.16687],[8.24303,39.1669],[8.24277,39.16697],[8.24236,39.16686],[8.24159,39.16657],[8.24144,39.16643],[8.24219,39.16611],[8.24236,39.1661],[8.24255,39.1661],[8.24344,39.16652],[8.24349,39.16667],[8.2433,39.1668],[8.24314,39.16687]]],[[[8.26311,39.1751],[8.26307,39.17515],[8.26298,39.17527],[8.26252,39.17578],[8.26244,39.17583],[8.26214,39.1758],[8.26211,39.17579],[8.26215,39.17564],[8.26222,39.17544],[8.2625,39.17518],[8.26274,39.17507],[8.263,39.17495],[8.26306,39.17494],[8.26314,39.17498],[8.26311,39.1751]]],[[[8.31942,39.18517],[8.31973,39.18557],[8.31917,39.1862],[8.31906,39.18629],[8.31888,39.18638],[8.31814,39.18666],[8.31801,39.18653],[8.3179,39.18608],[8.31785,39.1858],[8.31784,39.18573],[8.31862,39.18524],[8.31942,39.18517]]],[[[8.30929,39.18779],[8.30834,39.18766],[8.30697,39.18746],[8.30513,39.18699],[8.30493,39.18691],[8.30471,39.18643],[8.30444,39.18573],[8.30356,39.18436],[8.30287,39.18337],[8.29664,39.17926],[8.29583,39.17918],[8.29507,39.1793],[8.29142,39.17997],[8.28918,39.18102],[8.28185,39.18058],[8.26749,39.17865],[8.26723,39.17804],[8.26521,39.17502],[8.26322,39.17337],[8.25703,39.16968],[8.25326,39.1702],[8.24458,39.16618],[8.2431,39.16485],[8.24212,39.16414],[8.24064,39.16497],[8.23883,39.16608],[8.23676,39.16648],[8.23003,39.16496],[8.22664,39.16093],[8.22574,39.15908],[8.22529,39.15503],[8.2246,39.15323],[8.22095,39.14739],[8.22039,39.14793],[8.22013,39.148],[8.21999,39.14804],[8.21982,39.14798],[8.21978,39.14796],[8.21964,39.14782],[8.21961,39.14779],[8.21961,39.14771],[8.2196,39.14758],[8.22045,39.14575],[8.22067,39.14544],[8.22374,39.14291],[8.2261,39.14152],[8.23005,39.14197],[8.23272,39.14278],[8.23994,39.14062],[8.24735,39.13514],[8.25057,39.13259],[8.2521,39.12928],[8.25219,39.12907],[8.25219,39.12881],[8.25196,39.12794],[8.25102,39.12692],[8.249,39.12585],[8.25348,39.12],[8.25494,39.11504],[8.25118,39.1138],[8.24727,39.11077],[8.24749,39.10983],[8.24774,39.10892],[8.24784,39.10867],[8.24791,39.10848],[8.25522,39.1039],[8.27934,39.09586],[8.28975,39.09559],[8.29726,39.09695],[8.30611,39.10298],[8.30967,39.11125],[8.3101,39.11256],[8.31014,39.11277],[8.31017,39.11293],[8.31018,39.11306],[8.31018,39.11317],[8.31,39.11596],[8.30934,39.12279],[8.30795,39.12888],[8.31278,39.13942],[8.31221,39.1394],[8.3117,39.13943],[8.31118,39.13956],[8.31084,39.13966],[8.30955,39.14053],[8.30942,39.14062],[8.30928,39.14076],[8.30795,39.14353],[8.30797,39.14436],[8.30814,39.1454],[8.30866,39.14622],[8.31015,39.14664],[8.31114,39.14754],[8.3114,39.14881],[8.30961,39.15417],[8.30637,39.16313],[8.30784,39.17248],[8.30982,39.18686],[8.30979,39.1871],[8.30977,39.18737],[8.30958,39.18755],[8.30943,39.18768],[8.30929,39.18779]]],[[[8.32475,39.1917],[8.32058,39.19463],[8.31995,39.19538],[8.31969,39.19539],[8.31906,39.19478],[8.31882,39.1945],[8.31729,39.19161],[8.31715,39.19047],[8.31762,39.19012],[8.3189,39.18931],[8.32027,39.18902],[8.32034,39.18902],[8.32474,39.19017],[8.32475,39.1917]]],[[[8.36956,39.19959],[8.3696,39.20015],[8.36956,39.20019],[8.36925,39.20018],[8.36907,39.20013],[8.36865,39.19994],[8.3687,39.19972],[8.36921,39.19945],[8.36935,39.19943],[8.36957,39.19949],[8.36956,39.19959]]],[[[8.35669,39.22596],[8.35683,39.22598],[8.35699,39.22608],[8.35712,39.22615],[8.35704,39.22631],[8.35648,39.22712],[8.35619,39.22723],[8.35603,39.22704],[8.35601,39.22702],[8.35598,39.22698],[8.35606,39.22645],[8.3561,39.22629],[8.35612,39.22622],[8.35618,39.22612],[8.35619,39.22609],[8.35632,39.22602],[8.35652,39.22592],[8.35669,39.22596]]],[[[8.35578,39.22734],[8.35582,39.22743],[8.35589,39.22761],[8.3556,39.22846],[8.35549,39.2285],[8.35536,39.22854],[8.35529,39.22856],[8.35523,39.22842],[8.35518,39.22831],[8.35524,39.22777],[8.35527,39.22764],[8.35532,39.2275],[8.35541,39.22746],[8.35554,39.22739],[8.35576,39.22729],[8.35578,39.22734]]],[[[8.41041,38.86317],[8.40976,38.8633],[8.4093,38.86338],[8.40893,38.86342],[8.40833,38.86335],[8.40825,38.86311],[8.40783,38.86099],[8.40824,38.85979],[8.40832,38.85959],[8.40851,38.85919],[8.40891,38.85925],[8.41026,38.85949],[8.41113,38.85993],[8.41196,38.86038],[8.41215,38.86064],[8.41239,38.86127],[8.4124,38.86146],[8.4124,38.86154],[8.41218,38.86209],[8.41203,38.86234],[8.41104,38.86302],[8.41041,38.86317]]],[[[8.44962,38.93449],[8.45085,38.93552],[8.45162,38.93624],[8.45161,38.93661],[8.45145,38.93748],[8.45133,38.93774],[8.45124,38.93793],[8.45045,38.93933],[8.45021,38.9394],[8.44958,38.93942],[8.44934,38.93915],[8.44813,38.93631],[8.44806,38.93598],[8.4481,38.93531],[8.44814,38.93507],[8.44923,38.93454],[8.44959,38.93447],[8.44962,38.93449]]],[[[8.45015,38.94077],[8.45023,38.94079],[8.45084,38.94127],[8.45097,38.94144],[8.45099,38.94176],[8.45089,38.94201],[8.45068,38.9421],[8.4505,38.94208],[8.45029,38.942],[8.45002,38.94172],[8.44984,38.94143],[8.44978,38.94115],[8.4498,38.94095],[8.44981,38.94089],[8.44997,38.94072],[8.45015,38.94077]]],[[[8.463,39.08132],[8.46386,39.08217],[8.46386,39.08228],[8.46373,39.08238],[8.46364,39.0824],[8.4635,39.08241],[8.46344,39.08237],[8.46334,39.08229],[8.4632,39.08217],[8.4631,39.08206],[8.46292,39.08178],[8.46279,39.08139],[8.46287,39.08132],[8.463,39.08132]]],[[[8.43784,39.10505],[8.43838,39.1055],[8.43835,39.10556],[8.43819,39.10568],[8.43803,39.10575],[8.43788,39.1058],[8.43772,39.10583],[8.43759,39.1058],[8.43749,39.10575],[8.43725,39.10557],[8.43717,39.10547],[8.43705,39.1052],[8.43709,39.10508],[8.43719,39.10497],[8.43732,39.10493],[8.43741,39.10493],[8.43784,39.10505]]],[[[8.8254,38.88164],[8.82531,38.88174],[8.82521,38.88183],[8.8249,38.88174],[8.82488,38.88167],[8.82495,38.88163],[8.82472,38.88143],[8.82455,38.88133],[8.82445,38.8812],[8.82444,38.88106],[8.82479,38.88103],[8.82537,38.8812],[8.82548,38.88128],[8.82553,38.88132],[8.82556,38.88152],[8.8254,38.88164]]],[[[8.82761,38.882],[8.82756,38.88204],[8.82741,38.88211],[8.82728,38.88212],[8.82671,38.88209],[8.82648,38.88206],[8.82635,38.88202],[8.82627,38.8819],[8.8262,38.88178],[8.82621,38.88167],[8.82631,38.88157],[8.82731,38.88136],[8.82751,38.88144],[8.82781,38.88163],[8.82782,38.88174],[8.82782,38.88181],[8.8278,38.88186],[8.82768,38.88195],[8.82761,38.882]]],[[[8.81378,38.89073],[8.81441,38.89244],[8.81418,38.89273],[8.81379,38.89298],[8.81361,38.8931],[8.81317,38.89293],[8.81266,38.89265],[8.81259,38.89259],[8.81247,38.89246],[8.81238,38.89226],[8.81228,38.89186],[8.81178,38.88995],[8.81176,38.88971],[8.81225,38.88956],[8.81318,38.88991],[8.81378,38.89073]]],[[[8.76582,38.91408],[8.76592,38.91413],[8.76602,38.91452],[8.766,38.91477],[8.76582,38.91488],[8.76572,38.91494],[8.7652,38.91467],[8.76497,38.91452],[8.76489,38.91447],[8.76491,38.91418],[8.765,38.91399],[8.76564,38.91398],[8.76582,38.91408]]],[[[8.71879,38.91581],[8.71829,38.91627],[8.71795,38.91626],[8.71774,38.91625],[8.71628,38.9162],[8.71622,38.91618],[8.71564,38.91605],[8.71535,38.91598],[8.71507,38.91553],[8.71424,38.91404],[8.71424,38.91396],[8.71424,38.91373],[8.71437,38.91339],[8.71449,38.91307],[8.71502,38.91249],[8.71526,38.91233],[8.71625,38.91221],[8.71686,38.9127],[8.71912,38.91524],[8.7191,38.91528],[8.71909,38.91532],[8.719,38.91553],[8.71882,38.91577],[8.71879,38.91581]]]]}},{"type":"Feature","properties":{"name":"vernaccia-di-oristano","comuni_count":17},"geometry":{"type":"MultiPolygon","coordinates":[[[[8.27593,39.88228],[8.27572,39.88249],[8.27538,39.88235],[8.27508,39.88208],[8.275,39.8819],[8.27496,39.88181],[8.27507,39.88147],[8.27573,39.88126],[8.27615,39.88134],[8.27621,39.88142],[8.27635,39.88162],[8.27634,39.88192],[8.27631,39.88219],[8.27593,39.88228]]],[[[8.53997,39.88453],[8.54037,39.88353],[8.54195,39.88037],[8.5445,39.87485],[8.54323,39.87349],[8.53982,39.8698],[8.53975,39.86916],[8.53994,39.86898],[8.54012,39.8688],[8.54424,39.86601],[8.55201,39.86398],[8.564,39.86488],[8.56949,39.86374],[8.56555,39.86013],[8.55734,39.86167],[8.55696,39.86185],[8.55685,39.86191],[8.55613,39.86224],[8.55608,39.86226],[8.55511,39.86215],[8.55292,39.86188],[8.54582,39.86034],[8.55266,39.86092],[8.55282,39.86061],[8.55289,39.86047],[8.55305,39.86017],[8.55327,39.85957],[8.55359,39.85875],[8.55384,39.85777],[8.55478,39.85417],[8.55509,39.85282],[8.55539,39.85145],[8.55543,39.85102],[8.55547,39.85057],[8.55554,39.84978],[8.55554,39.84859],[8.55553,39.84831],[8.55548,39.84733],[8.55476,39.83876],[8.55466,39.83787],[8.55459,39.8373],[8.55416,39.83479],[8.55402,39.83406],[8.55291,39.82942],[8.55323,39.82959],[8.55373,39.82984],[8.55414,39.83004],[8.55469,39.83021],[8.55942,39.83077],[8.5596,39.83076],[8.56006,39.83074],[8.56114,39.83069],[8.56345,39.83042],[8.56636,39.82933],[8.56764,39.82881],[8.56831,39.82852],[8.56993,39.82781],[8.57128,39.8272],[8.57678,39.82677],[8.58433,39.82633],[8.58767,39.82622],[8.59122,39.82732],[8.59812,39.82898],[8.59856,39.82908],[8.59905,39.8292],[8.59915,39.82922],[8.59971,39.82924],[8.60315,39.82931],[8.61511,39.82899],[8.62292,39.82541],[8.63277,39.82098],[8.63553,39.81999],[8.63841,39.82021],[8.64595,39.82088],[8.67174,39.81902],[8.67335,39.81869],[8.68288,39.81637],[8.68511,39.81559],[8.68624,39.81511],[8.6899,39.81312],[8.6942,39.81073],[8.70162,39.80647],[8.70199,39.80625],[8.70374,39.80529],[8.70391,39.80522],[8.70529,39.80464],[8.72045,39.801],[8.73351,39.79922],[8.74168,39.79824],[8.7463,39.80678],[8.75533,39.82129],[8.75467,39.82699],[8.74104,39.83408],[8.73812,39.8363],[8.73711,39.84031],[8.73556,39.84548],[8.73441,39.84892],[8.73281,39.85106],[8.73151,39.85218],[8.7311,39.85237],[8.7302,39.85291],[8.72919,39.85363],[8.72902,39.85404],[8.72883,39.8549],[8.72875,39.85583],[8.72883,39.8565],[8.7297,39.85922],[8.72845,39.87094],[8.72664,39.87808],[8.72435,39.87866],[8.72398,39.87875],[8.71578,39.88085],[8.71732,39.88317],[8.72215,39.88967],[8.72198,39.8899],[8.71674,39.89652],[8.71638,39.89702],[8.71592,39.8977],[8.71541,39.89879],[8.7154,39.899],[8.71538,39.89927],[8.71535,39.89972],[8.71534,39.89985],[8.71562,39.90097],[8.71588,39.90185],[8.71603,39.90236],[8.71684,39.90382],[8.71733,39.90435],[8.7177,39.90463],[8.71798,39.90485],[8.73113,39.9138],[8.73731,39.91724],[8.73852,39.91729],[8.7391,39.91749],[8.74212,39.91977],[8.7426,39.92036],[8.74176,39.92338],[8.74148,39.92428],[8.73765,39.92674],[8.73653,39.92906],[8.74502,39.93563],[8.74537,39.93589],[8.74718,39.93821],[8.75692,39.94627],[8.77261,39.94517],[8.77605,39.945],[8.77697,39.94507],[8.77748,39.94521],[8.77861,39.94583],[8.78088,39.9472],[8.78713,39.95202],[8.79292,39.95646],[8.79677,39.95797],[8.79788,39.9583],[8.79754,39.95874],[8.79738,39.95894],[8.79714,39.95925],[8.7971,39.9593],[8.79689,39.95956],[8.79527,39.96155],[8.79454,39.962],[8.79077,39.96365],[8.79011,39.96536],[8.7891,39.96723],[8.78865,39.9714],[8.7866,39.97979],[8.78298,39.98884],[8.78245,39.98904],[8.77999,39.98866],[8.77948,39.98857],[8.77375,39.98742],[8.77192,39.98698],[8.77159,39.98674],[8.759,39.97582],[8.75504,39.97233],[8.75171,39.96942],[8.74954,39.96796],[8.74901,39.9678],[8.7486,39.96776],[8.74359,39.96761],[8.74337,39.96763],[8.74311,39.96767],[8.74283,39.9677],[8.74145,39.96806],[8.74087,39.9684],[8.73941,39.97065],[8.7388,39.97183],[8.73753,39.97437],[8.73739,39.975],[8.73744,39.97581],[8.7376,39.97635],[8.73767,39.97654],[8.73792,39.97722],[8.73795,39.97726],[8.73827,39.97781],[8.7388,39.9784],[8.73969,39.9792],[8.74087,39.98056],[8.7411,39.98102],[8.74142,39.98173],[8.74299,39.98653],[8.743,39.98712],[8.74301,39.98773],[8.74186,39.99218],[8.73995,39.99572],[8.73833,39.99726],[8.73749,39.9986],[8.73601,40.00114],[8.73587,40.00145],[8.73578,40.00186],[8.73688,40.00573],[8.73793,40.00814],[8.73822,40.00838],[8.73855,40.00858],[8.73894,40.00879],[8.74219,40.01049],[8.74363,40.01091],[8.74387,40.01094],[8.74416,40.01097],[8.7456,40.01103],[8.74608,40.01101],[8.74694,40.01094],[8.75153,40.01245],[8.75913,40.01504],[8.75942,40.01518],[8.75966,40.01557],[8.75956,40.01639],[8.75945,40.01687],[8.75874,40.01722],[8.75515,40.01736],[8.75233,40.01727],[8.74805,40.01642],[8.74798,40.0164],[8.7473,40.0162],[8.74678,40.01594],[8.74657,40.0157],[8.74638,40.01534],[8.74591,40.01501],[8.74386,40.01394],[8.74356,40.01381],[8.74274,40.01346],[8.74269,40.01345],[8.74199,40.0132],[8.74191,40.01317],[8.73785,40.01209],[8.73709,40.01189],[8.73542,40.01172],[8.7337,40.0119],[8.73361,40.01192],[8.7326,40.01209],[8.72924,40.01315],[8.71611,40.01903],[8.71168,40.02124],[8.71034,40.02014],[8.71014,40.01989],[8.70999,40.01949],[8.70999,40.01913],[8.71046,40.01542],[8.71081,40.01387],[8.71206,40.01202],[8.71224,40.01072],[8.70992,40.00569],[8.70913,40.00411],[8.70849,40.00302],[8.70697,40.00226],[8.70531,40.00151],[8.70339,40.00101],[8.70233,40.00074],[8.68644,39.99739],[8.68222,39.99726],[8.67432,39.99482],[8.67299,39.99402],[8.67115,39.99671],[8.66808,40.00365],[8.65904,40.01472],[8.65283,40.02235],[8.65273,40.02268],[8.65143,40.02465],[8.65015,40.02637],[8.64946,40.0273],[8.649,40.02729],[8.64815,40.02719],[8.65086,40.03195],[8.65541,40.03625],[8.67091,40.05202],[8.67149,40.05238],[8.67242,40.0532],[8.67318,40.05406],[8.6738,40.05479],[8.67403,40.05512],[8.67444,40.05573],[8.67509,40.05717],[8.67534,40.05798],[8.67544,40.05847],[8.67704,40.06037],[8.67708,40.06045],[8.67734,40.06089],[8.67766,40.06164],[8.67764,40.0618],[8.67763,40.06191],[8.67726,40.06294],[8.67616,40.0645],[8.67515,40.06531],[8.67397,40.0646],[8.67196,40.06354],[8.67154,40.06341],[8.66984,40.06327],[8.66613,40.06338],[8.65549,40.06798],[8.65389,40.07117],[8.65097,40.0715],[8.63381,40.06627],[8.63098,40.06512],[8.6254,40.06187],[8.6143,40.056],[8.60934,40.0487],[8.60598,40.04095],[8.60142,40.03974],[8.60109,40.04033],[8.59704,40.04716],[8.59298,40.05543],[8.59057,40.0613],[8.58605,40.06518],[8.58099,40.06891],[8.57531,40.07304],[8.56765,40.07284],[8.55442,40.06775],[8.54077,40.0635],[8.52715,40.05785],[8.52188,40.05431],[8.52166,40.05457],[8.51963,40.0584],[8.51932,40.05901],[8.51977,40.06104],[8.51852,40.06357],[8.51815,40.06334],[8.51808,40.0633],[8.51773,40.06315],[8.51727,40.063],[8.51693,40.06297],[8.51609,40.0629],[8.51563,40.06293],[8.50607,40.06425],[8.49892,40.06667],[8.49383,40.06944],[8.48991,40.07147],[8.48635,40.07325],[8.48329,40.07444],[8.46938,40.06227],[8.4604,40.05502],[8.46006,40.05477],[8.45984,40.05461],[8.45662,40.05241],[8.45481,40.05139],[8.4537,40.05081],[8.45365,40.05079],[8.45162,40.05007],[8.44429,40.0478],[8.44357,40.04772],[8.44302,40.04787],[8.44182,40.04832],[8.44162,40.04841],[8.44145,40.0485],[8.44138,40.04855],[8.44071,40.04966],[8.44031,40.05118],[8.44022,40.05135],[8.43793,40.05233],[8.43482,40.05158],[8.43326,40.0505],[8.42707,40.04543],[8.4269,40.04507],[8.42625,40.0446],[8.42615,40.04456],[8.42594,40.04447],[8.42321,40.04349],[8.4203,40.04251],[8.41972,40.04231],[8.41913,40.04219],[8.41796,40.04194],[8.41474,40.04132],[8.41414,40.04128],[8.41242,40.0412],[8.41023,40.04171],[8.40849,40.04253],[8.4082,40.04272],[8.40799,40.04285],[8.4074,40.04323],[8.40697,40.04351],[8.40681,40.04406],[8.40515,40.04798],[8.40345,40.05113],[8.40258,40.0518],[8.39912,40.05127],[8.39908,40.05123],[8.39827,40.05044],[8.39893,40.04878],[8.39915,40.04845],[8.3991,40.04627],[8.39715,40.04449],[8.39712,40.04446],[8.39684,40.04422],[8.39657,40.04398],[8.39602,40.04378],[8.3924,40.04264],[8.38908,40.0438],[8.38398,40.04208],[8.37989,40.03918],[8.37724,40.03573],[8.377,40.03478],[8.37734,40.03355],[8.37839,40.03012],[8.38093,40.02962],[8.38585,40.02954],[8.39169,40.02957],[8.39462,40.03053],[8.39506,40.03161],[8.3952,40.03173],[8.39715,40.03275],[8.3987,40.0329],[8.39946,40.03297],[8.39993,40.03302],[8.40188,40.03253],[8.40457,40.03097],[8.40599,40.02978],[8.40611,40.02964],[8.40666,40.02898],[8.4131,40.01981],[8.41384,40.01786],[8.41406,40.01707],[8.41408,40.017],[8.41412,40.0164],[8.41405,40.0145],[8.41391,40.01377],[8.41335,40.01211],[8.41258,40.01127],[8.41196,40.01072],[8.41081,40.01061],[8.41046,40.00924],[8.41007,40.00577],[8.41001,40.00464],[8.4105,40.00258],[8.4105,39.99903],[8.40955,39.99781],[8.40545,39.9934],[8.40181,39.98934],[8.39389,39.97991],[8.39338,39.97292],[8.39379,39.9729],[8.39514,39.97237],[8.39569,39.97215],[8.39631,39.97174],[8.39642,39.97166],[8.3969,39.97114],[8.3974,39.97058],[8.39765,39.97032],[8.39858,39.96834],[8.39869,39.96811],[8.39949,39.96564],[8.40024,39.96249],[8.40064,39.96069],[8.4011,39.95844],[8.40136,39.95699],[8.40126,39.94111],[8.40074,39.93406],[8.39931,39.91699],[8.39821,39.91013],[8.39789,39.90819],[8.39881,39.90374],[8.3995,39.90212],[8.39978,39.90146],[8.40015,39.90077],[8.40038,39.90035],[8.4011,39.89943],[8.4015,39.89895],[8.40199,39.89858],[8.40209,39.89853],[8.40214,39.89851],[8.40372,39.89885],[8.40523,39.8994],[8.41181,39.90003],[8.42043,39.89589],[8.42322,39.89427],[8.43106,39.88821],[8.43209,39.88701],[8.43212,39.88697],[8.43273,39.88619],[8.43611,39.88158],[8.43804,39.87729],[8.43807,39.87719],[8.4381,39.87709],[8.43839,39.87612],[8.43847,39.87574],[8.43857,39.87529],[8.43866,39.87101],[8.43853,39.86862],[8.43853,39.86858],[8.43852,39.86853],[8.43835,39.86763],[8.43834,39.86759],[8.43815,39.86744],[8.43781,39.86717],[8.43438,39.86581],[8.43431,39.86583],[8.43407,39.86579],[8.4332,39.86564],[8.43233,39.86518],[8.43184,39.86264],[8.43175,39.8622],[8.43189,39.86174],[8.43205,39.86121],[8.43215,39.86089],[8.43246,39.86039],[8.43253,39.86027],[8.43478,39.85837],[8.43524,39.85809],[8.4355,39.85797],[8.43645,39.85806],[8.4365,39.85811],[8.43679,39.85837],[8.43732,39.8592],[8.43935,39.86402],[8.4414,39.87288],[8.44137,39.87916],[8.4415,39.87936],[8.4418,39.87981],[8.44193,39.88002],[8.44425,39.88252],[8.44668,39.88442],[8.45504,39.89065],[8.46909,39.90147],[8.46762,39.9011],[8.46728,39.90123],[8.46628,39.90188],[8.46646,39.90362],[8.46652,39.90366],[8.46665,39.90376],[8.46746,39.90405],[8.46795,39.90416],[8.46811,39.90417],[8.4823,39.90423],[8.48858,39.9066],[8.49186,39.90962],[8.49412,39.90862],[8.49104,39.90588],[8.49013,39.90436],[8.48919,39.90243],[8.48971,39.9021],[8.4895,39.90238],[8.49022,39.90383],[8.49049,39.90436],[8.49096,39.90526],[8.49105,39.90541],[8.49808,39.90668],[8.50568,39.90786],[8.50873,39.90759],[8.5088,39.90758],[8.51323,39.90656],[8.518,39.90489],[8.52403,39.90236],[8.52967,39.89886],[8.53144,39.89735],[8.53174,39.89707],[8.53471,39.89433],[8.53772,39.89143],[8.53946,39.88845],[8.53997,39.88453]]],[[[8.31183,39.99674],[8.31117,39.99614],[8.31084,39.99571],[8.31062,39.99492],[8.30572,39.99412],[8.30034,39.99211],[8.29977,39.98496],[8.30243,39.98408],[8.3109,39.98918],[8.31212,39.99022],[8.31345,39.99635],[8.31302,39.99649],[8.31213,39.99669],[8.31183,39.99674]]],[[[8.40379,40.05326],[8.40405,40.05327],[8.40416,40.0533],[8.40419,40.05333],[8.40421,40.05336],[8.4043,40.05364],[8.40427,40.05378],[8.40426,40.05383],[8.40423,40.0539],[8.40411,40.05399],[8.4036,40.05429],[8.40357,40.0543],[8.40354,40.05432],[8.4035,40.05433],[8.40345,40.05435],[8.4034,40.05436],[8.40329,40.0544],[8.4031,40.05439],[8.40305,40.05431],[8.40287,40.05372],[8.40286,40.05365],[8.40288,40.05361],[8.40327,40.05335],[8.40348,40.05326],[8.40361,40.05325],[8.40379,40.05326]]]]}}]}