{"type":"FeatureCollection","_provenance":{"source":"ISTAT comune boundaries (openpolis/geojson-italy) dissolved per official MASAF disciplinare comune lists","authority":"ISTAT (comune geometry) — comune membership per MASAF disciplinari di produzione","download":"https://github.com/openpolis/geojson-italy (limits_IT_municipalities.geojson)","licence":"CC BY 4.0","attribution":"ISTAT","crs":"EPSG:4326","method":"comune-union (dissolve) — comune-level approximation, not parcel-level; interior rings dropped","retrieved":"2026-08-14","note":"Sicily has no official delimited-zone GIS; footprints built from disciplinare comune lists. Etna=20 comuni (Catania); Cerasuolo di Vittoria DOCG=14 comuni (Ragusa/Catania/Caltanissetta); Marsala=Trapani province minus Pantelleria/Favignana/Alcamo."},"features":[{"type":"Feature","properties":{"key":"etna","name":"Etna"},"geometry":{"type":"MultiPolygon","coordinates":[[[[14.82904,37.58892],[14.82561,37.58696],[14.81123,37.58179],[14.80553,37.57691],[14.797,37.56899],[14.79692,37.56891],[14.79659,37.56858],[14.79629,37.56828],[14.79624,37.56823],[14.79484,37.56677],[14.79105,37.56177],[14.791,37.56167],[14.79085,37.56134],[14.79071,37.5607],[14.79066,37.56021],[14.79071,37.55977],[14.79105,37.55941],[14.79133,37.55925],[14.79149,37.55915],[14.79192,37.55906],[14.79196,37.55909],[14.79906,37.55613],[14.80105,37.55526],[14.80143,37.55492],[14.80166,37.55445],[14.80165,37.55393],[14.79949,37.53542],[14.79913,37.53263],[14.79728,37.53188],[14.79548,37.53148],[14.79355,37.53052],[14.7917,37.52856],[14.79119,37.52799],[14.79118,37.52794],[14.7911,37.52753],[14.79104,37.52721],[14.79106,37.52704],[14.79112,37.52659],[14.79116,37.52625],[14.794,37.51867],[14.79382,37.51456],[14.79249,37.51021],[14.79164,37.50815],[14.79125,37.50739],[14.79099,37.50697],[14.79084,37.5068],[14.79052,37.50645],[14.78656,37.50368],[14.78451,37.50242],[14.78158,37.50321],[14.77902,37.49971],[14.78025,37.49831],[14.78248,37.49592],[14.78238,37.49519],[14.78233,37.49232],[14.78237,37.49212],[14.78243,37.49177],[14.78268,37.49133],[14.78273,37.49125],[14.78315,37.49079],[14.79405,37.48604],[14.80624,37.48928],[14.81868,37.48268],[14.82729,37.47662],[14.83556,37.46553],[14.83761,37.46039],[14.83845,37.45824],[14.84003,37.45343],[14.84013,37.45309],[14.84014,37.45306],[14.84021,37.45266],[14.8376,37.44497],[14.83734,37.44049],[14.84072,37.43247],[14.84434,37.42451],[14.84431,37.41963],[14.84397,37.41816],[14.84315,37.41517],[14.8424,37.41365],[14.84217,37.41332],[14.84211,37.41316],[14.84201,37.41292],[14.84192,37.41148],[14.84218,37.41102],[14.84351,37.40963],[14.8485,37.40632],[14.84899,37.40618],[14.84916,37.40613],[14.84945,37.40609],[14.84984,37.40604],[14.85153,37.40602],[14.85209,37.40602],[14.85228,37.40602],[14.85301,37.40604],[14.85317,37.40606],[14.85401,37.40617],[14.85465,37.4063],[14.85548,37.40649],[14.858,37.40688],[14.86286,37.4076],[14.87016,37.40836],[14.87337,37.40869],[14.87393,37.40861],[14.8745,37.40821],[14.87511,37.40773],[14.87568,37.40718],[14.87577,37.40708],[14.87596,37.40687],[14.87598,37.40684],[14.8761,37.40671],[14.87639,37.40635],[14.8802,37.40634],[14.88553,37.40726],[14.88751,37.40775],[14.89179,37.41],[14.89272,37.41026],[14.89366,37.4103],[14.89783,37.41041],[14.91262,37.41203],[14.92577,37.41064],[14.92802,37.40969],[14.92866,37.40943],[14.92961,37.40906],[14.93066,37.40876],[14.93177,37.4085],[14.93275,37.40839],[14.93377,37.40833],[14.93385,37.40832],[14.93583,37.40836],[14.93702,37.41076],[14.9388,37.41426],[14.93916,37.41491],[14.93948,37.41546],[14.94143,37.41863],[14.94462,37.42263],[14.94709,37.42557],[14.94827,37.4269],[14.94926,37.42828],[14.94951,37.42885],[14.94965,37.42936],[14.94976,37.42974],[14.94979,37.42984],[14.94996,37.43056],[14.94997,37.43127],[14.94993,37.43232],[14.94919,37.43824],[14.94852,37.43962],[14.94835,37.43981],[14.94779,37.43931],[14.94766,37.43912],[14.94763,37.43907],[14.9476,37.43904],[14.94755,37.43895],[14.94682,37.43633],[14.93727,37.4314],[14.93465,37.43196],[14.93418,37.43275],[14.934,37.43354],[14.93376,37.43703],[14.93369,37.43837],[14.93401,37.44086],[14.93406,37.44107],[14.93412,37.44137],[14.93435,37.44197],[14.93462,37.44247],[14.93532,37.44285],[14.9357,37.44291],[14.93592,37.44294],[14.93595,37.44294],[14.93678,37.44302],[14.93736,37.44297],[14.93761,37.44295],[14.93773,37.44288],[14.93789,37.44277],[14.93811,37.44261],[14.93862,37.44227],[14.9392,37.44197],[14.9398,37.44172],[14.94032,37.44151],[14.94091,37.44133],[14.94467,37.44058],[14.94676,37.44036],[14.94867,37.44724],[14.9443,37.44983],[14.94369,37.45001],[14.94216,37.45119],[14.9418,37.45156],[14.94137,37.4526],[14.93847,37.46053],[14.93961,37.46483],[14.94208,37.47546],[14.93919,37.48503],[14.93897,37.49634],[14.939,37.49841],[14.94125,37.50307],[14.94465,37.50754],[14.94532,37.51717],[14.94816,37.5254],[14.94931,37.52701],[14.95034,37.5281],[14.95273,37.53005],[14.95276,37.53008],[14.95309,37.53032],[14.9541,37.53104],[14.95439,37.53123],[14.95479,37.53134],[14.95491,37.53137],[14.95531,37.53128],[14.96081,37.53244],[14.97646,37.53577],[14.98646,37.53428],[14.98678,37.5375],[14.98864,37.5433],[14.99183,37.54687],[14.99224,37.54742],[14.99228,37.54748],[14.99554,37.55423],[14.99706,37.55744],[14.99946,37.56313],[15.00419,37.57387],[15.00837,37.57634],[15.01017,37.57726],[15.01691,37.58104],[15.01705,37.58295],[15.01768,37.58817],[15.01748,37.59407],[15.01738,37.59697],[15.01821,37.59973],[15.02189,37.60847],[15.03164,37.61329],[15.03271,37.61353],[15.03427,37.61405],[15.03502,37.61458],[15.03547,37.61506],[15.03554,37.61513],[15.03564,37.61524],[15.03703,37.61757],[15.04027,37.6135],[15.04339,37.60849],[15.04854,37.60224],[15.05113,37.6007],[15.0599,37.59877],[15.06068,37.59862],[15.06309,37.5982],[15.06369,37.59819],[15.07662,37.59181],[15.07725,37.59648],[15.08667,37.60026],[15.10414,37.59094],[15.10505,37.59198],[15.10464,37.59296],[15.0997,37.59729],[15.10625,37.60508],[15.10737,37.60662],[15.11504,37.5939],[15.13005,37.59478],[15.13336,37.60112],[15.13589,37.60542],[15.13739,37.6086],[15.13744,37.60876],[15.13757,37.60927],[15.13777,37.6109],[15.13779,37.6111],[15.13781,37.61135],[15.13785,37.61171],[15.13778,37.61336],[15.13777,37.61342],[15.13758,37.6142],[15.1373,37.6148],[15.13728,37.61485],[15.13694,37.61527],[15.13677,37.61547],[15.13648,37.61572],[15.13632,37.61585],[15.13603,37.61595],[15.13579,37.61603],[15.13548,37.61613],[15.13473,37.61622],[15.13427,37.61625],[15.13413,37.61625],[15.13386,37.61627],[15.13319,37.61651],[15.13297,37.61663],[15.13282,37.6167],[15.133,37.61727],[15.13318,37.6178],[15.1332,37.61788],[15.1355,37.61951],[15.13592,37.6198],[15.13604,37.61987],[15.1363,37.62002],[15.13663,37.62021],[15.13726,37.62047],[15.1381,37.61964],[15.13964,37.61762],[15.14232,37.61157],[15.14301,37.60899],[15.14712,37.59584],[15.15422,37.58058],[15.15858,37.57899],[15.15862,37.57901],[15.15932,37.5795],[15.15943,37.57954],[15.16001,37.57977],[15.16023,37.57985],[15.16058,37.57998],[15.16069,37.58001],[15.16157,37.5802],[15.16189,37.58024],[15.16283,37.58035],[15.16314,37.58022],[15.16336,37.58012],[15.16341,37.58011],[15.16345,37.58009],[15.16641,37.57846],[15.16646,37.57842],[15.16704,37.57798],[15.16714,37.5779],[15.1672,37.57783],[15.16755,37.57739],[15.16974,37.57438],[15.17462,37.57434],[15.17679,37.57578],[15.17696,37.57594],[15.17714,37.57626],[15.17723,37.57657],[15.17745,37.5806],[15.17727,37.58408],[15.177,37.58488],[15.17674,37.58557],[15.17403,37.59403],[15.17372,37.59691],[15.17262,37.60806],[15.17252,37.60908],[15.17244,37.61012],[15.17259,37.61117],[15.1727,37.61166],[15.1742,37.61797],[15.17601,37.6287],[15.17472,37.63276],[15.17675,37.63557],[15.17883,37.6376],[15.1816,37.63895],[15.19432,37.64912],[15.1989,37.65398],[15.19919,37.65434],[15.19958,37.6552],[15.19969,37.65547],[15.19974,37.65561],[15.19988,37.65646],[15.1999,37.65667],[15.1998,37.65711],[15.19804,37.65933],[15.19712,37.66022],[15.19645,37.66186],[15.19616,37.66274],[15.19633,37.66443],[15.19645,37.6652],[15.19947,37.67183],[15.19638,37.67168],[15.1791,37.67625],[15.17235,37.67861],[15.17218,37.6798],[15.17316,37.68219],[15.17322,37.68224],[15.17335,37.68236],[15.17425,37.68312],[15.17473,37.68323],[15.1766,37.68339],[15.18522,37.6849],[15.19826,37.69771],[15.19875,37.69839],[15.19899,37.69874],[15.19914,37.69896],[15.19919,37.69903],[15.20045,37.70169],[15.1996,37.70179],[15.18542,37.69863],[15.18138,37.69725],[15.18091,37.6966],[15.18027,37.69598],[15.17951,37.69531],[15.17795,37.69429],[15.17781,37.6942],[15.1777,37.69413],[15.17741,37.69396],[15.17725,37.69385],[15.17599,37.69333],[15.17594,37.69333],[15.17509,37.69322],[15.17432,37.69324],[15.17358,37.69326],[15.17351,37.69327],[15.17344,37.69332],[15.17324,37.69346],[15.17324,37.69412],[15.17387,37.70162],[15.17577,37.70267],[15.18003,37.70362],[15.18498,37.70525],[15.1923,37.70869],[15.19563,37.71562],[15.19703,37.71908],[15.19576,37.72665],[15.19631,37.7346],[15.19517,37.73794],[15.20494,37.7374],[15.20487,37.73912],[15.20534,37.74096],[15.20608,37.74264],[15.20664,37.74385],[15.21004,37.75046],[15.21175,37.75347],[15.21179,37.75354],[15.21382,37.7565],[15.21606,37.75936],[15.22369,37.76833],[15.22146,37.76935],[15.21988,37.77056],[15.22115,37.77464],[15.22267,37.77784],[15.22317,37.78103],[15.22026,37.78395],[15.22009,37.7841],[15.21987,37.7843],[15.21909,37.78463],[15.21902,37.78464],[15.21884,37.78466],[15.21865,37.78467],[15.21843,37.78456],[15.21809,37.78439],[15.21777,37.7838],[15.21773,37.78328],[15.21772,37.7832],[15.21783,37.78253],[15.21811,37.7823],[15.21823,37.7822],[15.21843,37.78203],[15.21872,37.78152],[15.21879,37.78139],[15.21946,37.77995],[15.21949,37.77958],[15.21914,37.77926],[15.21677,37.77798],[15.21639,37.77782],[15.21013,37.77545],[15.19828,37.77604],[15.18974,37.77927],[15.17946,37.78409],[15.1775,37.78527],[15.17622,37.78609],[15.17609,37.7864],[15.1758,37.78933],[15.17584,37.78978],[15.17585,37.78986],[15.17597,37.79045],[15.17885,37.79275],[15.18219,37.79648],[15.19276,37.80035],[15.19552,37.80317],[15.1954,37.80428],[15.19429,37.8069],[15.19319,37.80876],[15.18437,37.82257],[15.18286,37.82439],[15.17391,37.83251],[15.17191,37.83392],[15.16787,37.83788],[15.16708,37.83869],[15.16676,37.8391],[15.16656,37.83963],[15.17474,37.84608],[15.1812,37.8457],[15.18951,37.84529],[15.20125,37.84548],[15.223,37.84284],[15.22679,37.8425],[15.22289,37.8467],[15.22114,37.85039],[15.2205,37.85066],[15.21721,37.85212],[15.2168,37.85231],[15.21653,37.85244],[15.21604,37.85267],[15.21563,37.85286],[15.21513,37.85312],[15.21478,37.8533],[15.21304,37.85433],[15.21042,37.85652],[15.20987,37.85714],[15.20956,37.86011],[15.20618,37.86082],[15.20025,37.86513],[15.19586,37.86708],[15.19165,37.87105],[15.18556,37.87522],[15.17388,37.87749],[15.16301,37.88824],[15.16147,37.88964],[15.16142,37.88963],[15.16085,37.88957],[15.15985,37.88946],[15.15963,37.88949],[15.15888,37.88956],[15.15847,37.8896],[15.15756,37.88989],[15.15555,37.89094],[15.15517,37.89146],[15.15509,37.89158],[15.15494,37.89188],[15.15488,37.89199],[15.15459,37.89252],[15.15432,37.8933],[15.15429,37.89346],[15.15424,37.89368],[15.15388,37.89457],[15.15361,37.89504],[15.15347,37.8951],[15.15262,37.89547],[15.14997,37.89582],[15.14974,37.8958],[15.14944,37.89577],[15.14846,37.89566],[15.14544,37.89525],[15.14484,37.89515],[15.14385,37.89498],[15.14277,37.89459],[15.14085,37.89362],[15.13063,37.89396],[15.12766,37.89755],[15.11437,37.9052],[15.11171,37.90613],[15.11086,37.90617],[15.11052,37.90611],[15.11019,37.90604],[15.1033,37.90463],[15.10208,37.90435],[15.10063,37.90401],[15.09979,37.9038],[15.09712,37.90269],[15.08537,37.90228],[15.0807,37.90227],[15.07736,37.90272],[15.07148,37.90402],[15.05812,37.89827],[15.05657,37.8978],[15.05313,37.89657],[15.04917,37.89482],[15.04726,37.89443],[15.04668,37.89432],[15.04607,37.8942],[15.04256,37.89374],[15.03391,37.8947],[15.03264,37.89484],[15.0316,37.895],[15.02984,37.89556],[15.02908,37.89608],[15.029,37.89613],[15.02799,37.89731],[15.02151,37.89812],[15.02096,37.89828],[15.02084,37.8983],[15.01935,37.89861],[15.01838,37.89873],[15.01712,37.89887],[15.01695,37.89889],[15.01169,37.89937],[15.00823,37.89906],[15.00222,37.89783],[14.99627,37.89434],[14.99601,37.89416],[14.99598,37.89414],[14.99552,37.89394],[14.99539,37.89388],[14.9948,37.89362],[14.99458,37.89354],[14.99341,37.89312],[14.98835,37.89204],[14.98754,37.89187],[14.98696,37.89175],[14.98669,37.8917],[14.98512,37.89143],[14.98416,37.89155],[14.98325,37.8918],[14.98238,37.8921],[14.98156,37.89242],[14.98087,37.89269],[14.98027,37.89294],[14.97999,37.89305],[14.9799,37.89309],[14.97965,37.89329],[14.97927,37.89391],[14.97903,37.89446],[14.97898,37.89504],[14.97897,37.89511],[14.97897,37.89539],[14.97897,37.8956],[14.97899,37.89568],[14.9792,37.8969],[14.97945,37.89831],[14.97975,37.9001],[14.97959,37.90284],[14.97941,37.90452],[14.97925,37.90587],[14.97892,37.90686],[14.97886,37.90703],[14.97879,37.90705],[14.97869,37.90708],[14.97799,37.90728],[14.97243,37.908],[14.96029,37.91016],[14.95566,37.91205],[14.95342,37.91787],[14.95233,37.92434],[14.94996,37.92892],[14.94645,37.93392],[14.94274,37.9393],[14.94143,37.94257],[14.94095,37.94972],[14.94123,37.95079],[14.93747,37.95213],[14.9323,37.95469],[14.93155,37.95755],[14.93011,37.96063],[14.92953,37.96081],[14.92924,37.9609],[14.92813,37.96074],[14.92783,37.96062],[14.9269,37.96025],[14.91825,37.9562],[14.90627,37.95191],[14.90098,37.95032],[14.89585,37.94867],[14.8931,37.94675],[14.88284,37.93863],[14.87822,37.93467],[14.8778,37.93249],[14.86249,37.92867],[14.85492,37.93098],[14.84826,37.94214],[14.85021,37.94973],[14.85085,37.95062],[14.85193,37.95327],[14.85177,37.95414],[14.85133,37.95513],[14.85064,37.9557],[14.84914,37.95677],[14.84673,37.9576],[14.84143,37.95892],[14.84054,37.95903],[14.83909,37.95499],[14.83974,37.95266],[14.83932,37.95133],[14.83456,37.94302],[14.83152,37.9385],[14.82913,37.93539],[14.82852,37.9351],[14.83148,37.93211],[14.83309,37.93047],[14.83526,37.92809],[14.83675,37.92548],[14.84315,37.91279],[14.83745,37.90891],[14.83531,37.90857],[14.83504,37.90745],[14.83429,37.89678],[14.83484,37.89468],[14.83511,37.89399],[14.83544,37.89361],[14.83589,37.89348],[14.83893,37.89293],[14.84244,37.89251],[14.84603,37.89216],[14.84652,37.89214],[14.84699,37.89213],[14.8479,37.89222],[14.85118,37.89279],[14.85149,37.89285],[14.85343,37.89335],[14.85553,37.89391],[14.8559,37.89407],[14.8561,37.89415],[14.85616,37.89417],[14.85697,37.8944],[14.85753,37.89453],[14.85821,37.89464],[14.86144,37.89482],[14.86203,37.89483],[14.86258,37.89477],[14.86293,37.89466],[14.86323,37.89443],[14.86331,37.89426],[14.86341,37.89406],[14.86356,37.89348],[14.86357,37.89341],[14.86369,37.89262],[14.86457,37.88571],[14.86337,37.88137],[14.8633,37.88132],[14.86324,37.88128],[14.86294,37.88106],[14.86266,37.88055],[14.86261,37.88039],[14.86247,37.87989],[14.86236,37.87926],[14.8623,37.8785],[14.86237,37.87778],[14.86239,37.87771],[14.86258,37.87707],[14.86265,37.87696],[14.8629,37.87655],[14.86382,37.87517],[14.86419,37.87477],[14.86451,37.87445],[14.86505,37.87396],[14.86545,37.87391],[14.86559,37.87389],[14.86567,37.87388],[14.86657,37.87377],[14.86742,37.87372],[14.87254,37.87352],[14.87715,37.87377],[14.8781,37.87393],[14.88129,37.87279],[14.88202,37.8725],[14.8826,37.87227],[14.88361,37.87181],[14.88437,37.87141],[14.88888,37.86874],[14.89037,37.86745],[14.89403,37.86346],[14.8947,37.86214],[14.89517,37.85961],[14.89553,37.85718],[14.90219,37.84845],[14.91359,37.83429],[14.91685,37.83067],[14.91913,37.82891],[14.92172,37.82721],[14.92486,37.82525],[14.92739,37.82382],[14.92973,37.82259],[14.93517,37.81982],[14.93807,37.81832],[14.94115,37.81669],[14.94771,37.8129],[14.95022,37.81114],[14.95267,37.80961],[14.95498,37.80827],[14.96411,37.8032],[14.96953,37.80121],[14.97314,37.79901],[14.98619,37.78973],[14.9865,37.78949],[14.98665,37.78928],[14.98697,37.78809],[14.98918,37.77639],[14.99323,37.75475],[14.9935,37.75386],[14.99356,37.75366],[14.9944,37.75122],[14.99399,37.75103],[14.9935,37.75081],[14.99211,37.75018],[14.98871,37.74864],[14.9849,37.74691],[14.96433,37.73795],[14.95638,37.73455],[14.95129,37.73245],[14.94964,37.73173],[14.94806,37.73098],[14.94144,37.72773],[14.93806,37.72564],[14.92465,37.71735],[14.9159,37.7123],[14.9109,37.70919],[14.90914,37.7079],[14.90828,37.7071],[14.90789,37.7067],[14.90555,37.70425],[14.90487,37.7035],[14.90453,37.70304],[14.90421,37.7025],[14.90411,37.70226],[14.904,37.70198],[14.90399,37.70151],[14.90404,37.69746],[14.90418,37.69343],[14.90384,37.69204],[14.90315,37.69069],[14.89988,37.68554],[14.89869,37.68443],[14.89614,37.68308],[14.88748,37.67685],[14.88581,37.67245],[14.88056,37.66857],[14.86751,37.66251],[14.86699,37.66228],[14.86649,37.66206],[14.86436,37.66146],[14.86335,37.66155],[14.86321,37.66157],[14.8629,37.66166],[14.86281,37.66168],[14.86238,37.6618],[14.8614,37.66213],[14.86125,37.66219],[14.85457,37.66193],[14.84873,37.65996],[14.84825,37.65928],[14.84791,37.65836],[14.84782,37.65743],[14.84139,37.65057],[14.8334,37.64146],[14.82896,37.63471],[14.82572,37.63067],[14.82456,37.62603],[14.82195,37.61877],[14.82427,37.61224],[14.82806,37.6082],[14.82883,37.59892],[14.82885,37.5982],[14.82865,37.59751],[14.82842,37.59685],[14.82817,37.59645],[14.8278,37.59599],[14.82737,37.59562],[14.82715,37.59535],[14.82677,37.59478],[14.82659,37.59406],[14.82654,37.59341],[14.82654,37.59325],[14.82654,37.59316],[14.82654,37.59294],[14.82659,37.59217],[14.82666,37.5917],[14.82669,37.59157],[14.82673,37.59131],[14.82677,37.59113],[14.8268,37.591],[14.82722,37.58964],[14.82737,37.58946],[14.8278,37.58929],[14.82825,37.58914],[14.82857,37.58903],[14.8288,37.58898],[14.82904,37.58892]]],[[[14.79786,37.71273],[14.79945,37.71535],[14.79962,37.71564],[14.79941,37.71622],[14.799,37.71676],[14.79832,37.71747],[14.79764,37.71801],[14.79563,37.71934],[14.79493,37.71979],[14.79354,37.72048],[14.79306,37.7207],[14.79241,37.72094],[14.79097,37.72146],[14.78613,37.72542],[14.78169,37.7324],[14.78074,37.7361],[14.78339,37.74213],[14.78761,37.74686],[14.78892,37.74849],[14.79014,37.7506],[14.79013,37.75087],[14.79009,37.75118],[14.79006,37.75127],[14.7899,37.75169],[14.78967,37.7521],[14.78893,37.7528],[14.78861,37.75301],[14.78778,37.75337],[14.78641,37.75359],[14.78587,37.75366],[14.78576,37.75367],[14.78569,37.75366],[14.7855,37.75363],[14.78538,37.75361],[14.78516,37.75357],[14.78492,37.75343],[14.7849,37.75334],[14.78485,37.75319],[14.78476,37.75286],[14.78485,37.75266],[14.78508,37.75245],[14.78533,37.75218],[14.78533,37.75188],[14.78524,37.75123],[14.7852,37.75115],[14.78505,37.75088],[14.78491,37.75062],[14.78469,37.75029],[14.78439,37.74981],[14.78403,37.74945],[14.78357,37.7492],[14.7806,37.74799],[14.78016,37.74782],[14.77427,37.74585],[14.77114,37.7451],[14.77012,37.74488],[14.76612,37.74421],[14.76537,37.74414],[14.76449,37.74409],[14.76377,37.74415],[14.76299,37.74448],[14.76273,37.7446],[14.76226,37.74483],[14.76062,37.74579],[14.76042,37.74593],[14.76009,37.74618],[14.73828,37.75342],[14.73682,37.7536],[14.73481,37.75179],[14.73,37.74595],[14.71916,37.73982],[14.71642,37.7385],[14.71445,37.73745],[14.71105,37.7353],[14.71092,37.73522],[14.71057,37.73499],[14.70627,37.73153],[14.70581,37.72977],[14.70581,37.7297],[14.70578,37.72933],[14.70648,37.72855],[14.70767,37.72798],[14.70784,37.72789],[14.70819,37.72772],[14.7091,37.72754],[14.71512,37.72629],[14.71766,37.7251],[14.72005,37.72058],[14.72125,37.71734],[14.71877,37.71268],[14.71644,37.70838],[14.71487,37.70446],[14.71543,37.70189],[14.71728,37.6988],[14.72279,37.68497],[14.72441,37.68135],[14.72493,37.68127],[14.72532,37.68139],[14.72803,37.68235],[14.72857,37.68268],[14.72902,37.68305],[14.73343,37.68706],[14.7345,37.69086],[14.7383,37.69106],[14.74587,37.68751],[14.74613,37.68707],[14.7473,37.68641],[14.74743,37.68635],[14.74752,37.68631],[14.74771,37.68622],[14.7506,37.68614],[14.75121,37.68621],[14.75198,37.68642],[14.75238,37.68661],[14.7527,37.68687],[14.76108,37.69418],[14.77028,37.69909],[14.78183,37.70455],[14.78856,37.70772],[14.79786,37.71273]]]]}},{"type":"Feature","properties":{"key":"cerasuolo-di-vittoria","name":"Cerasuolo di Vittoria"},"geometry":{"type":"MultiPolygon","coordinates":[[[[14.43892,36.8758],[14.43918,36.8752],[14.44166,36.87198],[14.44254,36.87159],[14.44308,36.87132],[14.44323,36.8712],[14.44416,36.87002],[14.44443,36.86947],[14.44534,36.8672],[14.44679,36.8633],[14.44696,36.86283],[14.44738,36.86163],[14.44816,36.85873],[14.4502,36.85189],[14.4528,36.84377],[14.45503,36.84165],[14.45519,36.84162],[14.45532,36.84149],[14.45581,36.84086],[14.45595,36.84068],[14.45625,36.84008],[14.45638,36.83974],[14.45648,36.83939],[14.45649,36.83937],[14.45669,36.8387],[14.45745,36.8358],[14.45857,36.8312],[14.45957,36.82691],[14.45965,36.82638],[14.45979,36.82476],[14.4597,36.82423],[14.45959,36.82372],[14.45942,36.82303],[14.45867,36.82173],[14.45782,36.82036],[14.45761,36.81945],[14.45916,36.81637],[14.45995,36.81484],[14.46004,36.81468],[14.46015,36.81462],[14.46039,36.8147],[14.46368,36.81676],[14.46699,36.81458],[14.47416,36.80802],[14.47955,36.80297],[14.48626,36.7948],[14.48944,36.79127],[14.49248,36.78768],[14.49295,36.78658],[14.49334,36.7865],[14.4986,36.78618],[14.50117,36.78671],[14.50649,36.78787],[14.51274,36.78791],[14.51344,36.78791],[14.51416,36.78785],[14.51642,36.78754],[14.51669,36.78745],[14.51746,36.78715],[14.51834,36.78677],[14.51935,36.7863],[14.52689,36.78344],[14.52722,36.78302],[14.52991,36.7811],[14.53072,36.78071],[14.53104,36.78057],[14.53134,36.78048],[14.53315,36.78034],[14.53791,36.78031],[14.54436,36.7804],[14.54829,36.78247],[14.55514,36.78253],[14.55549,36.7825],[14.55613,36.78241],[14.56138,36.78128],[14.56657,36.7801],[14.57467,36.77791],[14.57667,36.77755],[14.58369,36.77718],[14.58543,36.77721],[14.58699,36.77717],[14.58748,36.77713],[14.58752,36.77713],[14.58829,36.77699],[14.589,36.77676],[14.58954,36.77651],[14.59008,36.77624],[14.59323,36.77413],[14.59341,36.77399],[14.59393,36.77353],[14.59432,36.77315],[14.59498,36.77249],[14.59521,36.77225],[14.59617,36.77357],[14.59778,36.77846],[14.59763,36.7792],[14.59703,36.77925],[14.59573,36.77932],[14.598,36.78771],[14.60462,36.79113],[14.60917,36.79359],[14.61664,36.79956],[14.61774,36.80566],[14.62664,36.80578],[14.63418,36.80921],[14.64037,36.81238],[14.64902,36.81803],[14.65317,36.82179],[14.65851,36.82637],[14.66528,36.82796],[14.67216,36.83102],[14.67121,36.83211],[14.671,36.83246],[14.67094,36.83256],[14.67034,36.83387],[14.67034,36.8339],[14.67033,36.83398],[14.67032,36.83423],[14.67046,36.83508],[14.67097,36.83538],[14.67354,36.83616],[14.67531,36.83626],[14.67812,36.83623],[14.68698,36.83602],[14.69947,36.83781],[14.70538,36.83877],[14.70846,36.83949],[14.71066,36.83964],[14.71345,36.83919],[14.71349,36.83919],[14.71408,36.83908],[14.71432,36.83887],[14.7144,36.83881],[14.71488,36.84028],[14.71483,36.84613],[14.71386,36.8499],[14.72016,36.8508],[14.72903,36.8602],[14.73611,36.87148],[14.74457,36.88054],[14.75077,36.88387],[14.75134,36.88687],[14.7521,36.8878],[14.75749,36.8911],[14.7581,36.89143],[14.75946,36.89183],[14.76062,36.89204],[14.76526,36.89382],[14.77073,36.89747],[14.7731,36.89938],[14.77427,36.90067],[14.77445,36.90105],[14.77449,36.90114],[14.77467,36.90234],[14.77447,36.90265],[14.77437,36.90281],[14.774,36.903],[14.77387,36.90307],[14.77339,36.90331],[14.77298,36.90382],[14.77334,36.90449],[14.7737,36.90495],[14.77486,36.90613],[14.77852,36.90922],[14.77855,36.90924],[14.77886,36.90946],[14.77949,36.90984],[14.77973,36.9099],[14.78005,36.90999],[14.78087,36.90991],[14.78116,36.90984],[14.78157,36.90973],[14.78236,36.90947],[14.78266,36.90921],[14.78295,36.90896],[14.78335,36.90855],[14.78395,36.90831],[14.78436,36.90822],[14.78444,36.9082],[14.78474,36.90813],[14.78654,36.90778],[14.78695,36.90793],[14.78708,36.90798],[14.78725,36.90823],[14.78747,36.90853],[14.78765,36.9088],[14.78795,36.90929],[14.78968,36.91259],[14.78978,36.91283],[14.78989,36.9131],[14.79,36.91335],[14.79009,36.91363],[14.79025,36.91407],[14.79029,36.91417],[14.79038,36.91451],[14.79063,36.91539],[14.79435,36.91651],[14.80338,36.91457],[14.80864,36.91277],[14.81722,36.91586],[14.82166,36.92092],[14.8231,36.9244],[14.82368,36.93097],[14.82046,36.93298],[14.81672,36.93474],[14.81099,36.93642],[14.80232,36.93794],[14.79621,36.93793],[14.79244,36.93936],[14.79564,36.94302],[14.79841,36.94661],[14.79866,36.94702],[14.79876,36.94719],[14.79937,36.94863],[14.79963,36.94938],[14.79969,36.94962],[14.79975,36.94983],[14.79979,36.94999],[14.80004,36.95263],[14.80069,36.95635],[14.80106,36.95754],[14.80129,36.95799],[14.8015,36.95838],[14.8022,36.95941],[14.80244,36.95976],[14.80444,36.96193],[14.80829,36.96604],[14.81079,36.96645],[14.82162,36.96198],[14.82393,36.96168],[14.82784,36.9598],[14.82927,36.95732],[14.82937,36.95399],[14.82896,36.95231],[14.82893,36.95199],[14.82889,36.95171],[14.82888,36.95159],[14.82886,36.95103],[14.82886,36.95089],[14.8291,36.95059],[14.83061,36.94945],[14.83177,36.94908],[14.83617,36.94827],[14.83929,36.94896],[14.84052,36.94928],[14.84032,36.95129],[14.8403,36.95152],[14.84026,36.95195],[14.84019,36.95266],[14.83979,36.95755],[14.83999,36.95931],[14.83951,36.96488],[14.8395,36.96504],[14.83942,36.96596],[14.83926,36.96663],[14.83924,36.96671],[14.83916,36.96703],[14.83911,36.96723],[14.83819,36.96998],[14.83704,36.97307],[14.84025,36.9743],[14.84693,36.9758],[14.85053,36.97586],[14.85605,36.97558],[14.85644,36.97547],[14.85757,36.97515],[14.85968,36.97455],[14.86056,36.9743],[14.8605,36.97408],[14.86046,36.97392],[14.86099,36.97496],[14.86228,36.97621],[14.86527,36.97737],[14.8727,36.98249],[14.87245,36.98586],[14.87014,36.98601],[14.8678,36.98726],[14.86666,36.99069],[14.86637,36.99173],[14.8652,36.99623],[14.86585,36.99962],[14.86604,37.00007],[14.86573,37.00027],[14.86562,37.00033],[14.86427,37.00117],[14.86362,37.00157],[14.86303,37.00188],[14.86298,37.00191],[14.85957,37.00063],[14.85801,36.99991],[14.85763,36.99963],[14.85743,36.99948],[14.85497,36.99732],[14.85423,36.99665],[14.85361,36.99626],[14.85316,36.996],[14.85263,36.99576],[14.85239,36.99566],[14.8522,36.9956],[14.85214,36.99558],[14.85166,36.99546],[14.84721,36.99442],[14.84659,36.99437],[14.84619,36.99433],[14.84541,36.99445],[14.84425,36.99491],[14.84374,36.99529],[14.84362,36.99538],[14.84342,36.99553],[14.84136,36.99838],[14.84093,37.00028],[14.84071,37.00288],[14.84108,37.00561],[14.84114,37.00568],[14.84123,37.00578],[14.84146,37.00606],[14.84155,37.00625],[14.84189,37.00692],[14.84229,37.00779],[14.8427,37.00879],[14.84274,37.0089],[14.84266,37.0089],[14.84242,37.00892],[14.84228,37.00893],[14.83627,37.00923],[14.83175,37.00881],[14.83097,37.00847],[14.8278,37.00825],[14.8252,37.01115],[14.8243,37.01259],[14.82496,37.01321],[14.82603,37.01359],[14.82784,37.01411],[14.82632,37.01717],[14.82594,37.02021],[14.82588,37.02279],[14.82581,37.02288],[14.82566,37.02305],[14.82556,37.02317],[14.82396,37.02435],[14.82308,37.02495],[14.81499,37.02761],[14.81427,37.02784],[14.81414,37.02776],[14.81375,37.02751],[14.81334,37.02719],[14.81233,37.02557],[14.81138,37.02216],[14.81029,37.01531],[14.81092,37.01055],[14.8027,37.00932],[14.79102,37.01041],[14.79008,37.01079],[14.79006,37.01336],[14.79036,37.01533],[14.79136,37.01964],[14.79182,37.02145],[14.78686,37.02504],[14.78225,37.02746],[14.7791,37.02955],[14.77723,37.02566],[14.77498,37.02265],[14.77137,37.0215],[14.76715,37.02071],[14.76648,37.02073],[14.76485,37.02198],[14.7634,37.02411],[14.76529,37.02802],[14.76895,37.02734],[14.76937,37.02729],[14.76959,37.02742],[14.7698,37.02754],[14.77013,37.02791],[14.77009,37.02874],[14.76882,37.03136],[14.76729,37.033],[14.75493,37.04294],[14.7501,37.03575],[14.7468,37.02898],[14.74247,37.02224],[14.73948,37.02144],[14.73677,37.02089],[14.73249,37.02144],[14.73231,37.02147],[14.73158,37.02161],[14.73081,37.02186],[14.73025,37.0222],[14.73004,37.02232],[14.728,37.02495],[14.72709,37.02534],[14.72653,37.02585],[14.72577,37.02715],[14.7234,37.0321],[14.72191,37.03533],[14.72162,37.03687],[14.72158,37.03709],[14.72186,37.03726],[14.72253,37.03755],[14.7251,37.04115],[14.72759,37.04566],[14.73559,37.06307],[14.7357,37.06743],[14.73319,37.07849],[14.72707,37.08075],[14.7228,37.08084],[14.71748,37.08056],[14.71111,37.08161],[14.71019,37.08193],[14.71009,37.08197],[14.70954,37.08364],[14.70926,37.08504],[14.70908,37.08622],[14.70942,37.08684],[14.71004,37.08723],[14.71035,37.08749],[14.7102,37.08784],[14.70955,37.08828],[14.70891,37.08863],[14.70657,37.08921],[14.70594,37.08917],[14.70082,37.08819],[14.69668,37.08703],[14.69046,37.08508],[14.68847,37.08387],[14.68523,37.08134],[14.67961,37.08011],[14.67884,37.08014],[14.67687,37.08043],[14.67652,37.08053],[14.67638,37.08057],[14.67631,37.08059],[14.67623,37.08061],[14.67387,37.0885],[14.67202,37.09701],[14.6721,37.09711],[14.67253,37.09761],[14.67351,37.09874],[14.67371,37.09896],[14.67447,37.09961],[14.67668,37.10121],[14.67888,37.10401],[14.68357,37.11009],[14.69266,37.11437],[14.70459,37.1212],[14.71069,37.12557],[14.72094,37.12105],[14.72778,37.11788],[14.72879,37.11684],[14.72918,37.11506],[14.72924,37.11326],[14.72604,37.10534],[14.72506,37.10232],[14.725,37.10201],[14.72638,37.09772],[14.72662,37.0972],[14.72703,37.0964],[14.72739,37.09607],[14.72742,37.09603],[14.72782,37.09595],[14.72786,37.09594],[14.73098,37.096],[14.73173,37.09619],[14.73822,37.09902],[14.74219,37.10057],[14.74292,37.10084],[14.7438,37.10096],[14.74473,37.10086],[14.75057,37.09923],[14.75073,37.09919],[14.75103,37.0991],[14.7512,37.09905],[14.75188,37.09871],[14.75249,37.09832],[14.7526,37.09825],[14.75268,37.09819],[14.75277,37.09811],[14.75338,37.09758],[14.75423,37.0967],[14.75427,37.09667],[14.75666,37.09592],[14.75704,37.09581],[14.75758,37.09566],[14.76045,37.09561],[14.76177,37.09562],[14.76514,37.09567],[14.76555,37.09766],[14.76511,37.09833],[14.76512,37.09837],[14.76514,37.09878],[14.76526,37.09893],[14.76551,37.09926],[14.76585,37.09949],[14.767,37.10018],[14.76765,37.10056],[14.77092,37.10218],[14.78912,37.10837],[14.79249,37.10511],[14.79568,37.10638],[14.79504,37.10886],[14.78869,37.11161],[14.78451,37.11561],[14.78114,37.12101],[14.7768,37.12825],[14.77329,37.1276],[14.77056,37.12841],[14.76564,37.13134],[14.76176,37.13446],[14.7536,37.13693],[14.75359,37.13644],[14.75359,37.13563],[14.75355,37.13498],[14.7528,37.13261],[14.75256,37.13222],[14.74783,37.12949],[14.74486,37.13077],[14.73775,37.13385],[14.73723,37.13364],[14.73416,37.13006],[14.73348,37.12899],[14.73327,37.12821],[14.73321,37.12771],[14.73194,37.12522],[14.72535,37.12123],[14.72493,37.12106],[14.72371,37.12099],[14.72246,37.12109],[14.72206,37.12124],[14.72191,37.12144],[14.72174,37.12234],[14.72175,37.12256],[14.72223,37.12489],[14.73454,37.13904],[14.73525,37.13955],[14.73542,37.13966],[14.73678,37.14089],[14.73699,37.14126],[14.73711,37.14149],[14.73721,37.14167],[14.73722,37.1417],[14.73725,37.14181],[14.73733,37.14213],[14.73791,37.14456],[14.73788,37.14495],[14.73751,37.1472],[14.73727,37.14793],[14.73686,37.14856],[14.73639,37.149],[14.73592,37.14923],[14.73543,37.14914],[14.73392,37.14964],[14.73114,37.15123],[14.72716,37.15351],[14.72435,37.15566],[14.72461,37.15671],[14.72463,37.15679],[14.72479,37.15743],[14.72252,37.17073],[14.72068,37.17215],[14.71993,37.17249],[14.71426,37.17226],[14.71218,37.17111],[14.7115,37.16953],[14.70992,37.16632],[14.70902,37.16498],[14.70863,37.16466],[14.70848,37.1646],[14.70788,37.1644],[14.70623,37.164],[14.70524,37.16379],[14.7043,37.1636],[14.70387,37.16364],[14.70376,37.16366],[14.70363,37.16368],[14.70358,37.16369],[14.69665,37.16566],[14.6911,37.16768],[14.69104,37.16798],[14.69099,37.16821],[14.6911,37.16863],[14.69125,37.16921],[14.6914,37.1697],[14.69188,37.17027],[14.69562,37.1739],[14.70003,37.17716],[14.70104,37.18202],[14.6986,37.1907],[14.69533,37.20296],[14.69837,37.21007],[14.69574,37.21578],[14.6912,37.21959],[14.68969,37.21982],[14.68425,37.21941],[14.68379,37.21916],[14.68362,37.21907],[14.67958,37.21623],[14.67312,37.2163],[14.66265,37.21696],[14.65972,37.21565],[14.65879,37.21293],[14.65224,37.20535],[14.64744,37.20292],[14.64606,37.20209],[14.6423,37.2012],[14.64191,37.20161],[14.64174,37.20179],[14.63975,37.20282],[14.63906,37.20295],[14.63896,37.20297],[14.63525,37.20261],[14.62531,37.20046],[14.6182,37.19737],[14.61285,37.19758],[14.60749,37.19869],[14.60158,37.19801],[14.59765,37.19451],[14.5882,37.18605],[14.588,37.18593],[14.58774,37.18578],[14.58743,37.18559],[14.58459,37.18446],[14.58413,37.18434],[14.58317,37.18426],[14.58281,37.18429],[14.58276,37.18431],[14.58253,37.18437],[14.58245,37.18439],[14.57946,37.18646],[14.57943,37.18654],[14.57921,37.187],[14.57908,37.18731],[14.579,37.18751],[14.57874,37.18836],[14.57854,37.18919],[14.57844,37.1897],[14.57844,37.18975],[14.57844,37.19008],[14.57873,37.19101],[14.57888,37.19131],[14.5808,37.19427],[14.58626,37.19996],[14.58899,37.20273],[14.59231,37.20599],[14.59724,37.21404],[14.6001,37.2225],[14.60222,37.22698],[14.60179,37.22935],[14.60097,37.23337],[14.60005,37.23447],[14.59728,37.23739],[14.59705,37.23759],[14.59614,37.23834],[14.59376,37.2402],[14.59006,37.24231],[14.58853,37.2425],[14.58495,37.24228],[14.58298,37.24083],[14.58178,37.2368],[14.57668,37.23048],[14.57568,37.2297],[14.57248,37.22956],[14.57165,37.23071],[14.57166,37.23077],[14.57183,37.23222],[14.57487,37.24725],[14.57523,37.24767],[14.57663,37.24884],[14.58297,37.25332],[14.59521,37.26199],[14.59923,37.26514],[14.59933,37.26645],[14.59985,37.27095],[14.60217,37.27647],[14.60251,37.28071],[14.60017,37.28448],[14.59819,37.29098],[14.59785,37.29556],[14.59748,37.29791],[14.59654,37.30127],[14.5955,37.30201],[14.59191,37.30345],[14.58885,37.30335],[14.58084,37.30182],[14.58007,37.30167],[14.57635,37.29921],[14.5725,37.29577],[14.56172,37.29224],[14.55345,37.29132],[14.53656,37.29087],[14.53134,37.28995],[14.52607,37.289],[14.52306,37.28952],[14.51862,37.29128],[14.51668,37.29249],[14.50544,37.30204],[14.50506,37.30257],[14.50401,37.30435],[14.5031,37.30608],[14.50269,37.30912],[14.50185,37.3091],[14.50071,37.308],[14.4992,37.3061],[14.4977,37.30253],[14.49638,37.29999],[14.49355,37.2973],[14.49288,37.29668],[14.49162,37.2957],[14.49093,37.29544],[14.48771,37.29592],[14.47509,37.29805],[14.46289,37.30088],[14.45422,37.30315],[14.45352,37.30276],[14.45291,37.30244],[14.45095,37.30193],[14.45009,37.3018],[14.44945,37.3017],[14.4493,37.30171],[14.44878,37.30176],[14.44795,37.30184],[14.44716,37.30216],[14.44639,37.30248],[14.44495,37.30283],[14.44218,37.30342],[14.44096,37.30286],[14.43747,37.30088],[14.43738,37.30083],[14.43734,37.30081],[14.43686,37.30052],[14.43653,37.30018],[14.433,37.29598],[14.43278,37.29556],[14.43269,37.29538],[14.4326,37.29504],[14.43255,37.29481],[14.43252,37.2925],[14.43297,37.29223],[14.43657,37.29202],[14.44214,37.28882],[14.44354,37.28871],[14.44447,37.28874],[14.44464,37.28875],[14.45913,37.2903],[14.46371,37.29143],[14.46521,37.29161],[14.46567,37.29142],[14.46641,37.29094],[14.46685,37.29063],[14.4682,37.2895],[14.47421,37.28259],[14.47309,37.27849],[14.4683,37.27044],[14.46347,37.26862],[14.45544,37.26743],[14.44384,37.26525],[14.44334,37.26509],[14.44273,37.26485],[14.44105,37.26319],[14.44062,37.26269],[14.43979,37.26164],[14.43136,37.25314],[14.43118,37.25297],[14.4308,37.25272],[14.42991,37.25223],[14.42874,37.25169],[14.42745,37.25136],[14.425,37.25126],[14.41922,37.2511],[14.41904,37.25144],[14.41854,37.25352],[14.41833,37.25473],[14.41827,37.2569],[14.41893,37.25949],[14.41924,37.26006],[14.41933,37.26061],[14.41923,37.26328],[14.41904,37.26395],[14.4188,37.26453],[14.41862,37.26494],[14.41567,37.26505],[14.41473,37.26504],[14.41282,37.26501],[14.39657,37.26316],[14.39541,37.26294],[14.39446,37.2626],[14.39333,37.26219],[14.39276,37.26185],[14.39033,37.26701],[14.38529,37.27914],[14.38447,37.28156],[14.3837,37.28354],[14.38251,37.28555],[14.38174,37.28609],[14.38005,37.28353],[14.37431,37.28069],[14.374,37.28056],[14.3735,37.28036],[14.37008,37.27944],[14.36989,37.27939],[14.36936,37.27925],[14.36909,37.2792],[14.36659,37.27876],[14.3654,37.27861],[14.35975,37.27794],[14.3571,37.2777],[14.35576,37.27763],[14.3534,37.27782],[14.35279,37.27805],[14.35249,37.27864],[14.3524,37.27887],[14.35235,37.27901],[14.35235,37.28001],[14.35258,37.30246],[14.35266,37.30613],[14.35191,37.30631],[14.34839,37.30711],[14.34503,37.30704],[14.34389,37.30581],[14.34199,37.30401],[14.3414,37.30359],[14.34028,37.30321],[14.34,37.30315],[14.33969,37.30308],[14.33097,37.30258],[14.32472,37.30229],[14.32279,37.30227],[14.31733,37.30273],[14.31638,37.30285],[14.31583,37.303],[14.31551,37.30376],[14.31506,37.30865],[14.31509,37.31021],[14.31509,37.31041],[14.31515,37.31268],[14.31578,37.31536],[14.31627,37.31981],[14.31628,37.32567],[14.31269,37.32719],[14.30379,37.32785],[14.29973,37.32769],[14.28776,37.32929],[14.28608,37.33059],[14.28567,37.33076],[14.28371,37.33155],[14.28341,37.33163],[14.28323,37.33168],[14.27844,37.33207],[14.27514,37.3304],[14.26715,37.33364],[14.26739,37.33623],[14.26731,37.3369],[14.26513,37.34222],[14.26412,37.34297],[14.25613,37.34484],[14.24139,37.34704],[14.23484,37.34752],[14.23106,37.34759],[14.22993,37.34734],[14.22932,37.34688],[14.22897,37.34662],[14.22622,37.34411],[14.22571,37.34346],[14.22538,37.34279],[14.2191,37.33778],[14.21821,37.33722],[14.21587,37.33619],[14.2155,37.33606],[14.21489,37.33585],[14.21483,37.33583],[14.20747,37.33387],[14.2058,37.33427],[14.20477,37.33452],[14.19297,37.33191],[14.18603,37.33076],[14.17734,37.32766],[14.17144,37.32539],[14.16869,37.32445],[14.16716,37.32396],[14.16647,37.32396],[14.1662,37.32397],[14.15565,37.32653],[14.15025,37.32894],[14.15018,37.32899],[14.14995,37.32917],[14.14798,37.33066],[14.14713,37.33203],[14.14561,37.33352],[14.14213,37.33551],[14.13302,37.33514],[14.13385,37.33676],[14.13155,37.34329],[14.13115,37.34369],[14.12938,37.3451],[14.12891,37.34536],[14.1288,37.34542],[14.12864,37.34539],[14.12803,37.34527],[14.12795,37.34526],[14.12852,37.3436],[14.1283,37.34125],[14.12689,37.33882],[14.12516,37.33828],[14.11503,37.33407],[14.11065,37.33388],[14.10087,37.33657],[14.09722,37.33752],[14.09537,37.33795],[14.09287,37.33747],[14.09081,37.33658],[14.08864,37.33742],[14.08507,37.34065],[14.08583,37.34091],[14.0863,37.34107],[14.08674,37.34132],[14.08686,37.34138],[14.08698,37.34145],[14.08732,37.34177],[14.08791,37.34232],[14.08925,37.34374],[14.08953,37.34474],[14.0899,37.34607],[14.09017,37.34947],[14.08978,37.34999],[14.08887,37.35],[14.08826,37.34949],[14.08796,37.34924],[14.083,37.35125],[14.08327,37.3554],[14.08187,37.36568],[14.07703,37.36699],[14.06799,37.366],[14.06513,37.36549],[14.05736,37.36395],[14.05711,37.36381],[14.05706,37.36378],[14.0565,37.36332],[14.05638,37.36322],[14.05488,37.36167],[14.05371,37.36041],[14.04462,37.3503],[14.04194,37.33933],[14.04202,37.33829],[14.04175,37.3366],[14.04032,37.33491],[14.03957,37.33429],[14.04024,37.33352],[14.04128,37.33259],[14.046,37.32915],[14.04699,37.32883],[14.04776,37.32868],[14.04896,37.32849],[14.05429,37.32625],[14.05314,37.32601],[14.05244,37.32565],[14.05184,37.32508],[14.05139,37.32457],[14.05123,37.3242],[14.05076,37.32039],[14.04871,37.31234],[14.048,37.31012],[14.03885,37.30378],[14.0348,37.30124],[14.02934,37.29876],[14.02339,37.29709],[14.02269,37.2971],[14.02215,37.29688],[14.02125,37.29636],[14.02036,37.2958],[14.01987,37.29538],[14.01976,37.29529],[14.01939,37.29452],[14.01921,37.2936],[14.01923,37.28953],[14.01925,37.28949],[14.0193,37.2894],[14.01958,37.28886],[14.02019,37.28801],[14.02112,37.28748],[14.02162,37.28748],[14.02199,37.28756],[14.02227,37.28762],[14.02251,37.2877],[14.0227,37.28777],[14.02281,37.2878],[14.02434,37.29241],[14.02453,37.29297],[14.02515,37.29328],[14.02602,37.29321],[14.03027,37.29265],[14.03108,37.2925],[14.03151,37.29218],[14.03143,37.28569],[14.0312,37.28335],[14.03118,37.28328],[14.03101,37.28263],[14.03048,37.28202],[14.03032,37.28184],[14.02994,37.28144],[14.02828,37.27653],[14.02806,37.27489],[14.01999,37.2689],[14.01822,37.26778],[14.01539,37.26639],[14.01265,37.2649],[14.01079,37.26358],[14.0106,37.26344],[14.01003,37.26304],[14.00964,37.26253],[14.00958,37.26214],[14.00952,37.26181],[14.00947,37.26113],[14.01154,37.26012],[14.01183,37.25998],[14.01229,37.25993],[14.01246,37.26021],[14.0125,37.26028],[14.01274,37.26066],[14.01456,37.26136],[14.01487,37.26118],[14.01509,37.261],[14.0154,37.26073],[14.01546,37.26069],[14.01574,37.26045],[14.01641,37.25987],[14.01731,37.25911],[14.01738,37.25904],[14.01752,37.25871],[14.01755,37.25865],[14.01777,37.25811],[14.01764,37.25593],[14.0138,37.24992],[14.00998,37.24546],[14.00667,37.24136],[14.00823,37.23383],[14.01578,37.22973],[14.01561,37.22752],[14.01257,37.22603],[14.01053,37.22567],[14.01005,37.22563],[14.00967,37.22559],[14.00901,37.22568],[14.00747,37.22612],[13.99972,37.22383],[13.99246,37.22053],[13.99357,37.2069],[13.99376,37.20607],[13.99459,37.2038],[13.99509,37.20287],[13.99523,37.20261],[13.9954,37.2024],[13.99547,37.20232],[13.99617,37.20149],[13.99776,37.20002],[13.99807,37.19979],[13.99864,37.19937],[14.00046,37.1986],[14.00182,37.19812],[14.0027,37.19752],[14.0032,37.19679],[14.00343,37.19646],[14.00365,37.19614],[14.00429,37.19482],[14.00431,37.19479],[14.0043,37.19437],[14.00428,37.19356],[14.00422,37.19349],[14.00379,37.19305],[14.00299,37.1925],[14.00296,37.19247],[14.0002,37.19192],[14.00014,37.19192],[13.99958,37.19191],[13.99901,37.1919],[13.99846,37.192],[13.9979,37.1921],[13.99747,37.19217],[13.99735,37.1922],[13.99679,37.19234],[13.99591,37.19256],[13.99538,37.1929],[13.99515,37.19308],[13.99462,37.1935],[13.99409,37.19391],[13.99406,37.19394],[13.99384,37.19437],[13.9938,37.19444],[13.99379,37.19468],[13.99375,37.19522],[13.99145,37.19508],[13.98805,37.19336],[13.98781,37.19327],[13.98711,37.19299],[13.98675,37.19286],[13.98612,37.19263],[13.98564,37.19246],[13.98554,37.19245],[13.9844,37.19237],[13.98233,37.19306],[13.98424,37.19092],[13.99267,37.18394],[14.00032,37.17774],[14.0073,37.16871],[14.00997,37.16215],[14.01075,37.16071],[14.01123,37.15996],[14.01591,37.158],[14.01738,37.15785],[14.01873,37.15826],[14.01991,37.15894],[14.02094,37.15941],[14.02149,37.15938],[14.02179,37.15936],[14.02397,37.15898],[14.02417,37.15886],[14.02466,37.15858],[14.02853,37.15615],[14.02899,37.15578],[14.02996,37.15459],[14.03464,37.14301],[14.03669,37.12769],[14.03747,37.11971],[14.03647,37.11214],[14.03631,37.10609],[14.03784,37.10732],[14.03913,37.10766],[14.04278,37.10821],[14.04296,37.10823],[14.04337,37.10829],[14.04347,37.1083],[14.05874,37.11018],[14.06437,37.11074],[14.06675,37.11091],[14.06896,37.1108],[14.07208,37.11061],[14.07827,37.11003],[14.07893,37.10993],[14.08118,37.10953],[14.09743,37.10665],[14.1062,37.10461],[14.11576,37.10271],[14.127,37.09993],[14.13844,37.0986],[14.14411,37.09794],[14.14581,37.09773],[14.15152,37.09645],[14.15379,37.09594],[14.15467,37.09572],[14.15895,37.09448],[14.17056,37.09108],[14.17472,37.08961],[14.17641,37.08896],[14.19948,37.08064],[14.20905,37.07662],[14.2151,37.07348],[14.21726,37.07234],[14.21881,37.07148],[14.22048,37.07049],[14.22418,37.06806],[14.22595,37.06641],[14.22739,37.06575],[14.22819,37.06573],[14.23331,37.06636],[14.234,37.06661],[14.24627,37.06348],[14.25862,37.05827],[14.26459,37.05445],[14.26843,37.0519],[14.26312,37.04561],[14.2641,37.04654],[14.27063,37.05039],[14.29678,37.03676],[14.30044,37.03423],[14.30834,37.02782],[14.31518,37.02203],[14.32148,37.01647],[14.33554,37.00373],[14.33789,37.00158],[14.34092,36.99912],[14.36264,36.97856],[14.36732,36.97371],[14.36784,36.97317],[14.36788,36.97314],[14.36832,36.97267],[14.3684,36.97259],[14.37512,36.96516],[14.38292,36.95625],[14.38465,36.95411],[14.38784,36.95008],[14.39422,36.94119],[14.39657,36.93779],[14.39669,36.93761],[14.39701,36.93715],[14.39712,36.93699],[14.39795,36.93576],[14.3993,36.9337],[14.40241,36.9288],[14.40378,36.92649],[14.4127,36.91623],[14.41589,36.91242],[14.41649,36.91168],[14.41746,36.91032],[14.4201,36.90663],[14.42046,36.90609],[14.42191,36.9039],[14.42209,36.90358],[14.4241,36.89955],[14.42453,36.89855],[14.42474,36.89798],[14.42525,36.89655],[14.4256,36.89556],[14.42568,36.89415],[14.42526,36.89313],[14.42503,36.89262],[14.42535,36.89236],[14.42783,36.89058],[14.43004,36.88943],[14.43587,36.8849],[14.43628,36.8842],[14.43665,36.88342],[14.4372,36.88214],[14.43777,36.8808],[14.43884,36.87824],[14.43901,36.87715],[14.43892,36.8758]]]]}},{"type":"Feature","properties":{"key":"marsala","name":"Marsala"},"geometry":{"type":"MultiPolygon","coordinates":[[[[12.92198,37.9864],[12.91916,37.98938],[12.91526,37.99529],[12.90908,38.00115],[12.90435,38.00353],[12.90358,38.00575],[12.90559,38.01063],[12.90296,38.01263],[12.89797,38.01466],[12.89935,38.01688],[12.90393,38.02089],[12.90787,38.02511],[12.90705,38.02499],[12.90589,38.02485],[12.90266,38.02463],[12.90058,38.02454],[12.89638,38.02438],[12.89561,38.02436],[12.89362,38.02435],[12.89272,38.02441],[12.88116,38.02946],[12.87347,38.03462],[12.87116,38.03708],[12.87092,38.03775],[12.87069,38.03997],[12.87077,38.04044],[12.87083,38.04059],[12.87091,38.04071],[12.87097,38.04081],[12.87108,38.04094],[12.87119,38.04101],[12.87135,38.04131],[12.87145,38.04163],[12.87161,38.04238],[12.87151,38.04276],[12.87127,38.04359],[12.86993,38.04793],[12.86874,38.05075],[12.86816,38.05112],[12.86352,38.05168],[12.8591,38.04838],[12.85743,38.04883],[12.85418,38.05021],[12.85287,38.05203],[12.84533,38.05564],[12.82713,38.06629],[12.82362,38.07013],[12.8218,38.0728],[12.81408,38.07966],[12.81096,38.0813],[12.80773,38.0857],[12.80478,38.09012],[12.80483,38.09162],[12.80436,38.09348],[12.80318,38.09507],[12.80104,38.09763],[12.79787,38.10063],[12.79269,38.10792],[12.79008,38.11192],[12.78932,38.11862],[12.78941,38.12642],[12.79026,38.12969],[12.79071,38.13286],[12.79089,38.13475],[12.79022,38.13567],[12.78682,38.13932],[12.78343,38.14515],[12.77966,38.15044],[12.77456,38.1503],[12.77276,38.15012],[12.7712,38.15044],[12.77039,38.15092],[12.77013,38.1511],[12.76841,38.15442],[12.76779,38.15609],[12.76758,38.15682],[12.76728,38.15812],[12.76714,38.15888],[12.76711,38.15973],[12.76711,38.15992],[12.76724,38.16287],[12.76737,38.16398],[12.76743,38.1643],[12.76844,38.16629],[12.77052,38.16804],[12.77067,38.16807],[12.77089,38.16818],[12.7714,38.16861],[12.77156,38.16904],[12.77165,38.16933],[12.77152,38.17083],[12.77124,38.17251],[12.77075,38.17464],[12.76945,38.17755],[12.76815,38.17956],[12.76734,38.18006],[12.76702,38.18014],[12.76601,38.18024],[12.74558,38.17637],[12.74465,38.17602],[12.74392,38.17582],[12.74299,38.17577],[12.74227,38.17574],[12.74159,38.17573],[12.74091,38.17575],[12.74041,38.17577],[12.73993,38.17579],[12.73888,38.17585],[12.73857,38.17588],[12.73682,38.17643],[12.73611,38.17677],[12.73545,38.17711],[12.73206,38.1798],[12.73184,38.18004],[12.73167,38.18024],[12.73155,38.18067],[12.73153,38.18076],[12.73152,38.18109],[12.73198,38.18231],[12.73207,38.18252],[12.73219,38.18267],[12.73272,38.18262],[12.73449,38.18655],[12.73457,38.18766],[12.73458,38.18821],[12.73435,38.18919],[12.73402,38.1895],[12.73337,38.18959],[12.73299,38.18964],[12.73225,38.18963],[12.73113,38.18957],[12.73077,38.18951],[12.73025,38.18941],[12.72997,38.18934],[12.72915,38.189],[12.7268,38.18784],[12.72648,38.18763],[12.7263,38.1875],[12.7258,38.18715],[12.71889,38.18205],[12.71776,38.18092],[12.71609,38.17829],[12.71569,38.17708],[12.71565,38.17689],[12.71565,38.17645],[12.71593,38.17287],[12.71638,38.17171],[12.71777,38.16855],[12.72366,38.16006],[12.73073,38.14887],[12.73542,38.14435],[12.73607,38.1434],[12.73729,38.14136],[12.73744,38.13936],[12.73646,38.13747],[12.73623,38.13708],[12.73579,38.13668],[12.73463,38.13603],[12.72636,38.12975],[12.72698,38.12926],[12.72763,38.12863],[12.72804,38.12815],[12.72855,38.12728],[12.72893,38.12656],[12.72909,38.12621],[12.72903,38.12594],[12.72876,38.1252],[12.72801,38.12449],[12.72247,38.12106],[12.71359,38.11309],[12.71154,38.11106],[12.71129,38.11079],[12.7112,38.11054],[12.71106,38.11002],[12.71119,38.10974],[12.70999,38.10879],[12.70317,38.10636],[12.70023,38.10538],[12.69806,38.10526],[12.68903,38.10557],[12.68697,38.10654],[12.68314,38.10845],[12.6817,38.10934],[12.68102,38.1099],[12.68076,38.11027],[12.68057,38.11172],[12.68074,38.11222],[12.68076,38.11228],[12.68076,38.11242],[12.68076,38.11253],[12.68063,38.11305],[12.67948,38.11349],[12.67804,38.11396],[12.67755,38.11404],[12.677,38.11406],[12.67144,38.11414],[12.66363,38.11292],[12.6629,38.11274],[12.66105,38.11204],[12.6608,38.11193],[12.66026,38.11165],[12.6583,38.11002],[12.65723,38.10845],[12.65679,38.10731],[12.6574,38.10304],[12.65943,38.09867],[12.66021,38.09838],[12.66166,38.09764],[12.66222,38.09723],[12.66277,38.09626],[12.66279,38.09622],[12.66304,38.09564],[12.66303,38.09505],[12.66287,38.0945],[12.6621,38.09304],[12.66183,38.09269],[12.66086,38.09187],[12.66015,38.09137],[12.65947,38.09092],[12.65898,38.09062],[12.65852,38.09036],[12.65722,38.08961],[12.65659,38.08952],[12.65331,38.0882],[12.65007,38.08572],[12.64717,38.0818],[12.64493,38.0786],[12.63726,38.07473],[12.63047,38.07182],[12.62698,38.07065],[12.62658,38.07052],[12.62589,38.07031],[12.61315,38.06686],[12.60015,38.06513],[12.59209,38.06645],[12.58913,38.06636],[12.58796,38.06638],[12.58575,38.06702],[12.58085,38.06913],[12.57775,38.07041],[12.57583,38.07011],[12.57167,38.06941],[12.56967,38.06887],[12.56128,38.06517],[12.56031,38.06473],[12.55994,38.06442],[12.55941,38.06382],[12.55926,38.06351],[12.55909,38.06302],[12.55698,38.05753],[12.5547,38.05347],[12.55223,38.04977],[12.54931,38.047],[12.53975,38.03973],[12.5334,38.03455],[12.53232,38.03399],[12.52807,38.03138],[12.52808,38.03068],[12.52769,38.02918],[12.52749,38.02892],[12.52702,38.0283],[12.52509,38.0264],[12.52384,38.02528],[12.52084,38.02304],[12.51873,38.02187],[12.51206,38.01821],[12.51008,38.01735],[12.50947,38.0172],[12.50887,38.01706],[12.50693,38.0167],[12.50657,38.01667],[12.50625,38.01667],[12.50565,38.01674],[12.5051,38.01681],[12.50466,38.01697],[12.50203,38.01747],[12.49952,38.01794],[12.49846,38.01771],[12.49318,38.01616],[12.49274,38.01582],[12.49393,38.01517],[12.49643,38.01398],[12.49696,38.01391],[12.49718,38.01396],[12.49722,38.01397],[12.50097,38.01447],[12.51085,38.01343],[12.51241,38.01334],[12.51732,38.01335],[12.51759,38.01337],[12.51941,38.01374],[12.51993,38.01385],[12.52032,38.01301],[12.51988,38.00929],[12.51801,38.00936],[12.51043,38.00999],[12.50915,38.00359],[12.50842,38.00025],[12.50801,37.9984],[12.50742,37.99647],[12.50661,37.99407],[12.50526,37.99365],[12.50133,37.99041],[12.49439,37.98403],[12.49379,37.97886],[12.49382,37.97779],[12.49464,37.9769],[12.49509,37.97635],[12.49569,37.97519],[12.49625,37.97411],[12.49635,37.97382],[12.49741,37.97058],[12.49822,37.96791],[12.49853,37.96608],[12.49744,37.96352],[12.49483,37.95667],[12.49356,37.95273],[12.48318,37.93798],[12.47942,37.93185],[12.47624,37.92918],[12.4753,37.92837],[12.47364,37.92672],[12.47287,37.92542],[12.47019,37.9209],[12.46183,37.91124],[12.46057,37.91034],[12.45878,37.90873],[12.45856,37.90802],[12.45939,37.90634],[12.46226,37.90215],[12.46488,37.90226],[12.46837,37.89739],[12.46709,37.89596],[12.46669,37.89542],[12.46611,37.89364],[12.46642,37.89237],[12.46648,37.89219],[12.46675,37.89178],[12.47413,37.88452],[12.47746,37.88379],[12.48152,37.88215],[12.48225,37.88173],[12.4824,37.88164],[12.48407,37.8796],[12.48537,37.87759],[12.48571,37.8764],[12.48589,37.87572],[12.48605,37.87458],[12.48587,37.87368],[12.48578,37.87353],[12.48514,37.87351],[12.47896,37.86398],[12.47513,37.85807],[12.47144,37.84972],[12.46737,37.84903],[12.46681,37.84892],[12.46655,37.84883],[12.46637,37.84875],[12.46611,37.8486],[12.46582,37.84842],[12.46487,37.8477],[12.46474,37.84747],[12.46417,37.84271],[12.46455,37.84149],[12.46494,37.84142],[12.46609,37.8411],[12.46629,37.84104],[12.46644,37.84091],[12.46662,37.84074],[12.46669,37.84067],[12.46693,37.84039],[12.46698,37.84031],[12.46819,37.83782],[12.46866,37.83606],[12.4683,37.82923],[12.46804,37.82785],[12.46638,37.82481],[12.46471,37.82206],[12.46444,37.82162],[12.464,37.82089],[12.46191,37.81764],[12.46169,37.8173],[12.46159,37.8172],[12.46044,37.8161],[12.46037,37.81603],[12.45827,37.81465],[12.45247,37.81295],[12.44201,37.81045],[12.44002,37.81223],[12.44101,37.81577],[12.43995,37.81414],[12.43956,37.81356],[12.43893,37.81269],[12.4388,37.81251],[12.43361,37.80786],[12.4327,37.8071],[12.43203,37.80658],[12.4317,37.80639],[12.43144,37.80628],[12.42748,37.80498],[12.42546,37.80312],[12.42543,37.80126],[12.43132,37.79332],[12.4323,37.79262],[12.43318,37.79391],[12.4337,37.79389],[12.43422,37.79363],[12.43956,37.7907],[12.44344,37.78783],[12.44766,37.78256],[12.44855,37.78135],[12.4504,37.77884],[12.45436,37.77295],[12.45591,37.76984],[12.46149,37.75758],[12.46365,37.75563],[12.46549,37.75325],[12.47007,37.74704],[12.47087,37.74519],[12.47117,37.74444],[12.47168,37.74299],[12.47208,37.74122],[12.47247,37.73777],[12.47247,37.73609],[12.47239,37.73569],[12.47095,37.73035],[12.4694,37.72055],[12.47188,37.71536],[12.47141,37.70613],[12.47046,37.70491],[12.47138,37.70388],[12.47542,37.69956],[12.47585,37.69911],[12.47679,37.69831],[12.48415,37.69312],[12.48993,37.69006],[12.49402,37.68502],[12.49823,37.67758],[12.50129,37.67464],[12.50901,37.67079],[12.51723,37.66575],[12.5174,37.66554],[12.51756,37.66535],[12.5177,37.66508],[12.51794,37.66464],[12.51796,37.6646],[12.51797,37.6645],[12.51797,37.66418],[12.518,37.66303],[12.518,37.66282],[12.518,37.66231],[12.51792,37.66204],[12.51773,37.66104],[12.51771,37.6608],[12.51806,37.66072],[12.53503,37.658],[12.53798,37.65891],[12.53876,37.6595],[12.5394,37.65993],[12.54099,37.66097],[12.54144,37.66118],[12.54265,37.6617],[12.54936,37.66284],[12.55128,37.66315],[12.55249,37.66327],[12.55327,37.66333],[12.55414,37.66335],[12.55532,37.66329],[12.55636,37.66321],[12.55728,37.66311],[12.55787,37.66305],[12.55833,37.66299],[12.55938,37.66282],[12.55953,37.6628],[12.56094,37.66246],[12.56645,37.66086],[12.56665,37.6608],[12.56674,37.66077],[12.56701,37.66063],[12.56709,37.6606],[12.56755,37.66036],[12.56766,37.6603],[12.5681,37.65994],[12.57584,37.65348],[12.57857,37.65004],[12.5833,37.65103],[12.58662,37.65011],[12.59579,37.64718],[12.60383,37.64234],[12.61409,37.63474],[12.61379,37.63355],[12.61489,37.62978],[12.61738,37.62247],[12.6179,37.62113],[12.6193,37.61771],[12.61986,37.61647],[12.62575,37.60669],[12.62762,37.60401],[12.62857,37.60277],[12.63301,37.59781],[12.63545,37.59522],[12.64317,37.58677],[12.64592,37.58307],[12.64667,37.58188],[12.64923,37.57811],[12.6519,37.57589],[12.65369,37.57528],[12.65476,37.57531],[12.65588,37.57486],[12.6591,37.57155],[12.66285,37.56617],[12.67346,37.56004],[12.67775,37.55958],[12.67945,37.55947],[12.68375,37.55998],[12.68457,37.56024],[12.68467,37.56028],[12.6863,37.56097],[12.70653,37.56499],[12.72714,37.56956],[12.72914,37.57039],[12.72983,37.57059],[12.73152,37.57106],[12.73243,37.57131],[12.73489,37.57195],[12.73668,37.57241],[12.74631,37.5748],[12.75418,37.57657],[12.76481,37.57885],[12.76957,37.57956],[12.77142,37.57978],[12.77772,37.5805],[12.78139,37.58085],[12.7823,37.58091],[12.78559,37.58101],[12.79632,37.58119],[12.80967,37.58162],[12.82699,37.58202],[12.84168,37.58144],[12.84608,37.58139],[12.85072,37.58179],[12.8512,37.58214],[12.85189,37.58254],[12.8521,37.5826],[12.85236,37.58265],[12.85356,37.58273],[12.8546,37.58279],[12.85548,37.58276],[12.85652,37.58272],[12.85748,37.58267],[12.8583,37.58263],[12.86786,37.58173],[12.86894,37.58158],[12.874,37.58074],[12.87485,37.58055],[12.8807,37.57923],[12.88681,37.57775],[12.88937,37.57747],[12.89404,37.57712],[12.89652,37.57711],[12.90196,37.58415],[12.90385,37.58683],[12.90485,37.58845],[12.90743,37.59505],[12.90649,37.60171],[12.90581,37.6051],[12.90685,37.61252],[12.90833,37.61971],[12.91045,37.62914],[12.91442,37.63659],[12.91501,37.63723],[12.91619,37.63857],[12.91643,37.63977],[12.91688,37.64481],[12.91671,37.64496],[12.91652,37.64513],[12.91543,37.64548],[12.91473,37.64571],[12.91456,37.64576],[12.91445,37.64579],[12.91381,37.64595],[12.91369,37.64598],[12.91337,37.64606],[12.91319,37.64594],[12.91284,37.64571],[12.91188,37.64509],[12.90143,37.64239],[12.89019,37.64063],[12.88799,37.64188],[12.88755,37.64236],[12.88708,37.64323],[12.88711,37.64356],[12.88848,37.64705],[12.88937,37.6477],[12.89171,37.64938],[12.8978,37.65623],[12.89469,37.66076],[12.89421,37.66076],[12.89407,37.66078],[12.89376,37.6608],[12.89351,37.66085],[12.89343,37.66087],[12.89321,37.66102],[12.89305,37.66126],[12.893,37.66164],[12.89317,37.66201],[12.89344,37.66227],[12.89349,37.66232],[12.89393,37.66262],[12.89447,37.66283],[12.89475,37.66293],[12.89542,37.66314],[12.89575,37.66322],[12.896,37.66329],[12.8979,37.66375],[12.89991,37.66402],[12.90151,37.66402],[12.90498,37.6664],[12.90654,37.66808],[12.90602,37.66966],[12.90603,37.66991],[12.90653,37.67148],[12.90679,37.67183],[12.91061,37.67197],[12.91425,37.67516],[12.91533,37.68217],[12.91784,37.68927],[12.91813,37.68955],[12.9183,37.68971],[12.91888,37.69016],[12.91892,37.69019],[12.92328,37.69326],[12.92905,37.69705],[12.93253,37.69934],[12.93751,37.70148],[12.94217,37.70714],[12.94269,37.71222],[12.94857,37.7161],[12.95452,37.71796],[12.95864,37.72008],[12.95783,37.72216],[12.95705,37.72332],[12.95697,37.72486],[12.95864,37.72682],[12.95892,37.727],[12.95968,37.7275],[12.9608,37.72794],[12.96111,37.72806],[12.96114,37.72807],[12.96429,37.72924],[12.97206,37.73068],[12.97761,37.73235],[12.9874,37.73444],[12.98999,37.7388],[12.98984,37.73895],[12.98965,37.73922],[12.9895,37.73942],[12.98937,37.73968],[12.98923,37.73995],[12.98945,37.74049],[12.98994,37.74098],[12.98999,37.74101],[12.99036,37.74123],[12.99102,37.74161],[12.9912,37.74169],[12.99202,37.74201],[12.99226,37.74207],[12.99293,37.74222],[12.99353,37.74217],[12.99376,37.74215],[12.99387,37.74212],[12.99443,37.74194],[12.99705,37.73942],[12.99672,37.73622],[12.99666,37.73575],[12.99674,37.73566],[12.99692,37.73547],[12.99704,37.73545],[12.99723,37.73543],[12.99773,37.73536],[12.99837,37.73545],[12.99873,37.7355],[12.99969,37.7357],[13.00033,37.7359],[13.00055,37.73596],[13.00567,37.73784],[13.00788,37.7392],[13.00981,37.74169],[13.01211,37.74261],[13.01325,37.74523],[13.01425,37.74854],[13.02029,37.75117],[13.02495,37.75265],[13.02795,37.75407],[13.03022,37.75259],[13.03943,37.7533],[13.04254,37.75451],[13.04669,37.75703],[13.04881,37.75972],[13.04916,37.76126],[13.0499,37.76324],[13.05003,37.76352],[13.05015,37.7638],[13.05065,37.76433],[13.05158,37.76474],[13.05211,37.76491],[13.05238,37.76499],[13.05302,37.76495],[13.05467,37.76445],[13.05486,37.76419],[13.05498,37.76401],[13.05506,37.76389],[13.05755,37.75993],[13.05788,37.7585],[13.05801,37.75804],[13.05804,37.75792],[13.05849,37.7577],[13.05967,37.75733],[13.06057,37.75712],[13.06136,37.75699],[13.06143,37.75698],[13.06193,37.75698],[13.06227,37.75698],[13.06314,37.75712],[13.06395,37.75742],[13.07539,37.76293],[13.0785,37.765],[13.08145,37.76717],[13.09149,37.76894],[13.09802,37.76986],[13.09838,37.76994],[13.09875,37.77001],[13.10014,37.771],[13.09846,37.77376],[13.09754,37.77524],[13.09584,37.77682],[13.09486,37.7773],[13.09482,37.7773],[13.09407,37.77746],[13.09349,37.77824],[13.09164,37.78021],[13.09136,37.78045],[13.09122,37.78057],[13.09103,37.78071],[13.09062,37.78101],[13.08576,37.78254],[13.08561,37.78235],[13.08531,37.78206],[13.08495,37.78176],[13.0841,37.78153],[13.0838,37.78157],[13.08305,37.78166],[13.08229,37.7819],[13.08198,37.78207],[13.08164,37.78226],[13.07813,37.78445],[13.07499,37.78865],[13.07525,37.79164],[13.07539,37.79212],[13.08096,37.80311],[13.08695,37.80474],[13.08791,37.80485],[13.08853,37.80511],[13.09386,37.80811],[13.09595,37.81029],[13.09831,37.81351],[13.09815,37.81437],[13.09675,37.81607],[13.09147,37.81743],[13.09011,37.81615],[13.08493,37.81486],[13.07955,37.81862],[13.06603,37.81505],[13.05862,37.81053],[13.05571,37.81074],[13.05261,37.81406],[13.05228,37.81424],[13.05171,37.81443],[13.05132,37.81455],[13.05049,37.81465],[13.04325,37.8155],[13.03459,37.81571],[13.02501,37.81866],[13.02155,37.8193],[13.02,37.81952],[13.01994,37.81952],[13.01881,37.81962],[13.01852,37.81964],[13.01814,37.81965],[13.01711,37.81967],[13.01388,37.81972],[13.0137,37.81973],[13.01314,37.81974],[13.0118,37.81985],[13.01176,37.81986],[13.00002,37.821],[12.99351,37.822],[12.98147,37.82353],[12.97068,37.82384],[12.96837,37.8301],[12.96351,37.83592],[12.94933,37.83787],[12.94685,37.8388],[12.94533,37.83958],[12.94476,37.84278],[12.94469,37.84315],[12.94465,37.84337],[12.94451,37.84396],[12.94442,37.84407],[12.94424,37.84428],[12.94291,37.84488],[12.9437,37.84691],[12.9473,37.85383],[12.94787,37.85386],[12.9506,37.85526],[12.95206,37.85604],[12.9553,37.85904],[12.95591,37.85979],[12.95824,37.86337],[12.95858,37.86435],[12.95856,37.86481],[12.95731,37.8675],[12.95722,37.86757],[12.95681,37.86793],[12.95653,37.86817],[12.95579,37.86876],[12.95562,37.86853],[12.95229,37.86857],[12.95069,37.87131],[12.95005,37.87477],[12.95035,37.87731],[12.94795,37.88162],[12.94465,37.88201],[12.93991,37.88228],[12.93653,37.88251],[12.93107,37.88531],[12.9335,37.88816],[12.93655,37.89219],[12.93459,37.89593],[12.93437,37.89774],[12.93858,37.90423],[12.9405,37.90561],[12.94053,37.90563],[12.9407,37.90571],[12.94096,37.90585],[12.94108,37.90592],[12.94115,37.90588],[12.94125,37.90582],[12.9413,37.90579],[12.94142,37.90572],[12.94157,37.91206],[12.94146,37.91511],[12.93971,37.91873],[12.93747,37.91996],[12.93515,37.92042],[12.93128,37.92099],[12.92711,37.92267],[12.92388,37.92438],[12.92346,37.92486],[12.92322,37.9256],[12.92452,37.92969],[12.92596,37.93158],[12.92899,37.93306],[12.93197,37.93757],[12.92659,37.94551],[12.92071,37.95619],[12.91742,37.96341],[12.9174,37.9641],[12.91727,37.9722],[12.92095,37.97621],[12.92337,37.98341],[12.92326,37.984],[12.92306,37.98491],[12.92292,37.98558],[12.92282,37.9857],[12.92246,37.98607],[12.92216,37.98629],[12.92198,37.9864]]],[[[12.52948,38.06459],[12.52925,38.06454],[12.52898,38.06416],[12.52893,38.06409],[12.52898,38.06392],[12.52902,38.06385],[12.5291,38.06379],[12.52926,38.06376],[12.52939,38.06382],[12.52944,38.06385],[12.52958,38.06403],[12.52969,38.0642],[12.52976,38.06435],[12.52976,38.06445],[12.52952,38.06458],[12.52948,38.06459]]],[[[12.45685,37.86248],[12.4572,37.86262],[12.45727,37.86277],[12.45718,37.86291],[12.45705,37.86303],[12.4569,37.86304],[12.45655,37.86305],[12.45626,37.86291],[12.45624,37.86266],[12.45648,37.86246],[12.45685,37.86248]]],[[[12.47119,37.87032],[12.47095,37.87048],[12.47046,37.87061],[12.46984,37.87067],[12.46944,37.87067],[12.46808,37.87046],[12.46651,37.87015],[12.46544,37.8698],[12.46513,37.86967],[12.46457,37.86931],[12.46442,37.86912],[12.46439,37.86908],[12.46429,37.86881],[12.46427,37.86875],[12.46425,37.86868],[12.46418,37.86848],[12.465,37.86454],[12.46513,37.86406],[12.46551,37.86397],[12.46699,37.86367],[12.46727,37.86361],[12.46744,37.86358],[12.4676,37.86356],[12.46791,37.86356],[12.4686,37.86379],[12.47091,37.86539],[12.47131,37.86568],[12.47165,37.86595],[12.47183,37.86624],[12.47197,37.86664],[12.47212,37.86726],[12.47228,37.86812],[12.4722,37.86904],[12.47218,37.86912],[12.47162,37.87018],[12.47138,37.8703],[12.47119,37.87032]]],[[[12.45532,37.88738],[12.45703,37.88402],[12.45846,37.88178],[12.46255,37.87909],[12.46306,37.8788],[12.46395,37.87847],[12.46438,37.87842],[12.46484,37.87847],[12.46504,37.87855],[12.46518,37.87865],[12.46524,37.87872],[12.46537,37.87898],[12.46536,37.87921],[12.46518,37.87956],[12.46463,37.87998],[12.46432,37.88018],[12.46401,37.88039],[12.45769,37.8848],[12.45773,37.88492],[12.45785,37.88525],[12.45791,37.88557],[12.45784,37.88571],[12.45778,37.88582],[12.45741,37.88624],[12.4573,37.88636],[12.45688,37.88665],[12.45587,37.88725],[12.45556,37.88736],[12.45532,37.88738]]],[[[12.45537,37.90489],[12.45528,37.90498],[12.45466,37.90491],[12.45397,37.90391],[12.45317,37.90309],[12.45305,37.90297],[12.45287,37.9028],[12.45276,37.90271],[12.4502,37.90065],[12.44888,37.89977],[12.44729,37.89888],[12.44559,37.89824],[12.44457,37.89785],[12.44037,37.89676],[12.43905,37.89647],[12.43777,37.8962],[12.43545,37.89618],[12.43415,37.89629],[12.43349,37.89673],[12.43101,37.89647],[12.42939,37.89513],[12.42927,37.89276],[12.42985,37.89133],[12.4306,37.88986],[12.43186,37.88841],[12.43376,37.88603],[12.43496,37.88424],[12.43684,37.88091],[12.43789,37.87547],[12.44345,37.85202],[12.44426,37.84893],[12.44552,37.84493],[12.44562,37.84469],[12.44566,37.8446],[12.44574,37.84444],[12.44582,37.8443],[12.44586,37.84424],[12.44587,37.8442],[12.44595,37.84418],[12.44649,37.84405],[12.44661,37.84405],[12.44721,37.84407],[12.45084,37.84843],[12.45131,37.85047],[12.45145,37.85108],[12.45181,37.85291],[12.45171,37.85307],[12.45143,37.85353],[12.45113,37.85402],[12.44993,37.85673],[12.44914,37.86096],[12.44852,37.8661],[12.44846,37.8668],[12.44856,37.86803],[12.44876,37.86876],[12.44951,37.87055],[12.44961,37.87074],[12.45183,37.87373],[12.44908,37.88316],[12.44849,37.885],[12.44773,37.89548],[12.44877,37.89576],[12.44926,37.89594],[12.44998,37.89621],[12.45179,37.89708],[12.45353,37.89797],[12.45506,37.89937],[12.45561,37.90418],[12.45546,37.90479],[12.45537,37.90489]]],[[[12.49614,38.0121],[12.49576,38.01209],[12.49416,38.01157],[12.49607,38.01131],[12.49633,38.0112],[12.49729,38.00918],[12.49709,38.00502],[12.49742,38.00504],[12.49742,38.00924],[12.49673,38.0118],[12.4965,38.01201],[12.49628,38.01207],[12.49614,38.0121]]],[[[12.48888,38.0124],[12.48894,38.01241],[12.48907,38.0125],[12.48903,38.01267],[12.48876,38.0128],[12.48819,38.01287],[12.48797,38.01273],[12.48805,38.01249],[12.48844,38.01231],[12.48888,38.0124]]],[[[12.46958,37.73054],[12.46933,37.73078],[12.46916,37.73085],[12.46898,37.73089],[12.46891,37.73084],[12.46892,37.73079],[12.46896,37.73067],[12.46903,37.7306],[12.46932,37.73038],[12.46983,37.73032],[12.46958,37.73054]]]]}},{"type":"Feature","properties":{"key":"noto","name":"Noto"},"geometry":{"type":"MultiPolygon","coordinates":[[[[15.10556,36.79004],[15.10575,36.79037],[15.10605,36.791],[15.10626,36.79155],[15.10634,36.79213],[15.10633,36.79255],[15.10587,36.79295],[15.10512,36.793],[15.10464,36.79296],[15.10347,36.79234],[15.10382,36.79141],[15.1046,36.79058],[15.10524,36.79004],[15.10556,36.79004]]],[[[14.95365,36.80339],[14.96023,36.79823],[14.96212,36.79668],[14.96733,36.79301],[14.97669,36.78671],[14.9852,36.78072],[14.98535,36.78059],[14.98601,36.77998],[14.98604,36.77996],[14.98819,36.77725],[14.98846,36.77685],[14.98869,36.77652],[14.98901,36.77531],[14.99159,36.76549],[14.99215,36.76147],[14.99019,36.75751],[14.98905,36.75692],[14.98887,36.75682],[14.98839,36.75655],[14.98814,36.75641],[14.98779,36.75618],[14.98756,36.75602],[14.98736,36.75589],[14.98684,36.75541],[14.98679,36.75534],[14.9866,36.75506],[14.98647,36.75485],[14.98638,36.75457],[14.9863,36.7543],[14.98594,36.75137],[14.98653,36.75007],[14.98775,36.7482],[14.98801,36.74793],[14.98828,36.74764],[14.98916,36.74711],[14.98934,36.74701],[14.98964,36.74691],[14.99018,36.74673],[14.99411,36.74351],[14.99578,36.73808],[14.99683,36.73425],[14.99746,36.73162],[14.99752,36.73139],[14.99905,36.72015],[14.99887,36.71377],[14.99667,36.7089],[15.00011,36.70391],[15.00038,36.70278],[15.00291,36.7031],[15.00353,36.70317],[15.00448,36.70326],[15.005,36.70331],[15.00663,36.70341],[15.00864,36.70335],[15.00972,36.70326],[15.01144,36.70312],[15.01313,36.70292],[15.01796,36.70202],[15.0196,36.7016],[15.02072,36.70124],[15.02489,36.69948],[15.02763,36.69812],[15.03202,36.69546],[15.04229,36.68892],[15.04278,36.68859],[15.04293,36.68848],[15.04339,36.68811],[15.04388,36.68772],[15.04397,36.68763],[15.04465,36.687],[15.04522,36.68645],[15.04548,36.6862],[15.04696,36.68464],[15.04726,36.68431],[15.04787,36.68363],[15.0504,36.68013],[15.05087,36.67944],[15.05105,36.67917],[15.05171,36.67779],[15.052,36.67686],[15.05206,36.67667],[15.05223,36.67613],[15.05235,36.67568],[15.05263,36.67314],[15.05523,36.66503],[15.05714,36.66193],[15.05786,36.66216],[15.0587,36.66233],[15.05981,36.66242],[15.06052,36.66237],[15.0616,36.66222],[15.06181,36.66219],[15.06219,36.66212],[15.06413,36.66157],[15.06467,36.66137],[15.06871,36.65975],[15.06994,36.65905],[15.07038,36.65879],[15.07047,36.65873],[15.07087,36.65845],[15.07201,36.65739],[15.07366,36.65566],[15.07368,36.65586],[15.07368,36.6559],[15.07371,36.65687],[15.07266,36.66526],[15.07241,36.66629],[15.07215,36.66666],[15.07191,36.66701],[15.07002,36.66905],[15.06915,36.66966],[15.07403,36.67539],[15.07784,36.68064],[15.0729,36.68449],[15.07761,36.68441],[15.07841,36.6844],[15.08063,36.68517],[15.08428,36.68655],[15.09435,36.68014],[15.10254,36.68288],[15.10859,36.68595],[15.11375,36.68802],[15.11824,36.68728],[15.12175,36.68686],[15.12935,36.68628],[15.13039,36.68649],[15.13355,36.69075],[15.13486,36.69156],[15.13206,36.69464],[15.12759,36.69709],[15.12597,36.69843],[15.12367,36.70148],[15.1236,36.7016],[15.12321,36.70259],[15.12108,36.714],[15.12134,36.72233],[15.12083,36.73219],[15.11828,36.73402],[15.11737,36.73648],[15.11663,36.73895],[15.11653,36.73943],[15.11657,36.73966],[15.11669,36.74002],[15.11712,36.74079],[15.11777,36.7412],[15.11791,36.74128],[15.1181,36.74135],[15.1185,36.7414],[15.11908,36.74102],[15.11931,36.74087],[15.1195,36.74476],[15.1171,36.7443],[15.11649,36.74424],[15.11613,36.74426],[15.11506,36.7444],[15.11456,36.74455],[15.1141,36.74483],[15.11241,36.74594],[15.11107,36.74697],[15.10987,36.74813],[15.10878,36.74933],[15.1044,36.75555],[15.10307,36.75786],[15.10171,36.76112],[15.10008,36.76562],[15.10004,36.76618],[15.10006,36.76738],[15.09538,36.77635],[15.09632,36.7871],[15.09551,36.79551],[15.09903,36.80284],[15.09973,36.80259],[15.10092,36.80222],[15.10174,36.80234],[15.103,36.80344],[15.10518,36.80536],[15.10604,36.8064],[15.10831,36.81503],[15.10872,36.81933],[15.10617,36.83194],[15.10606,36.83314],[15.10613,36.83419],[15.10618,36.83462],[15.10624,36.83493],[15.1077,36.84051],[15.11237,36.85091],[15.11414,36.85349],[15.11705,36.8572],[15.11838,36.85884],[15.12089,36.86111],[15.12514,36.86445],[15.12679,36.86563],[15.13087,36.86736],[15.13148,36.86741],[15.13317,36.86712],[15.13359,36.86703],[15.13443,36.86683],[15.13569,36.8664],[15.13588,36.86631],[15.13605,36.86624],[15.13631,36.86615],[15.13644,36.86612],[15.1366,36.86616],[15.13679,36.86626],[15.13731,36.86757],[15.13779,36.86901],[15.13792,36.86941],[15.13801,36.86969],[15.13892,36.87361],[15.1386,36.87463],[15.13794,36.87582],[15.13663,36.8769],[15.1378,36.88145],[15.14105,36.8896],[15.14226,36.89265],[15.14368,36.8958],[15.15155,36.91129],[15.15197,36.912],[15.15343,36.91446],[15.1544,36.91572],[15.155,36.91635],[15.1556,36.91697],[15.15652,36.91786],[15.157,36.91831],[15.15776,36.91901],[15.15795,36.91917],[15.1588,36.91965],[15.1591,36.9198],[15.15971,36.92008],[15.1601,36.92024],[15.16015,36.92025],[15.1603,36.92027],[15.16077,36.92024],[15.16086,36.92021],[15.16086,36.92012],[15.16085,36.92005],[15.16332,36.92027],[15.16623,36.92152],[15.17191,36.924],[15.17273,36.92449],[15.1749,36.92884],[15.17968,36.93868],[15.19046,36.94776],[15.18996,36.94864],[15.1897,36.94882],[15.1896,36.94889],[15.1892,36.94916],[15.18908,36.94924],[15.18796,36.95],[15.18757,36.95022],[15.18709,36.95048],[15.18656,36.95067],[15.18629,36.95068],[15.18606,36.95069],[15.18505,36.95041],[15.18455,36.95017],[15.18429,36.95004],[15.17409,36.95636],[15.16298,36.958],[15.15719,36.9594],[15.15941,36.96185],[15.16499,36.96819],[15.16869,36.97305],[15.17133,36.97737],[15.17157,36.97855],[15.1711,36.97932],[15.17032,36.98068],[15.16912,36.98306],[15.16869,36.98446],[15.16852,36.98526],[15.16847,36.99333],[15.16868,36.99466],[15.17166,36.99992],[15.17227,37.00075],[15.17254,37.00108],[15.17259,37.00114],[15.17292,37.00146],[15.17348,37.00179],[15.17673,37.00354],[15.17801,37.0037],[15.17762,37.00708],[15.16986,37.01442],[15.16914,37.01479],[15.16777,37.0153],[15.16594,37.0158],[15.16496,37.01606],[15.16042,37.01717],[15.15934,37.01739],[15.15479,37.01673],[15.15157,37.01615],[15.14548,37.01709],[15.13711,37.0204],[15.12559,37.02097],[15.11899,37.02078],[15.11565,37.02029],[15.10757,37.01978],[15.10457,37.01985],[15.10329,37.01936],[15.09646,37.01689],[15.09288,37.0159],[15.08707,37.01736],[15.08328,37.01932],[15.08071,37.02074],[15.07645,37.02321],[15.06958,37.02613],[15.06723,37.02709],[15.06558,37.02773],[15.06385,37.02835],[15.06354,37.02842],[15.06334,37.02847],[15.06304,37.02854],[15.06294,37.02857],[15.06279,37.0286],[15.06256,37.02865],[15.0623,37.02871],[15.06221,37.02872],[15.06144,37.02876],[15.06118,37.02877],[15.0611,37.02877],[15.05514,37.02867],[15.04475,37.02882],[15.04386,37.02888],[15.04375,37.02895],[15.04326,37.02924],[15.04136,37.03039],[15.04083,37.03083],[15.0409,37.0339],[15.04098,37.03875],[15.04116,37.03931],[15.0412,37.03944],[15.04181,37.04001],[15.04226,37.04028],[15.0426,37.04049],[15.04393,37.04089],[15.04542,37.04101],[15.06124,37.04168],[15.07276,37.03849],[15.07295,37.03807],[15.07315,37.03793],[15.07325,37.03786],[15.07348,37.03798],[15.07383,37.0383],[15.07416,37.03863],[15.07455,37.03906],[15.07546,37.04018],[15.07581,37.04096],[15.07701,37.04549],[15.07626,37.04971],[15.07539,37.05038],[15.07427,37.05126],[15.0737,37.05192],[15.07349,37.05245],[15.07326,37.05329],[15.07337,37.05417],[15.07379,37.05503],[15.07467,37.05673],[15.07737,37.05879],[15.07832,37.05871],[15.08426,37.05836],[15.08363,37.06519],[15.08086,37.06494],[15.07633,37.06586],[15.0714,37.06469],[15.06797,37.06356],[15.06446,37.06238],[15.04334,37.0693],[15.02566,37.07502],[15.02099,37.07598],[15.01957,37.07624],[15.01824,37.07624],[15.01694,37.07611],[15.01663,37.07608],[15.01338,37.0757],[15.013,37.07527],[15.0119,37.06704],[15.01218,37.0626],[15.01302,37.05841],[15.01425,37.05574],[15.01614,37.05426],[15.01297,37.05251],[15.01112,37.05194],[15.00733,37.05124],[15.00568,37.05165],[15.00393,37.05208],[15.00032,37.05382],[15.00006,37.05409],[14.99891,37.05529],[14.99853,37.05569],[14.99384,37.05604],[14.98484,37.05261],[14.98407,37.05206],[14.9825,37.05095],[14.98348,37.0459],[14.98413,37.04353],[14.98464,37.04311],[14.98689,37.04124],[14.9887,37.0389],[14.98534,37.03603],[14.98513,37.03602],[14.98495,37.03602],[14.98295,37.03594],[14.98284,37.03593],[14.98054,37.03672],[14.97967,37.03727],[14.97862,37.03793],[14.97711,37.03889],[14.9764,37.03963],[14.97532,37.04076],[14.97278,37.04177],[14.97195,37.04202],[14.97149,37.04216],[14.97104,37.0423],[14.96842,37.04309],[14.96749,37.04337],[14.9664,37.0435],[14.96213,37.04398],[14.94723,37.04484],[14.93531,37.04532],[14.93464,37.04514],[14.92535,37.04281],[14.92503,37.04273],[14.92012,37.04198],[14.91617,37.04174],[14.91511,37.04168],[14.91473,37.04169],[14.91469,37.0417],[14.91345,37.04176],[14.91249,37.04181],[14.91224,37.04212],[14.91217,37.04221],[14.91186,37.04261],[14.91237,37.04381],[14.91218,37.04493],[14.91195,37.04561],[14.90215,37.04424],[14.89696,37.04169],[14.89615,37.0411],[14.89436,37.03977],[14.89034,37.0368],[14.88008,37.02661],[14.87788,37.02076],[14.87384,37.0133],[14.87294,37.01174],[14.87271,37.01135],[14.87093,37.00977],[14.8701,37.00936],[14.86881,37.00872],[14.86864,37.00863],[14.86849,37.00856],[14.86826,37.00844],[14.86871,37.00782],[14.87315,37.0045],[14.87426,37.00411],[14.87451,37.00402],[14.87457,37.00397],[14.87498,37.00368],[14.87797,37.00055],[14.88127,36.99664],[14.8865,36.98976],[14.88692,36.9889],[14.88712,36.98851],[14.88731,36.98624],[14.88754,36.98222],[14.88586,36.97411],[14.88654,36.96981],[14.88733,36.96682],[14.8883,36.96413],[14.89068,36.96137],[14.89946,36.95041],[14.90504,36.94257],[14.90745,36.93933],[14.9111,36.93652],[14.91864,36.93549],[14.92052,36.92739],[14.92512,36.9236],[14.93207,36.91463],[14.93777,36.90316],[14.93757,36.90149],[14.93722,36.90037],[14.93567,36.89883],[14.93461,36.90027],[14.92921,36.90548],[14.92233,36.91166],[14.91563,36.91626],[14.90911,36.91908],[14.9033,36.92214],[14.8933,36.92987],[14.88315,36.93795],[14.86071,36.95758],[14.86066,36.95764],[14.85944,36.95882],[14.85917,36.95909],[14.857,36.96658],[14.85799,36.97232],[14.86046,36.97392],[14.8605,36.97408],[14.86056,36.9743],[14.85968,36.97455],[14.85757,36.97515],[14.85644,36.97547],[14.85605,36.97558],[14.85053,36.97586],[14.84693,36.9758],[14.84025,36.9743],[14.83704,36.97307],[14.83819,36.96998],[14.83911,36.96723],[14.83916,36.96703],[14.83924,36.96671],[14.83926,36.96663],[14.83942,36.96596],[14.8395,36.96504],[14.83951,36.96488],[14.83999,36.95931],[14.83979,36.95755],[14.84019,36.95266],[14.84026,36.95195],[14.8403,36.95152],[14.84032,36.95129],[14.84052,36.94928],[14.83921,36.94648],[14.84014,36.94566],[14.84104,36.94501],[14.84283,36.94497],[14.84554,36.94566],[14.84844,36.9473],[14.86538,36.94391],[14.86834,36.94158],[14.8703,36.94011],[14.87273,36.93851],[14.87751,36.9366],[14.8816,36.9355],[14.88414,36.93393],[14.89574,36.92607],[14.89682,36.9253],[14.89718,36.92454],[14.8972,36.92448],[14.89705,36.92376],[14.89661,36.9233],[14.89656,36.92326],[14.89234,36.92106],[14.89151,36.92065],[14.89099,36.92052],[14.88986,36.92023],[14.88678,36.91968],[14.8862,36.9196],[14.8855,36.91973],[14.8846,36.91993],[14.88428,36.92002],[14.88372,36.92018],[14.88217,36.9202],[14.87923,36.92024],[14.87849,36.92025],[14.8782,36.92013],[14.87785,36.92],[14.87761,36.91959],[14.87751,36.91941],[14.87741,36.91886],[14.87743,36.91673],[14.87756,36.91454],[14.88159,36.9082],[14.88262,36.90497],[14.88407,36.89878],[14.88974,36.89507],[14.89983,36.88964],[14.90552,36.88907],[14.90799,36.8889],[14.91346,36.8873],[14.91513,36.88623],[14.91967,36.88018],[14.92081,36.87791],[14.92698,36.8732],[14.9368,36.86631],[14.9386,36.86366],[14.93669,36.86142],[14.93198,36.85666],[14.92911,36.85254],[14.92901,36.85237],[14.92896,36.8523],[14.92876,36.85197],[14.92873,36.85186],[14.92854,36.85132],[14.92855,36.85073],[14.92893,36.85014],[14.92917,36.84976],[14.92715,36.84905],[14.92158,36.8488],[14.90825,36.8539],[14.89707,36.85911],[14.8968,36.85968],[14.89613,36.86054],[14.89324,36.86359],[14.89294,36.86391],[14.89245,36.86442],[14.88618,36.86821],[14.88522,36.86843],[14.87007,36.87053],[14.86437,36.86537],[14.86385,36.86453],[14.86245,36.8616],[14.86238,36.8614],[14.86192,36.86014],[14.86101,36.85689],[14.86111,36.85577],[14.86178,36.85415],[14.86375,36.85189],[14.86503,36.85075],[14.86442,36.84696],[14.86049,36.83343],[14.85993,36.83152],[14.85988,36.83147],[14.85969,36.83127],[14.85875,36.83024],[14.85705,36.82843],[14.85563,36.82821],[14.85377,36.82796],[14.86007,36.81748],[14.86252,36.8159],[14.86489,36.8156],[14.8648,36.81702],[14.86788,36.82136],[14.8795,36.82409],[14.88232,36.82472],[14.88691,36.82482],[14.88705,36.82479],[14.88793,36.82461],[14.88827,36.82455],[14.89049,36.82408],[14.89066,36.82392],[14.89183,36.8225],[14.89267,36.82068],[14.89345,36.81905],[14.89482,36.81768],[14.90233,36.81403],[14.90493,36.81347],[14.91166,36.8122],[14.91266,36.8121],[14.91443,36.81229],[14.91553,36.81262],[14.92354,36.81377],[14.93431,36.80893],[14.94118,36.80553],[14.941,36.80245],[14.94017,36.8008],[14.94015,36.80043],[14.94015,36.80025],[14.94064,36.79816],[14.94121,36.79755],[14.94324,36.79642],[14.95365,36.80339]]],[[[15.11942,36.7385],[15.11924,36.73858],[15.11917,36.7386],[15.11909,36.7386],[15.11842,36.73849],[15.1184,36.73843],[15.11837,36.73834],[15.11836,36.73812],[15.11836,36.73806],[15.11844,36.73798],[15.1186,36.73787],[15.11881,36.73783],[15.11913,36.73796],[15.11924,36.73802],[15.11936,36.7381],[15.11943,36.73821],[15.11949,36.73833],[15.11942,36.7385]]]]}},{"type":"Feature","properties":{"key":"menfi","name":"Menfi"},"geometry":{"type":"MultiPolygon","coordinates":[[[[12.99066,37.53817],[12.99358,37.53551],[13.00184,37.52427],[13.00741,37.51774],[13.00929,37.516],[13.012,37.51267],[13.01221,37.51236],[13.01238,37.51211],[13.01339,37.51048],[13.01374,37.50981],[13.01384,37.5096],[13.01411,37.50903],[13.01445,37.50826],[13.01463,37.50777],[13.01507,37.50641],[13.01514,37.50595],[13.0152,37.5055],[13.01506,37.50455],[13.01495,37.50426],[13.01441,37.50389],[13.0134,37.50302],[13.01231,37.50124],[13.01222,37.50068],[13.01228,37.5003],[13.01242,37.5],[13.01259,37.49981],[13.01268,37.49973],[13.01288,37.49956],[13.01326,37.49926],[13.01335,37.49919],[13.01729,37.49683],[13.02002,37.49558],[13.02153,37.49535],[13.02351,37.49516],[13.03622,37.49577],[13.0369,37.49573],[13.03738,37.49573],[13.0378,37.49573],[13.03854,37.49574],[13.03972,37.49608],[13.04691,37.50049],[13.04832,37.50191],[13.04862,37.50227],[13.0488,37.50239],[13.04914,37.50254],[13.05036,37.50294],[13.05299,37.5037],[13.05365,37.50387],[13.06018,37.50453],[13.07672,37.5055],[13.08501,37.50356],[13.08811,37.50356],[13.09131,37.50345],[13.09317,37.50327],[13.09837,37.50209],[13.11006,37.49875],[13.12506,37.49416],[13.13028,37.49259],[13.13299,37.49422],[13.1378,37.4958],[13.14364,37.49676],[13.14849,37.49727],[13.15443,37.49679],[13.15571,37.49651],[13.15703,37.49607],[13.16826,37.49225],[13.16848,37.49216],[13.16891,37.49199],[13.16931,37.49179],[13.16958,37.49165],[13.16962,37.49163],[13.17072,37.49101],[13.17132,37.49063],[13.1714,37.49058],[13.17206,37.49015],[13.17231,37.48998],[13.17276,37.48968],[13.17365,37.48893],[13.17386,37.48873],[13.17412,37.4885],[13.17447,37.48816],[13.17451,37.48812],[13.1748,37.48781],[13.18598,37.47975],[13.19281,37.47062],[13.19493,37.46661],[13.19592,37.46529],[13.19604,37.46518],[13.19619,37.46504],[13.19633,37.46496],[13.19645,37.4649],[13.19695,37.4648],[13.19774,37.46467],[13.19963,37.46438],[13.2015,37.46413],[13.20229,37.46405],[13.20246,37.46405],[13.20392,37.46881],[13.20384,37.46969],[13.20349,37.47128],[13.20335,37.47168],[13.2028,37.4723],[13.20256,37.47244],[13.2023,37.47256],[13.20571,37.47603],[13.21503,37.48096],[13.22037,37.48434],[13.22012,37.4851],[13.21991,37.48572],[13.21982,37.48607],[13.21965,37.48668],[13.21932,37.48814],[13.21928,37.48936],[13.221,37.50424],[13.22157,37.50725],[13.22402,37.51622],[13.22452,37.52327],[13.22456,37.52434],[13.22458,37.52554],[13.22455,37.52594],[13.22454,37.52602],[13.22324,37.529],[13.22123,37.53008],[13.20048,37.53458],[13.20043,37.53458],[13.19959,37.53467],[13.19954,37.53468],[13.19861,37.53495],[13.19053,37.53849],[13.19055,37.54158],[13.19057,37.54219],[13.19058,37.54264],[13.1906,37.54312],[13.19061,37.54333],[13.19181,37.54592],[13.19184,37.54596],[13.19201,37.54619],[13.19204,37.54623],[13.19232,37.54662],[13.19334,37.54781],[13.18493,37.55006],[13.17949,37.55112],[13.17268,37.5553],[13.17055,37.55815],[13.1684,37.56384],[13.16812,37.56692],[13.16769,37.57143],[13.16713,37.57424],[13.16465,37.57818],[13.16422,37.57855],[13.16185,37.57816],[13.16011,37.5778],[13.15907,37.5776],[13.15669,37.57743],[13.15435,37.57758],[13.1428,37.57852],[13.13358,37.57949],[13.11786,37.58009],[13.10772,37.58075],[13.10106,37.58283],[13.09972,37.58832],[13.10286,37.591],[13.10667,37.59486],[13.1063,37.59689],[13.10733,37.60085],[13.10819,37.60384],[13.11198,37.61071],[13.11304,37.61356],[13.11468,37.6134],[13.12346,37.6157],[13.12742,37.61866],[13.13549,37.62217],[13.14111,37.6234],[13.14555,37.62591],[13.14608,37.62908],[13.14617,37.63005],[13.14616,37.63143],[13.14599,37.6322],[13.14579,37.63296],[13.14465,37.63464],[13.14396,37.6356],[13.14377,37.63587],[13.14341,37.63685],[13.1432,37.63913],[13.14329,37.64003],[13.14333,37.64023],[13.14342,37.64084],[13.14381,37.64211],[13.14398,37.64262],[13.14425,37.64296],[13.14436,37.6431],[13.14898,37.64216],[13.16014,37.64482],[13.16572,37.64586],[13.16632,37.64592],[13.16659,37.64594],[13.16736,37.64596],[13.16848,37.64579],[13.1687,37.6457],[13.16911,37.64623],[13.16944,37.64667],[13.1698,37.64713],[13.16983,37.64718],[13.17015,37.64739],[13.17035,37.64752],[13.17047,37.64759],[13.17108,37.64799],[13.1719,37.64844],[13.17194,37.64846],[13.17289,37.64898],[13.17374,37.64938],[13.17494,37.64994],[13.17813,37.65135],[13.17905,37.6516],[13.18005,37.65162],[13.18733,37.65162],[13.19792,37.64956],[13.2045,37.64824],[13.20912,37.64651],[13.21088,37.65032],[13.21259,37.65813],[13.21504,37.67023],[13.21502,37.67036],[13.21497,37.67093],[13.21491,37.67122],[13.21486,37.67149],[13.21466,37.67211],[13.21392,37.67396],[13.21318,37.67465],[13.21132,37.67544],[13.20939,37.67588],[13.20677,37.6761],[13.2045,37.67693],[13.19302,37.68328],[13.18913,37.68896],[13.18778,37.69162],[13.18087,37.69211],[13.17966,37.69215],[13.1714,37.69168],[13.16773,37.69128],[13.16651,37.69095],[13.16181,37.68945],[13.15958,37.68739],[13.14916,37.68731],[13.14825,37.68732],[13.14733,37.6876],[13.144,37.68896],[13.13061,37.69737],[13.12748,37.69978],[13.12623,37.70067],[13.12497,37.70123],[13.12365,37.70145],[13.12247,37.70131],[13.11081,37.69871],[13.10911,37.69817],[13.10902,37.69813],[13.10757,37.69759],[13.10252,37.6952],[13.10023,37.69404],[13.08836,37.69364],[13.08283,37.69372],[13.07959,37.69244],[13.07944,37.69023],[13.07844,37.6895],[13.07816,37.68891],[13.07637,37.67364],[13.07537,37.66454],[13.07405,37.65833],[13.07397,37.65814],[13.07388,37.65796],[13.07386,37.65792],[13.07129,37.65461],[13.06581,37.64822],[13.06115,37.63813],[13.06184,37.63617],[13.06191,37.63566],[13.06196,37.63391],[13.0616,37.63335],[13.05583,37.6382],[13.0536,37.64074],[13.05224,37.64176],[13.04619,37.64523],[13.03699,37.64782],[13.02814,37.6509],[13.02809,37.65093],[13.02754,37.65138],[13.02728,37.65159],[13.02716,37.65173],[13.02677,37.6522],[13.02494,37.65518],[13.02402,37.65684],[13.02355,37.65758],[13.02309,37.65809],[13.02251,37.65863],[13.02237,37.65869],[13.02201,37.65884],[13.02162,37.659],[13.0208,37.65916],[13.01583,37.65916],[13.01541,37.65908],[13.01475,37.65895],[13.01466,37.65893],[13.01407,37.65879],[13.01365,37.65869],[13.0131,37.65846],[13.01277,37.65832],[13.00824,37.65579],[13.0066,37.6552],[13.0052,37.65507],[13.00404,37.65508],[12.99828,37.65513],[12.99787,37.65531],[12.99762,37.65554],[12.99741,37.65574],[12.99473,37.65889],[12.98668,37.66906],[12.9858,37.67025],[12.98522,37.67125],[12.98408,37.67355],[12.98264,37.67697],[12.98157,37.67602],[12.98155,37.676],[12.98093,37.67557],[12.9807,37.67541],[12.97865,37.67429],[12.97155,37.67077],[12.97143,37.67073],[12.97044,37.6703],[12.96956,37.67011],[12.96797,37.66976],[12.9678,37.66972],[12.96687,37.66966],[12.96615,37.66962],[12.96516,37.66959],[12.9648,37.66958],[12.96476,37.66958],[12.96375,37.66973],[12.95728,37.66904],[12.9509,37.66743],[12.95013,37.66719],[12.94798,37.66645],[12.94729,37.6661],[12.9443,37.66423],[12.94253,37.66292],[12.93495,37.65954],[12.92449,37.65772],[12.91961,37.6577],[12.91411,37.6579],[12.9115,37.658],[12.90818,37.65842],[12.90676,37.65864],[12.90665,37.65866],[12.9065,37.6587],[12.90581,37.65888],[12.9049,37.65923],[12.9036,37.65999],[12.90211,37.66093],[12.8955,37.6608],[12.89469,37.66076],[12.89421,37.66076],[12.89407,37.66078],[12.89376,37.6608],[12.89351,37.66085],[12.89343,37.66087],[12.89321,37.66102],[12.89305,37.66126],[12.893,37.66164],[12.89317,37.66201],[12.89344,37.66227],[12.89349,37.66232],[12.89393,37.66262],[12.89447,37.66283],[12.89475,37.66293],[12.89542,37.66314],[12.89575,37.66322],[12.896,37.66329],[12.8979,37.66375],[12.89991,37.66402],[12.90151,37.66402],[12.90498,37.6664],[12.90654,37.66808],[12.90025,37.66999],[12.89798,37.67042],[12.89568,37.67097],[12.88925,37.67271],[12.87937,37.67677],[12.87751,37.67953],[12.88039,37.68899],[12.86426,37.68929],[12.8622,37.68931],[12.85897,37.689],[12.85655,37.68862],[12.84227,37.68625],[12.84113,37.68605],[12.8406,37.68594],[12.84053,37.68592],[12.84039,37.68588],[12.83959,37.68477],[12.83924,37.68306],[12.83925,37.68263],[12.83929,37.68229],[12.83936,37.68216],[12.83955,37.68194],[12.83983,37.68142],[12.83985,37.68123],[12.83976,37.68098],[12.83974,37.68092],[12.83958,37.68064],[12.83951,37.68052],[12.8391,37.67997],[12.83896,37.67982],[12.83863,37.67947],[12.83837,37.67924],[12.83828,37.67916],[12.83714,37.67852],[12.83118,37.67773],[12.83009,37.67983],[12.82911,37.68247],[12.83041,37.6853],[12.83121,37.68825],[12.83132,37.69168],[12.83014,37.69723],[12.8295,37.70019],[12.83106,37.70576],[12.8321,37.70733],[12.83343,37.70876],[12.83554,37.70908],[12.83947,37.70925],[12.83973,37.70926],[12.84014,37.70944],[12.84023,37.70948],[12.8403,37.70951],[12.84051,37.7096],[12.8406,37.70964],[12.84086,37.70983],[12.841,37.70994],[12.84109,37.71003],[12.84143,37.71323],[12.84146,37.71396],[12.84142,37.71421],[12.84132,37.7145],[12.84131,37.71454],[12.84116,37.71492],[12.84102,37.71512],[12.84082,37.71539],[12.83937,37.71681],[12.83729,37.71873],[12.8354,37.72619],[12.83666,37.72819],[12.83771,37.73057],[12.83828,37.73189],[12.8387,37.73324],[12.8391,37.73581],[12.8388,37.73597],[12.83852,37.73613],[12.83805,37.73638],[12.83791,37.73649],[12.83783,37.73656],[12.83752,37.7368],[12.83693,37.73749],[12.83651,37.73799],[12.83536,37.74024],[12.83532,37.74032],[12.83521,37.74056],[12.83489,37.74122],[12.83459,37.74192],[12.83457,37.74197],[12.82109,37.74628],[12.81207,37.74772],[12.80091,37.74796],[12.8008,37.74795],[12.80024,37.7479],[12.79944,37.74779],[12.79587,37.74689],[12.79546,37.74599],[12.79544,37.74584],[12.79538,37.74548],[12.79523,37.74437],[12.79525,37.74396],[12.79535,37.7438],[12.79564,37.74343],[12.79224,37.74142],[12.78398,37.74122],[12.7775,37.74154],[12.77635,37.74274],[12.77422,37.74604],[12.77392,37.74859],[12.77448,37.74888],[12.77329,37.75045],[12.77299,37.7508],[12.772,37.75123],[12.77112,37.75157],[12.76704,37.75264],[12.76645,37.75215],[12.762,37.7482],[12.75632,37.74374],[12.75705,37.74322],[12.75836,37.74186],[12.75943,37.74035],[12.75986,37.73934],[12.75996,37.72561],[12.75976,37.72299],[12.75938,37.71971],[12.75907,37.71762],[12.75867,37.71701],[12.75568,37.71505],[12.7544,37.71425],[12.75314,37.71367],[12.75209,37.71356],[12.74945,37.71396],[12.74641,37.71607],[12.74471,37.717],[12.74378,37.71728],[12.74112,37.71755],[12.73511,37.71778],[12.73441,37.71588],[12.73481,37.7154],[12.73477,37.71453],[12.73458,37.71265],[12.73457,37.71257],[12.73407,37.71183],[12.72546,37.70144],[12.7246,37.70061],[12.72019,37.6977],[12.71699,37.69612],[12.71566,37.69379],[12.71771,37.69025],[12.71777,37.69017],[12.71817,37.6897],[12.71883,37.68929],[12.71946,37.68907],[12.71958,37.68902],[12.72152,37.68832],[12.72165,37.68828],[12.72182,37.68824],[12.72644,37.68745],[12.72841,37.68717],[12.73187,37.6868],[12.73071,37.6818],[12.72994,37.68171],[12.72854,37.68148],[12.72819,37.68128],[12.7299,37.6787],[12.73326,37.67399],[12.73464,37.67284],[12.73466,37.67282],[12.7349,37.67267],[12.73529,37.67241],[12.73927,37.67087],[12.74586,37.66825],[12.74872,37.66254],[12.74964,37.66159],[12.75308,37.65684],[12.75354,37.65607],[12.75363,37.65592],[12.75366,37.65585],[12.75392,37.65529],[12.76097,37.64609],[12.76609,37.64067],[12.77106,37.63398],[12.77201,37.62865],[12.76357,37.62584],[12.75348,37.61922],[12.74892,37.61518],[12.74791,37.61416],[12.74705,37.61312],[12.74645,37.61205],[12.74584,37.61059],[12.74575,37.61014],[12.74557,37.60923],[12.74556,37.60919],[12.74724,37.6051],[12.75148,37.59769],[12.75488,37.59279],[12.76481,37.57885],[12.76957,37.57956],[12.77142,37.57978],[12.77772,37.5805],[12.78139,37.58085],[12.7823,37.58091],[12.78559,37.58101],[12.79632,37.58119],[12.80967,37.58162],[12.82699,37.58202],[12.84168,37.58144],[12.84608,37.58139],[12.85072,37.58179],[12.8512,37.58214],[12.85189,37.58254],[12.8521,37.5826],[12.85236,37.58265],[12.85356,37.58273],[12.8546,37.58279],[12.85548,37.58276],[12.85652,37.58272],[12.85748,37.58267],[12.8583,37.58263],[12.86786,37.58173],[12.86894,37.58158],[12.874,37.58074],[12.87485,37.58055],[12.8807,37.57923],[12.88681,37.57775],[12.88937,37.57747],[12.89404,37.57712],[12.89652,37.57711],[12.90008,37.57479],[12.90175,37.57411],[12.90667,37.57235],[12.91035,37.57243],[12.91044,37.57259],[12.91042,37.57269],[12.90903,37.57297],[12.90695,37.57266],[12.90525,37.5738],[12.90541,37.57396],[12.90694,37.575],[12.91152,37.57677],[12.91286,37.57707],[12.91447,37.57727],[12.91674,37.57718],[12.91772,37.5771],[12.93573,37.57379],[12.94302,37.57235],[12.94547,37.5716],[12.94829,37.57056],[12.953,37.56862],[12.95496,37.56771],[12.95649,37.56682],[12.95762,37.56614],[12.96213,37.56312],[12.96268,37.56275],[12.9636,37.56201],[12.96448,37.5612],[12.96604,37.5595],[12.96786,37.55741],[12.97149,37.55382],[12.97865,37.54818],[12.98252,37.54529],[12.98376,37.5444],[12.98515,37.54345],[12.98564,37.5432],[12.98579,37.54309],[12.98596,37.54298],[12.98634,37.54272],[12.98637,37.54269],[12.98775,37.54173],[12.98797,37.54156],[12.98824,37.54135],[12.98852,37.54114],[12.98876,37.54094],[12.98951,37.54014],[12.98959,37.54005],[12.98977,37.53984],[12.9902,37.53923],[12.99041,37.53877],[12.99063,37.53826],[12.99066,37.53817]]]]}},{"type":"Feature","properties":{"key":"faro","name":"Faro"},"geometry":{"type":"MultiPolygon","coordinates":[[[[15.47721,38.05459],[15.47789,38.05684],[15.4784,38.0584],[15.47874,38.059],[15.48043,38.06181],[15.48101,38.06273],[15.48137,38.06327],[15.48229,38.06433],[15.48297,38.06498],[15.48405,38.06577],[15.48553,38.06672],[15.4889,38.06919],[15.48906,38.06936],[15.4922,38.0729],[15.4936,38.07461],[15.49377,38.07486],[15.49999,38.0857],[15.50484,38.09594],[15.50698,38.10104],[15.5075,38.10204],[15.51713,38.11774],[15.52076,38.12469],[15.5229,38.12983],[15.53108,38.14329],[15.53286,38.14609],[15.53435,38.14807],[15.55557,38.1744],[15.56309,38.18343],[15.56755,38.18689],[15.57158,38.18917],[15.57242,38.18968],[15.57461,38.19322],[15.57484,38.19372],[15.57271,38.19723],[15.57209,38.19751],[15.57077,38.19777],[15.56771,38.19785],[15.56643,38.19776],[15.56499,38.19748],[15.56393,38.1972],[15.56249,38.19676],[15.56241,38.19655],[15.56246,38.19639],[15.56269,38.19628],[15.5629,38.19623],[15.56457,38.19671],[15.56574,38.1967],[15.56813,38.1965],[15.56845,38.19641],[15.569,38.19624],[15.56957,38.19584],[15.56927,38.19434],[15.56693,38.19063],[15.56384,38.18844],[15.56315,38.18813],[15.56308,38.18812],[15.56266,38.18808],[15.56218,38.18809],[15.56093,38.18814],[15.56016,38.18821],[15.55895,38.18874],[15.55864,38.18887],[15.55759,38.19038],[15.55759,38.19051],[15.55819,38.19711],[15.56173,38.20885],[15.56608,38.21564],[15.56713,38.21955],[15.56753,38.22445],[15.57064,38.23053],[15.57474,38.23574],[15.58161,38.2447],[15.58218,38.24536],[15.58324,38.24641],[15.58362,38.2467],[15.58492,38.24732],[15.58686,38.24815],[15.58834,38.24874],[15.58882,38.24892],[15.60205,38.25362],[15.60478,38.25455],[15.609,38.25592],[15.61144,38.2567],[15.61381,38.25726],[15.61538,38.25763],[15.61623,38.25781],[15.61956,38.25852],[15.63753,38.26214],[15.65132,38.26473],[15.65171,38.26463],[15.65196,38.26466],[15.65215,38.26481],[15.65301,38.26689],[15.65313,38.2672],[15.6533,38.26772],[15.65219,38.26925],[15.65036,38.27029],[15.64906,38.27073],[15.64819,38.27101],[15.64731,38.27126],[15.64574,38.27163],[15.64512,38.27175],[15.64125,38.27253],[15.64088,38.27256],[15.6351,38.27279],[15.6326,38.27269],[15.63186,38.27264],[15.63122,38.27253],[15.62765,38.27242],[15.62608,38.27244],[15.6229,38.27266],[15.62124,38.27278],[15.61832,38.27313],[15.60867,38.2748],[15.60168,38.27752],[15.58924,38.28009],[15.5782,38.28381],[15.56887,38.28849],[15.56803,38.28898],[15.56651,38.28993],[15.56564,38.29053],[15.56368,38.29193],[15.5629,38.29254],[15.5625,38.2931],[15.56238,38.2934],[15.56098,38.29467],[15.5573,38.297],[15.55092,38.29993],[15.54973,38.30045],[15.54369,38.30139],[15.54331,38.30144],[15.54302,38.30147],[15.54222,38.30152],[15.54141,38.30144],[15.54032,38.30125],[15.53329,38.29979],[15.52293,38.29758],[15.5168,38.29565],[15.49737,38.28298],[15.4725,38.26704],[15.45173,38.2528],[15.45051,38.25199],[15.44948,38.25131],[15.44707,38.25009],[15.4439,38.24872],[15.44884,38.24507],[15.45384,38.23802],[15.45742,38.23417],[15.45749,38.23411],[15.45809,38.23363],[15.46006,38.23227],[15.46106,38.2318],[15.46127,38.23176],[15.46164,38.23168],[15.46168,38.23168],[15.46248,38.23158],[15.4687,38.22975],[15.47154,38.22842],[15.47225,38.22808],[15.4796,38.22438],[15.47997,38.22407],[15.48019,38.22388],[15.48034,38.22361],[15.4806,38.22314],[15.48065,38.22305],[15.4815,38.21785],[15.48156,38.21748],[15.48161,38.21712],[15.48184,38.21533],[15.48165,38.2138],[15.47998,38.21263],[15.47663,38.19934],[15.47808,38.1941],[15.48008,38.19056],[15.47907,38.18822],[15.47531,38.1815],[15.47079,38.17353],[15.46443,38.16482],[15.46374,38.1574],[15.46237,38.15197],[15.46012,38.14375],[15.45997,38.14331],[15.45913,38.14175],[15.45683,38.13708],[15.45239,38.13232],[15.44893,38.12959],[15.44582,38.11947],[15.44598,38.11629],[15.44593,38.11616],[15.4458,38.11586],[15.44481,38.11519],[15.44344,38.11437],[15.44193,38.11317],[15.43621,38.10932],[15.43127,38.10691],[15.42323,38.10033],[15.42,38.09298],[15.41592,38.08584],[15.41172,38.08207],[15.40807,38.07909],[15.41273,38.07477],[15.41457,38.07309],[15.41881,38.07113],[15.42715,38.06934],[15.43514,38.06631],[15.44088,38.06398],[15.44132,38.06422],[15.44191,38.06447],[15.44252,38.06457],[15.44537,38.06502],[15.44757,38.06475],[15.45557,38.06066],[15.45824,38.05925],[15.45997,38.05771],[15.46611,38.05549],[15.47721,38.05459]]]]}}]}