{"type":"Feature","properties":{"name":"Toscana"},"geometry":{"type":"MultiPolygon","coordinates":[[[[11.1379,42.43464],[11.0976,42.44002],[11.08974,42.40829],[11.09801,42.3932],[11.14238,42.37731],[11.15269,42.36133],[11.18818,42.37203],[11.21252,42.38719],[11.2063,42.40474],[11.24353,42.41849],[11.27917,42.41585],[11.3041,42.4075],[11.38305,42.39506],[11.44985,42.37754],[11.45665,42.40082],[11.48193,42.41979],[11.48889,42.43937],[11.51658,42.43356],[11.54351,42.44211],[11.61771,42.43604],[11.61596,42.48864],[11.56124,42.51729],[11.58435,42.54275],[11.57856,42.56621],[11.60089,42.5698],[11.61619,42.55987],[11.68594,42.58484],[11.68005,42.59531],[11.71162,42.61103],[11.73313,42.60606],[11.75183,42.6256],[11.80478,42.644],[11.80841,42.65975],[11.78452,42.67132],[11.78114,42.70533],[11.79708,42.70651],[11.81866,42.74577],[11.77942,42.75802],[11.75927,42.78224],[11.75335,42.80224],[11.77587,42.82067],[11.803,42.80097],[11.81545,42.82376],[11.85059,42.83868],[11.89496,42.83467],[11.92902,42.86929],[11.95866,42.87106],[11.95881,42.89165],[11.93272,42.9085],[11.94855,42.96196],[11.97194,43.0223],[11.98082,43.05637],[11.95659,43.06868],[11.93638,43.05563],[11.92375,43.07522],[11.93041,43.0943],[11.92094,43.11759],[11.92403,43.14778],[11.98748,43.18052],[12.00642,43.18053],[12.02749,43.19162],[12.03965,43.22899],[12.03396,43.2467],[12.0489,43.25311],[12.08592,43.23633],[12.12182,43.25519],[12.14858,43.25462],[12.16643,43.26872],[12.21006,43.28273],[12.22371,43.29626],[12.19382,43.31307],[12.17817,43.28308],[12.13252,43.29307],[12.13546,43.3417],[12.11877,43.36436],[12.07303,43.37041],[12.07783,43.39869],[12.03294,43.40022],[12.02521,43.41557],[12.05688,43.43825],[12.08029,43.43385],[12.10403,43.46045],[12.14123,43.46893],[12.13096,43.48264],[12.09509,43.49916],[12.09089,43.51123],[12.10273,43.52993],[12.1421,43.53577],[12.16266,43.56137],[12.21383,43.61088],[12.18722,43.63604],[12.20369,43.65174],[12.23266,43.6556],[12.25108,43.67257],[12.27348,43.67596],[12.32077,43.69467],[12.33012,43.70704],[12.36819,43.7151],[12.32707,43.75101],[12.28378,43.76492],[12.20931,43.75707],[12.19463,43.73192],[12.16405,43.76226],[12.12358,43.74915],[12.10855,43.75306],[12.07706,43.74065],[12.053,43.75697],[12.00639,43.76652],[11.98651,43.76193],[11.95338,43.77609],[11.94706,43.79087],[11.91879,43.79369],[11.89643,43.80778],[11.85606,43.8159],[11.82455,43.81549],[11.78446,43.84758],[11.73248,43.86317],[11.71017,43.87745],[11.71703,43.92182],[11.68238,43.93827],[11.68879,43.95902],[11.65493,43.9747],[11.64564,43.98938],[11.69491,44.03534],[11.70943,44.0666],[11.73462,44.08546],[11.74888,44.10414],[11.74418,44.12607],[11.7203,44.12071],[11.67802,44.12218],[11.65382,44.10254],[11.59729,44.12515],[11.61776,44.14623],[11.61536,44.15825],[11.55245,44.16534],[11.54482,44.15261],[11.50598,44.16347],[11.48016,44.18379],[11.44763,44.19949],[11.4513,44.22057],[11.42611,44.23505],[11.39833,44.22268],[11.38055,44.2],[11.34281,44.20582],[11.32262,44.18224],[11.28071,44.15534],[11.23464,44.15841],[11.19585,44.14354],[11.21836,44.1294],[11.26023,44.11584],[11.24804,44.09757],[11.21458,44.09888],[11.1592,44.11242],[11.12764,44.10968],[11.09322,44.09446],[11.05428,44.0915],[11.02911,44.09581],[11.00201,44.11089],[10.99496,44.1308],[10.96849,44.11382],[10.96695,44.10326],[10.91825,44.06301],[10.89914,44.06648],[10.9028,44.08609],[10.87871,44.09862],[10.84866,44.09806],[10.8428,44.10963],[10.81915,44.11245],[10.76615,44.14068],[10.74393,44.15624],[10.66168,44.15385],[10.64121,44.15984],[10.62375,44.14121],[10.62406,44.12037],[10.5931,44.11542],[10.57751,44.1319],[10.53226,44.15504],[10.52294,44.17484],[10.48521,44.2045],[10.4929,44.217],[10.46494,44.23114],[10.43026,44.22743],[10.4074,44.24931],[10.37159,44.26938],[10.34276,44.26963],[10.29662,44.28546],[10.25386,44.26858],[10.22918,44.29673],[10.16791,44.32991],[10.14203,44.35387],[10.09899,44.34617],[10.05318,44.37303],[10.0217,44.38293],[9.98928,44.40433],[10.00694,44.43173],[9.98067,44.44504],[9.97071,44.46444],[9.92205,44.47229],[9.82772,44.46828],[9.73207,44.37938],[9.7063,44.36619],[9.72946,44.32833],[9.75831,44.31835],[9.76418,44.30552],[9.80571,44.2828],[9.81478,44.28621],[9.85153,44.27086],[9.86116,44.25076],[9.85703,44.23403],[9.87536,44.22394],[9.87441,44.1953],[9.89715,44.20992],[9.92812,44.19561],[9.89237,44.16802],[9.96647,44.16943],[9.97901,44.16103],[9.97635,44.13955],[10.00213,44.10765],[10.01789,44.11928],[10.04614,44.11547],[10.06926,44.098],[10.06622,44.08617],[10.02869,44.05917],[10.01877,44.04448],[10.06693,44.02666],[10.13749,43.98049],[10.18091,43.94262],[10.23122,43.88284],[10.26101,43.80791],[10.2776,43.73752],[10.2826,43.68642],[10.27256,43.6719],[10.2856,43.64219],[10.29565,43.5687],[10.29558,43.54137],[10.31893,43.51031],[10.33045,43.47384],[10.38219,43.44582],[10.40678,43.4088],[10.42499,43.39838],[10.46523,43.31671],[10.50152,43.29084],[10.52584,43.24035],[10.53454,43.19983],[10.53978,43.13414],[10.53162,43.05253],[10.51572,43.00252],[10.50599,42.99036],[10.483,42.98839],[10.48392,42.9672],[10.49906,42.93595],[10.52118,42.92257],[10.54206,42.93162],[10.56349,42.95146],[10.59386,42.95428],[10.67962,42.94914],[10.71229,42.94001],[10.75563,42.92094],[10.77545,42.90735],[10.78663,42.88823],[10.76943,42.86949],[10.77602,42.84371],[10.76283,42.81286],[10.73327,42.80349],[10.7846,42.77566],[10.84622,42.76907],[10.91181,42.75344],[10.95154,42.73689],[10.9827,42.71311],[11.01534,42.65545],[11.06259,42.63903],[11.08622,42.62582],[11.08172,42.61552],[11.10484,42.59684],[11.11718,42.56583],[11.15817,42.56205],[11.19042,42.51738],[11.18965,42.48141],[11.16613,42.43764],[11.1379,42.43464]]],[[[10.09841,42.5889],[10.08652,42.60332],[10.05213,42.57387],[10.10029,42.57489],[10.09841,42.5889]]],[[[10.26537,42.74474],[10.28999,42.73871],[10.29196,42.75406],[10.34461,42.76395],[10.3847,42.71399],[10.43166,42.7126],[10.43277,42.73489],[10.41102,42.74379],[10.40162,42.75745],[10.43371,42.77503],[10.42932,42.80744],[10.44402,42.84685],[10.40772,42.87134],[10.37926,42.8275],[10.36027,42.81799],[10.35743,42.79933],[10.31737,42.80464],[10.31617,42.82006],[10.27521,42.81751],[10.26941,42.80346],[10.21958,42.7931],[10.18944,42.80994],[10.14135,42.80715],[10.10332,42.78658],[10.10369,42.76761],[10.12224,42.74178],[10.15143,42.73051],[10.18814,42.73625],[10.2367,42.72605],[10.23756,42.74792],[10.26537,42.74474]]],[[[9.83548,43.04912],[9.82557,43.0729],[9.80288,43.05026],[9.79606,43.02594],[9.81008,43.00229],[9.84182,43.02983],[9.83548,43.04912]]],[[[10.33001,42.3222],[10.32749,42.34268],[10.31296,42.35086],[10.29267,42.34425],[10.29374,42.31735],[10.31542,42.31419],[10.33001,42.3222]]],[[[12.19935,43.77038],[12.21438,43.78349],[12.23726,43.787],[12.238,43.8004],[12.16976,43.80463],[12.18614,43.77413],[12.19935,43.77038]]],[[[10.88661,42.38966],[10.88242,42.35186],[10.89967,42.3304],[10.92926,42.32553],[10.92468,42.35531],[10.90409,42.38324],[10.88661,42.38966]]]]}}