{"type":"FeatureCollection","_provenance":{"source":"ISTAT comune boundaries (openpolis/geojson-italy) dissolved per MASAF disciplinare comune lists","authority":"ISTAT (comune geometry); MASAF disciplinari (membership)","download":"https://github.com/openpolis/geojson-italy","licence":"CC BY 4.0","attribution":"ISTAT","method":"comune-union; interior rings dropped","retrieved":"2026-08-19","note":"Trentino (Trento province) comune-union. Trentino=Trentino DOC umbrella (63 current ISTAT comuni reconciling the disciplinare list post-2014/20 mergers; Faedo covered by San Michele all Adige). Teroldego Rotaliano=Campo Rotaliano."},"features":[{"type":"Feature","properties":{"key":"teroldego-rotaliano","name":"Teroldego Rotaliano"},"geometry":{"type":"MultiPolygon","coordinates":[[[[11.10277,46.18046],[11.10676,46.18137],[11.11297,46.17972],[11.1113,46.17469],[11.11199,46.17468],[11.11263,46.17467],[11.11408,46.17468],[11.11457,46.17473],[11.11963,46.17578],[11.12089,46.17756],[11.12774,46.17962],[11.12813,46.17918],[11.12836,46.17893],[11.12855,46.17878],[11.12873,46.17871],[11.12987,46.17857],[11.13007,46.17854],[11.13165,46.17838],[11.13287,46.17828],[11.13319,46.17826],[11.13398,46.17881],[11.13427,46.17901],[11.13535,46.17986],[11.13592,46.18032],[11.13597,46.18038],[11.13609,46.18054],[11.1368,46.1831],[11.13972,46.18739],[11.14797,46.1887],[11.154,46.18769],[11.15698,46.18604],[11.15722,46.18564],[11.15739,46.18543],[11.16009,46.18405],[11.16075,46.18375],[11.16137,46.18352],[11.16198,46.18337],[11.16241,46.18334],[11.16298,46.18353],[11.16354,46.18376],[11.1637,46.18387],[11.16377,46.18392],[11.1663,46.18599],[11.17606,46.19945],[11.18015,46.20684],[11.17433,46.21393],[11.17711,46.21706],[11.17591,46.22556],[11.17269,46.22889],[11.17606,46.23144],[11.17464,46.23267],[11.17377,46.2329],[11.17189,46.23352],[11.17086,46.23408],[11.17073,46.23428],[11.16905,46.23747],[11.16841,46.23892],[11.16987,46.2398],[11.17138,46.24049],[11.17269,46.24102],[11.17556,46.24292],[11.17758,46.24462],[11.17845,46.2454],[11.17967,46.24658],[11.18029,46.24816],[11.17911,46.24817],[11.17003,46.24404],[11.163,46.23769],[11.1572,46.24135],[11.15574,46.24231],[11.15569,46.24235],[11.15572,46.25333],[11.14571,46.25694],[11.1455,46.25666],[11.14441,46.25529],[11.14015,46.25657],[11.13966,46.25672],[11.13886,46.25696],[11.13307,46.25883],[11.13197,46.25828],[11.12174,46.24905],[11.11749,46.24361],[11.11676,46.24327],[11.10867,46.24214],[11.0965,46.24234],[11.09117,46.24315],[11.07647,46.23653],[11.07258,46.23272],[11.07088,46.23099],[11.06907,46.23114],[11.06713,46.23049],[11.06285,46.22623],[11.06518,46.21631],[11.06616,46.2141],[11.06692,46.2125],[11.06738,46.21158],[11.06878,46.21107],[11.06991,46.21072],[11.07329,46.20424],[11.07176,46.20283],[11.07004,46.20234],[11.06997,46.20231],[11.06986,46.20226],[11.06899,46.20177],[11.06851,46.20147],[11.06829,46.20133],[11.06817,46.20126],[11.06814,46.20101],[11.06813,46.20068],[11.06815,46.20056],[11.06817,46.20043],[11.0682,46.20033],[11.06839,46.19988],[11.06854,46.19953],[11.06859,46.19944],[11.06867,46.19933],[11.07012,46.19743],[11.07059,46.19687],[11.07082,46.19663],[11.07101,46.19646],[11.07133,46.19631],[11.07672,46.19655],[11.08094,46.19677],[11.08107,46.19687],[11.08136,46.19774],[11.08172,46.19888],[11.08176,46.1991],[11.08171,46.19941],[11.0848,46.20034],[11.08967,46.19967],[11.09019,46.19892],[11.09111,46.19511],[11.09079,46.1941],[11.08679,46.18464],[11.08393,46.1818],[11.08859,46.17888],[11.08907,46.17865],[11.09105,46.17797],[11.09145,46.17785],[11.09168,46.17781],[11.09227,46.17776],[11.09275,46.17771],[11.09577,46.18074],[11.10277,46.18046]]]]}},{"type":"Feature","properties":{"key":"trentino","name":"Trentino"},"geometry":{"type":"MultiPolygon","coordinates":[[[[11.1459,45.71695],[11.15337,45.71858],[11.16287,45.72527],[11.1729,45.73176],[11.17376,45.73216],[11.1741,45.73247],[11.17416,45.73253],[11.17433,45.73273],[11.17453,45.73296],[11.17694,45.73583],[11.17843,45.73806],[11.17704,45.74226],[11.17613,45.74742],[11.17631,45.75162],[11.17774,45.75673],[11.17945,45.76074],[11.18024,45.76185],[11.18028,45.76196],[11.1803,45.762],[11.18045,45.76236],[11.1806,45.76276],[11.18066,45.76291],[11.1805,45.7649],[11.17981,45.77255],[11.1798,45.77268],[11.17978,45.77286],[11.17906,45.77522],[11.17735,45.77992],[11.17518,45.7828],[11.17376,45.78611],[11.17397,45.78708],[11.17567,45.78789],[11.17574,45.78791],[11.17594,45.78797],[11.17679,45.78817],[11.17703,45.78821],[11.17813,45.78814],[11.17838,45.78811],[11.17938,45.78772],[11.18413,45.78519],[11.18739,45.78312],[11.18827,45.78242],[11.18832,45.78238],[11.18865,45.78213],[11.18889,45.78203],[11.1891,45.78195],[11.18943,45.78181],[11.19007,45.78162],[11.19077,45.78157],[11.19212,45.78154],[11.19302,45.78155],[11.19836,45.78159],[11.19852,45.78159],[11.19874,45.78159],[11.1988,45.78161],[11.2002,45.78199],[11.20103,45.78222],[11.20279,45.78337],[11.19982,45.7864],[11.19328,45.79561],[11.19385,45.80207],[11.19093,45.80211],[11.19073,45.80221],[11.19049,45.80249],[11.1902,45.80291],[11.18999,45.80339],[11.18981,45.80382],[11.1896,45.80435],[11.18945,45.80489],[11.1885,45.81186],[11.18867,45.81311],[11.18882,45.81357],[11.18914,45.81404],[11.19104,45.81668],[11.19109,45.81675],[11.19114,45.81678],[11.19134,45.81691],[11.19159,45.81706],[11.19166,45.8171],[11.19182,45.8172],[11.19221,45.8173],[11.19236,45.8173],[11.19239,45.8173],[11.19323,45.81708],[11.19348,45.81701],[11.19787,45.81987],[11.19867,45.82419],[11.20012,45.82525],[11.20032,45.82539],[11.20271,45.82696],[11.20282,45.82702],[11.20285,45.82704],[11.20313,45.82709],[11.20418,45.82728],[11.20483,45.82738],[11.20548,45.82748],[11.21532,45.83096],[11.2188,45.8326],[11.21904,45.8329],[11.21869,45.83464],[11.21828,45.84146],[11.21845,45.84396],[11.2189,45.84493],[11.21916,45.84549],[11.2197,45.84641],[11.22018,45.84718],[11.22052,45.84774],[11.22086,45.8481],[11.22186,45.84896],[11.22138,45.85015],[11.21591,45.86267],[11.21264,45.87006],[11.2125,45.87027],[11.2122,45.87062],[11.21164,45.87126],[11.21076,45.87222],[11.21034,45.87256],[11.20944,45.8732],[11.2033,45.87615],[11.20133,45.87699],[11.20074,45.87719],[11.20003,45.87727],[11.19944,45.87731],[11.18799,45.88162],[11.18775,45.88209],[11.187,45.88282],[11.18587,45.88387],[11.18526,45.88436],[11.18134,45.88707],[11.18105,45.88718],[11.17961,45.88768],[11.17926,45.88776],[11.17508,45.88818],[11.17258,45.8879],[11.17014,45.88729],[11.16615,45.88622],[11.16058,45.88632],[11.16041,45.88632],[11.15994,45.88635],[11.15989,45.88635],[11.15917,45.88646],[11.15912,45.88646],[11.14974,45.88831],[11.13946,45.89057],[11.13636,45.89137],[11.1342,45.89242],[11.13376,45.89272],[11.133,45.8931],[11.13241,45.89336],[11.13204,45.89351],[11.12949,45.89445],[11.12762,45.89481],[11.12401,45.89395],[11.11834,45.901],[11.11834,45.9011],[11.11845,45.9017],[11.11857,45.90227],[11.11995,45.90696],[11.12031,45.908],[11.12081,45.90932],[11.12099,45.90974],[11.12191,45.91137],[11.12264,45.91201],[11.12401,45.9138],[11.12469,45.91568],[11.12521,45.91778],[11.12515,45.91999],[11.12462,45.92112],[11.12421,45.92172],[11.13498,45.92685],[11.14403,45.93114],[11.15494,45.93689],[11.16,45.94019],[11.16352,45.94231],[11.16426,45.94273],[11.16513,45.94313],[11.16538,45.94317],[11.18224,45.94456],[11.18552,45.94452],[11.18552,45.9443],[11.18558,45.94349],[11.1858,45.94275],[11.18585,45.94264],[11.18588,45.94258],[11.18656,45.94168],[11.19106,45.9388],[11.19147,45.93856],[11.19173,45.93841],[11.19241,45.93809],[11.19275,45.938],[11.19328,45.93797],[11.19518,45.93917],[11.19891,45.94158],[11.19978,45.94217],[11.20489,45.94528],[11.20946,45.94711],[11.2143,45.94599],[11.2229,45.94694],[11.23035,45.95255],[11.23204,45.95406],[11.23214,45.95419],[11.23352,45.95619],[11.23686,45.9545],[11.23693,45.95498],[11.23747,45.95553],[11.23761,45.95568],[11.23897,45.95634],[11.23923,45.95647],[11.23945,45.95658],[11.24081,45.95723],[11.2443,45.95873],[11.2567,45.96335],[11.26459,45.96401],[11.27235,45.96435],[11.28048,45.9645],[11.28537,45.96384],[11.28705,45.96308],[11.28864,45.96237],[11.2932,45.96102],[11.29547,45.96039],[11.29676,45.96006],[11.29788,45.95983],[11.29929,45.95973],[11.30032,45.95969],[11.30128,45.95969],[11.30231,45.95972],[11.3038,45.95982],[11.31173,45.96053],[11.31523,45.9607],[11.31545,45.96058],[11.31584,45.95981],[11.31836,45.95482],[11.32004,45.95053],[11.32089,45.94994],[11.32464,45.94764],[11.32541,45.94732],[11.32603,45.94709],[11.327,45.94681],[11.32993,45.94614],[11.33021,45.94609],[11.33088,45.94596],[11.33232,45.94572],[11.33605,45.94546],[11.35041,45.94446],[11.3583,45.94366],[11.36157,45.94298],[11.36344,45.94259],[11.36351,45.94258],[11.36357,45.94257],[11.36404,45.94248],[11.36427,45.94243],[11.36434,45.94242],[11.36521,45.9423],[11.3662,45.94222],[11.36693,45.94217],[11.36718,45.94215],[11.36722,45.94215],[11.36785,45.94215],[11.36975,45.94215],[11.36983,45.94215],[11.36986,45.94215],[11.36997,45.94215],[11.37045,45.94216],[11.37146,45.94222],[11.38006,45.94284],[11.38236,45.94786],[11.38331,45.95103],[11.37791,45.95717],[11.37613,45.96112],[11.37242,45.97323],[11.37255,45.97484],[11.37325,45.98237],[11.37329,45.98274],[11.37338,45.98321],[11.37374,45.9835],[11.37401,45.98359],[11.37436,45.98367],[11.37676,45.98413],[11.37849,45.98405],[11.38098,45.98349],[11.39573,45.98048],[11.40015,45.9801],[11.40087,45.98011],[11.41328,45.981],[11.42826,45.98065],[11.44666,45.98092],[11.4484,45.98174],[11.44915,45.98213],[11.4522,45.98383],[11.45595,45.98669],[11.46211,45.99195],[11.46533,45.99454],[11.47275,45.99779],[11.48398,46.00138],[11.48598,46.00383],[11.48848,46.00676],[11.48986,46.00775],[11.4912,46.00855],[11.49178,46.00886],[11.49348,46.00945],[11.49412,46.00964],[11.49419,46.00965],[11.50101,46.01089],[11.5036,46.01097],[11.5107,46.012],[11.51146,46.01136],[11.51344,46.01026],[11.51689,46.0093],[11.51935,46.0107],[11.52205,46.01141],[11.52572,46.01172],[11.53372,46.01214],[11.5394,46.01187],[11.53961,46.01187],[11.54452,46.01176],[11.55233,46.01167],[11.55687,46.01033],[11.56002,46.0087],[11.56139,46.00801],[11.56619,46.00606],[11.57558,46.00614],[11.57723,46.00652],[11.58233,46.00898],[11.58461,46.00916],[11.58779,46.01423],[11.58886,46.01596],[11.58958,46.01713],[11.5909,46.01975],[11.59147,46.02087],[11.59468,46.02632],[11.59949,46.03175],[11.59825,46.0331],[11.58891,46.03973],[11.58198,46.04497],[11.58392,46.05307],[11.58618,46.05792],[11.58075,46.06315],[11.5786,46.0653],[11.56543,46.0734],[11.56283,46.07529],[11.56125,46.07496],[11.55762,46.07406],[11.55396,46.07285],[11.55219,46.07193],[11.55135,46.0715],[11.55102,46.07152],[11.54576,46.07231],[11.54041,46.0762],[11.53965,46.07802],[11.53954,46.07829],[11.5387,46.08118],[11.53845,46.08279],[11.53829,46.08413],[11.53841,46.08499],[11.54827,46.09272],[11.55609,46.10845],[11.55697,46.11861],[11.5571,46.12253],[11.55702,46.12291],[11.55574,46.12578],[11.56735,46.12764],[11.56749,46.12765],[11.56891,46.12785],[11.56922,46.12795],[11.56944,46.12806],[11.57026,46.12913],[11.57214,46.1332],[11.57179,46.136],[11.57059,46.13581],[11.56924,46.13562],[11.56844,46.13552],[11.56769,46.13551],[11.5668,46.13598],[11.56467,46.13742],[11.56457,46.13753],[11.56456,46.13765],[11.56476,46.13822],[11.5651,46.13918],[11.56553,46.14033],[11.56586,46.14119],[11.56665,46.14311],[11.57086,46.14594],[11.56881,46.14847],[11.56624,46.15315],[11.56583,46.154],[11.56348,46.15988],[11.56143,46.16491],[11.55997,46.16848],[11.55928,46.16873],[11.55777,46.16929],[11.5526,46.17319],[11.55069,46.17491],[11.55047,46.17509],[11.54774,46.17744],[11.53756,46.18029],[11.53644,46.1772],[11.5333,46.17124],[11.53042,46.16742],[11.52697,46.16354],[11.52623,46.16277],[11.52522,46.16194],[11.52242,46.16619],[11.51201,46.1743],[11.49994,46.1818],[11.49957,46.18218],[11.49948,46.18227],[11.49823,46.18413],[11.49817,46.18433],[11.49814,46.18458],[11.49816,46.18493],[11.4982,46.18515],[11.49843,46.18578],[11.49733,46.18511],[11.49473,46.18381],[11.49375,46.18335],[11.4935,46.18327],[11.49201,46.18278],[11.48684,46.18124],[11.48608,46.18111],[11.48581,46.18108],[11.47244,46.17891],[11.4625,46.17481],[11.45424,46.17218],[11.43977,46.17502],[11.42777,46.17131],[11.41926,46.16477],[11.41565,46.16387],[11.40568,46.16256],[11.405,46.16248],[11.40259,46.16321],[11.40018,46.16456],[11.39928,46.1651],[11.39212,46.16823],[11.38818,46.16593],[11.3841,46.16319],[11.379,46.16027],[11.37539,46.15851],[11.37432,46.1581],[11.37378,46.15794],[11.37275,46.15767],[11.3721,46.15751],[11.37161,46.15742],[11.3736,46.15624],[11.37371,46.15614],[11.37394,46.15597],[11.37455,46.15548],[11.38529,46.14485],[11.38804,46.1406],[11.38872,46.13821],[11.39038,46.13631],[11.40174,46.1327],[11.40277,46.13233],[11.39924,46.12538],[11.40008,46.12543],[11.40343,46.12558],[11.41988,46.12406],[11.42012,46.1239],[11.42501,46.11542],[11.42715,46.11015],[11.43202,46.10115],[11.4393,46.09366],[11.44403,46.0908],[11.44692,46.08974],[11.44949,46.0888],[11.45315,46.08521],[11.45552,46.08204],[11.46411,46.06876],[11.461,46.06412],[11.45964,46.06225],[11.45966,46.06383],[11.45964,46.06577],[11.45956,46.06582],[11.45644,46.06524],[11.45474,46.06465],[11.45079,46.06406],[11.44796,46.06374],[11.44693,46.06381],[11.44618,46.0643],[11.44209,46.06244],[11.43372,46.06221],[11.427,46.05748],[11.42757,46.06227],[11.41292,46.07363],[11.39862,46.08389],[11.39617,46.08513],[11.39379,46.08632],[11.39337,46.08642],[11.3933,46.08643],[11.39301,46.08646],[11.39219,46.08656],[11.3911,46.08652],[11.39004,46.08659],[11.3889,46.08704],[11.3885,46.08731],[11.38789,46.08782],[11.38713,46.08986],[11.38652,46.09195],[11.38692,46.09342],[11.38674,46.09373],[11.3866,46.09386],[11.38496,46.09502],[11.38445,46.09513],[11.3824,46.09546],[11.38222,46.09546],[11.3813,46.09526],[11.3808,46.09513],[11.37953,46.09462],[11.37912,46.09444],[11.37894,46.09431],[11.37849,46.09382],[11.37708,46.09317],[11.3744,46.09313],[11.37163,46.09427],[11.37039,46.09511],[11.37011,46.09493],[11.36957,46.09461],[11.36423,46.09418],[11.36157,46.09438],[11.36079,46.0944],[11.35967,46.0943],[11.35906,46.09326],[11.3589,46.09296],[11.35666,46.08858],[11.35567,46.0844],[11.35579,46.08215],[11.35574,46.08169],[11.35475,46.08013],[11.35242,46.07709],[11.35126,46.0761],[11.34667,46.07265],[11.34213,46.06516],[11.34117,46.06055],[11.33448,46.05003],[11.31858,46.05812],[11.30783,46.06121],[11.30201,46.0611],[11.30755,46.04921],[11.30478,46.04532],[11.29936,46.03734],[11.2906,46.03488],[11.28364,46.03138],[11.27704,46.0266],[11.27622,46.02728],[11.27497,46.02836],[11.27442,46.02894],[11.27386,46.02954],[11.27309,46.03039],[11.27462,46.03124],[11.2824,46.03601],[11.28339,46.03664],[11.28343,46.03671],[11.26568,46.0461],[11.26337,46.04632],[11.26097,46.04804],[11.26023,46.0488],[11.25789,46.05249],[11.25828,46.05735],[11.26207,46.05751],[11.26277,46.05747],[11.26288,46.06064],[11.25791,46.06418],[11.26467,46.07131],[11.268,46.07324],[11.26856,46.07355],[11.27021,46.07428],[11.27146,46.07467],[11.27717,46.07561],[11.27776,46.07536],[11.28009,46.07412],[11.28109,46.07351],[11.2835,46.0719],[11.28555,46.07495],[11.28612,46.07583],[11.28678,46.07764],[11.28395,46.07999],[11.28458,46.08256],[11.28523,46.08466],[11.28284,46.08595],[11.27934,46.0878],[11.27748,46.08846],[11.27046,46.09088],[11.26925,46.09161],[11.26831,46.09301],[11.26822,46.09315],[11.26658,46.10044],[11.26625,46.10226],[11.26676,46.1045],[11.26122,46.10169],[11.25078,46.09985],[11.24577,46.0991],[11.24429,46.09891],[11.24238,46.09873],[11.24085,46.09833],[11.23866,46.09738],[11.2373,46.09671],[11.23251,46.09382],[11.22734,46.09019],[11.22716,46.09007],[11.22689,46.09],[11.22632,46.08987],[11.22583,46.08979],[11.22537,46.08979],[11.22518,46.0898],[11.22373,46.09067],[11.22063,46.0945],[11.22054,46.09736],[11.22128,46.0994],[11.22145,46.10008],[11.22201,46.10286],[11.22192,46.10444],[11.22169,46.10777],[11.22158,46.1082],[11.2211,46.10933],[11.2202,46.10977],[11.21707,46.11032],[11.20838,46.10808],[11.20254,46.10662],[11.20067,46.1063],[11.19923,46.10652],[11.18955,46.11037],[11.1886,46.11086],[11.18719,46.11835],[11.18828,46.12279],[11.18906,46.12569],[11.18971,46.12682],[11.19431,46.12886],[11.19502,46.1292],[11.19567,46.12951],[11.19943,46.13234],[11.201,46.13415],[11.20159,46.13499],[11.2017,46.1352],[11.20261,46.13712],[11.2028,46.13767],[11.20307,46.13871],[11.20323,46.13916],[11.20369,46.13993],[11.20422,46.14068],[11.20481,46.14127],[11.20535,46.14177],[11.20592,46.14226],[11.2086,46.14443],[11.20994,46.15454],[11.21059,46.15436],[11.21067,46.15433],[11.21072,46.15434],[11.21257,46.15465],[11.21272,46.1547],[11.21309,46.15481],[11.21355,46.15497],[11.21736,46.15686],[11.22158,46.15912],[11.22323,46.16029],[11.22544,46.16217],[11.23647,46.16958],[11.23901,46.17082],[11.24003,46.17014],[11.2407,46.16978],[11.24937,46.16671],[11.25287,46.16853],[11.2551,46.16957],[11.26126,46.17175],[11.2632,46.17243],[11.26415,46.17276],[11.26666,46.17272],[11.26974,46.17263],[11.2705,46.17256],[11.27608,46.17208],[11.28185,46.17087],[11.28412,46.17086],[11.29042,46.17243],[11.29128,46.17265],[11.29201,46.17286],[11.2926,46.17313],[11.29317,46.17338],[11.29452,46.174],[11.29534,46.17454],[11.2956,46.1748],[11.2958,46.17507],[11.29674,46.17719],[11.29681,46.17738],[11.29745,46.17897],[11.29777,46.17997],[11.29793,46.18022],[11.29857,46.18115],[11.30061,46.18252],[11.30183,46.18323],[11.30239,46.18355],[11.30819,46.18674],[11.3119,46.18871],[11.31258,46.18902],[11.31333,46.18939],[11.31398,46.18971],[11.31444,46.18996],[11.31505,46.19031],[11.32134,46.19414],[11.32187,46.19559],[11.32201,46.19622],[11.31799,46.20237],[11.31663,46.20599],[11.31521,46.21009],[11.31416,46.21365],[11.31409,46.21413],[11.31405,46.2143],[11.31398,46.21458],[11.31385,46.21505],[11.3137,46.21527],[11.31358,46.21545],[11.31222,46.21727],[11.3119,46.21768],[11.3117,46.2179],[11.30999,46.21968],[11.30971,46.21996],[11.30935,46.22024],[11.30927,46.2203],[11.30867,46.22061],[11.3082,46.22083],[11.3074,46.22108],[11.30725,46.2211],[11.30486,46.22143],[11.3042,46.22112],[11.30386,46.22241],[11.30769,46.22748],[11.31131,46.23158],[11.31772,46.2397],[11.32136,46.24484],[11.31868,46.24794],[11.31658,46.25179],[11.3161,46.25261],[11.31047,46.25617],[11.30681,46.25821],[11.30562,46.25877],[11.29431,46.2609],[11.28512,46.25799],[11.27516,46.2519],[11.2751,46.25185],[11.27402,46.25093],[11.26818,46.24529],[11.26343,46.24165],[11.25025,46.23403],[11.23964,46.22844],[11.21375,46.22162],[11.20643,46.21977],[11.20165,46.22287],[11.19719,46.2239],[11.18498,46.22624],[11.18265,46.22645],[11.17799,46.22955],[11.17682,46.23047],[11.17606,46.23144],[11.17464,46.23267],[11.17424,46.23502],[11.17458,46.23925],[11.17646,46.23897],[11.18067,46.24317],[11.18164,46.2459],[11.18191,46.24859],[11.18206,46.24911],[11.18216,46.24929],[11.18229,46.2495],[11.18242,46.24971],[11.18251,46.24987],[11.18271,46.25018],[11.18345,46.25113],[11.18349,46.25117],[11.18352,46.25121],[11.18359,46.25129],[11.18411,46.25162],[11.18455,46.25189],[11.18521,46.25225],[11.18535,46.25233],[11.18556,46.25244],[11.1859,46.25262],[11.18613,46.25272],[11.18642,46.25278],[11.18708,46.2528],[11.18727,46.2528],[11.18732,46.2528],[11.18787,46.25278],[11.18802,46.25277],[11.18824,46.25276],[11.18832,46.25273],[11.18853,46.25258],[11.18895,46.25228],[11.18919,46.2521],[11.18931,46.25193],[11.18959,46.25109],[11.18984,46.25029],[11.18987,46.25014],[11.18989,46.25001],[11.19631,46.24976],[11.19631,46.24981],[11.19632,46.24991],[11.19636,46.25005],[11.19639,46.25013],[11.19648,46.2503],[11.19707,46.2511],[11.19953,46.25383],[11.20238,46.2556],[11.20076,46.25675],[11.19495,46.25812],[11.18409,46.25906],[11.1768,46.25946],[11.17428,46.2594],[11.17153,46.26046],[11.16594,46.2629],[11.15983,46.26812],[11.15558,46.27262],[11.15277,46.27563],[11.15067,46.27904],[11.15029,46.2795],[11.15019,46.27962],[11.15003,46.27975],[11.14997,46.2798],[11.14978,46.27992],[11.14973,46.27994],[11.14967,46.27998],[11.14677,46.28117],[11.14525,46.28177],[11.13885,46.28331],[11.13881,46.28333],[11.13424,46.28499],[11.11688,46.28959],[11.10931,46.2881],[11.0918,46.28417],[11.08009,46.28166],[11.07083,46.27797],[11.07021,46.27591],[11.06862,46.27365],[11.06727,46.2726],[11.06618,46.27184],[11.06208,46.2705],[11.06424,46.26865],[11.06214,46.26568],[11.06183,46.26239],[11.06167,46.25901],[11.06162,46.25761],[11.05973,46.24236],[11.0618,46.23456],[11.05901,46.23678],[11.0533,46.23614],[11.04539,46.23333],[11.04001,46.2285],[11.03409,46.22628],[11.03111,46.2208],[11.02819,46.21759],[11.01752,46.21265],[11.01687,46.21235],[11.01486,46.21147],[11.01077,46.20968],[11.00442,46.20751],[11.00258,46.20709],[11.00179,46.20693],[11.0006,46.20672],[10.99978,46.20694],[10.99833,46.20808],[10.99734,46.20904],[10.98656,46.20762],[10.97528,46.20397],[10.97068,46.20444],[10.96582,46.21127],[10.96534,46.21253],[10.96634,46.21374],[10.96978,46.21555],[10.95077,46.21276],[10.95213,46.20831],[10.95224,46.2067],[10.95215,46.20459],[10.95124,46.20363],[10.94608,46.20164],[10.94557,46.20151],[10.94475,46.20133],[10.94294,46.20096],[10.93398,46.19423],[10.93038,46.18959],[10.93321,46.18851],[10.93842,46.18623],[10.94065,46.18406],[10.94524,46.18032],[10.95029,46.17846],[10.95118,46.17901],[10.95254,46.17959],[10.95388,46.17936],[10.9606,46.17811],[10.96246,46.17772],[10.96592,46.17945],[10.96679,46.18149],[10.96697,46.18192],[10.96753,46.18341],[10.98038,46.1857],[10.99333,46.18818],[10.99897,46.18911],[11.00596,46.189],[11.01701,46.19143],[11.01719,46.19149],[11.01872,46.19285],[11.01948,46.19364],[11.02128,46.1958],[11.02312,46.19807],[11.02819,46.20165],[11.02887,46.20176],[11.03018,46.2019],[11.03096,46.20181],[11.03286,46.20106],[11.03461,46.19921],[11.03485,46.19869],[11.04108,46.19171],[11.04553,46.1901],[11.05148,46.18969],[11.05582,46.19046],[11.06355,46.19641],[11.06361,46.1965],[11.06433,46.19783],[11.06452,46.1982],[11.06496,46.19911],[11.06538,46.20011],[11.0657,46.20385],[11.0657,46.20469],[11.06951,46.20279],[11.07004,46.20234],[11.06997,46.20231],[11.06986,46.20226],[11.06899,46.20177],[11.06851,46.20147],[11.06829,46.20133],[11.06817,46.20126],[11.06814,46.20101],[11.06813,46.20068],[11.06815,46.20056],[11.06817,46.20043],[11.0682,46.20033],[11.06839,46.19988],[11.06854,46.19953],[11.06859,46.19944],[11.06867,46.19933],[11.07012,46.19743],[11.07059,46.19687],[11.07082,46.19663],[11.07101,46.19646],[11.07133,46.19631],[11.07672,46.19655],[11.08094,46.19677],[11.08107,46.19687],[11.08136,46.19774],[11.08172,46.19888],[11.08176,46.1991],[11.08171,46.19941],[11.0848,46.20034],[11.08967,46.19967],[11.09019,46.19892],[11.09111,46.19511],[11.09079,46.1941],[11.08679,46.18464],[11.08393,46.1818],[11.0842,46.18137],[11.08441,46.17937],[11.0844,46.17903],[11.08426,46.17812],[11.08418,46.17779],[11.08417,46.17776],[11.08411,46.17763],[11.08399,46.17751],[11.07512,46.1719],[11.0678,46.16937],[11.06609,46.17013],[11.06256,46.17163],[11.06184,46.17192],[11.05761,46.16917],[11.05572,46.16793],[11.05419,46.16649],[11.05393,46.16545],[11.05377,46.16338],[11.05298,46.15831],[11.05168,46.15178],[11.05134,46.15099],[11.05025,46.15018],[11.05011,46.15007],[11.04985,46.14988],[11.04924,46.14957],[11.04875,46.14936],[11.0495,46.14591],[11.05062,46.14518],[11.05069,46.14509],[11.05056,46.14479],[11.04754,46.14222],[11.04115,46.14106],[11.03692,46.1418],[11.03779,46.14776],[11.04021,46.15714],[11.04599,46.16761],[11.04911,46.17245],[11.05183,46.175],[11.05179,46.1752],[11.05169,46.17538],[11.05154,46.17548],[11.05139,46.17552],[11.04934,46.17583],[11.04282,46.17415],[11.02905,46.16967],[11.02823,46.16916],[11.02762,46.16855],[11.0275,46.16786],[11.02617,46.16412],[11.02502,46.16172],[11.02143,46.1556],[11.01994,46.15288],[11.02013,46.15194],[11.02091,46.15129],[11.01587,46.1491],[10.99951,46.14399],[10.99926,46.14415],[10.99897,46.14434],[10.99651,46.14472],[10.99394,46.14361],[10.99307,46.14313],[10.9912,46.14189],[10.99055,46.14143],[10.98737,46.13897],[10.9846,46.1365],[10.98202,46.13179],[10.98034,46.12761],[10.97484,46.11897],[10.9677,46.11406],[10.96307,46.11513],[10.95886,46.11498],[10.95408,46.11343],[10.95055,46.11202],[10.94832,46.11037],[10.9465,46.10916],[10.94557,46.10893],[10.94484,46.10879],[10.94343,46.10862],[10.94231,46.11225],[10.94244,46.11354],[10.94427,46.11622],[10.95026,46.12204],[10.95621,46.12599],[10.95664,46.13456],[10.95315,46.13721],[10.94694,46.14313],[10.92993,46.14633],[10.92895,46.13967],[10.92672,46.13988],[10.92327,46.14281],[10.92304,46.14312],[10.92297,46.1436],[10.92294,46.14424],[10.92293,46.14446],[10.92305,46.1448],[10.92307,46.14487],[10.92327,46.14527],[10.92327,46.14586],[10.92327,46.14592],[10.92315,46.14652],[10.92285,46.14737],[10.92239,46.1486],[10.92216,46.1491],[10.92145,46.14945],[10.9207,46.14976],[10.9202,46.1499],[10.91966,46.15],[10.90181,46.15323],[10.89363,46.15517],[10.88533,46.15544],[10.87517,46.15685],[10.87261,46.15631],[10.86714,46.15483],[10.86506,46.15599],[10.85993,46.15911],[10.85865,46.15992],[10.85636,46.16157],[10.85038,46.17303],[10.84904,46.17634],[10.83928,46.18157],[10.82828,46.18436],[10.827,46.1896],[10.82597,46.1894],[10.82218,46.18805],[10.81586,46.1822],[10.8158,46.18213],[10.81609,46.18068],[10.81681,46.17912],[10.81493,46.17289],[10.81339,46.17133],[10.81347,46.16751],[10.8135,46.16006],[10.81442,46.15771],[10.81196,46.15437],[10.80963,46.15347],[10.80894,46.15314],[10.80337,46.14856],[10.80324,46.14843],[10.80136,46.14482],[10.80132,46.14351],[10.79895,46.13649],[10.79304,46.1302],[10.79145,46.12334],[10.79166,46.12291],[10.78762,46.11181],[10.78796,46.10613],[10.78893,46.10431],[10.7911,46.10003],[10.7912,46.09978],[10.79117,46.09968],[10.79089,46.0991],[10.7908,46.09895],[10.78704,46.0942],[10.78465,46.08969],[10.78454,46.08734],[10.7858,46.0846],[10.78642,46.08467],[10.78782,46.08484],[10.78804,46.08486],[10.79528,46.08585],[10.79912,46.08633],[10.80414,46.08631],[10.80537,46.0862],[10.80705,46.08602],[10.80918,46.08566],[10.8093,46.08562],[10.8093,46.08553],[10.80928,46.0854],[10.81034,46.08194],[10.81186,46.07768],[10.81357,46.07499],[10.81508,46.07329],[10.81647,46.07175],[10.81751,46.0703],[10.8186,46.06787],[10.81891,46.06642],[10.81954,46.06031],[10.81898,46.05927],[10.81879,46.05895],[10.81787,46.05754],[10.8146,46.05383],[10.8077,46.05447],[10.80361,46.04491],[10.79874,46.0452],[10.78938,46.0427],[10.7824,46.03659],[10.78044,46.03633],[10.77751,46.03576],[10.77612,46.03512],[10.77527,46.03452],[10.77415,46.03136],[10.77413,46.03127],[10.77466,46.02546],[10.77906,46.01115],[10.77127,46.00739],[10.76114,46.00287],[10.75477,45.99924],[10.7513,45.99721],[10.75202,45.99377],[10.75078,45.98925],[10.74896,45.98471],[10.74898,45.97774],[10.75023,45.97284],[10.75169,45.96984],[10.7639,45.96645],[10.76371,45.96688],[10.76443,45.96883],[10.76469,45.96901],[10.76496,45.9692],[10.76506,45.96927],[10.7685,45.97166],[10.77147,45.972],[10.7774,45.97193],[10.78203,45.9752],[10.7903,45.98237],[10.79326,45.98567],[10.79493,45.98761],[10.79706,45.99096],[10.79918,45.99419],[10.79968,45.99487],[10.80127,45.9963],[10.80162,45.99641],[10.80756,45.99734],[10.80999,45.99648],[10.81155,45.99335],[10.81415,45.98973],[10.81709,45.99059],[10.81906,45.99362],[10.81965,45.99506],[10.82083,45.99791],[10.8209,45.99909],[10.82099,45.99954],[10.8217,46.0022],[10.82198,46.00314],[10.8235,46.00806],[10.82442,46.01046],[10.82591,46.01205],[10.83262,46.01769],[10.83285,46.01783],[10.83598,46.01894],[10.83822,46.01883],[10.84325,46.01839],[10.85322,46.02087],[10.8546,46.01455],[10.85846,46.0084],[10.85865,46.00837],[10.86093,46.00796],[10.86103,46.00676],[10.86122,46.00116],[10.86123,46.00007],[10.86106,45.99946],[10.85672,45.99258],[10.85124,45.98963],[10.84883,45.98843],[10.83556,45.97766],[10.83359,45.97551],[10.83302,45.97453],[10.83291,45.97399],[10.83295,45.97331],[10.83323,45.97215],[10.83568,45.96488],[10.83607,45.96118],[10.82956,45.95922],[10.82592,45.95888],[10.82059,45.95994],[10.8144,45.95977],[10.80969,45.95946],[10.80399,45.95843],[10.79548,45.96],[10.78429,45.96221],[10.77182,45.96397],[10.76586,45.96425],[10.76606,45.9622],[10.76623,45.96048],[10.76692,45.95784],[10.76727,45.95705],[10.76849,45.95454],[10.77027,45.95131],[10.76886,45.94302],[10.76977,45.94091],[10.76888,45.9392],[10.76547,45.93427],[10.76784,45.92252],[10.76532,45.91282],[10.76457,45.91045],[10.76859,45.90598],[10.77258,45.90302],[10.77927,45.90133],[10.7928,45.89198],[10.80433,45.88635],[10.81292,45.88516],[10.81456,45.88568],[10.81567,45.88563],[10.81684,45.88548],[10.81927,45.88433],[10.81974,45.884],[10.82234,45.88131],[10.8245,45.87867],[10.82459,45.8774],[10.8246,45.87716],[10.8246,45.87682],[10.82403,45.87666],[10.82234,45.87622],[10.82365,45.87452],[10.82881,45.87188],[10.82888,45.87184],[10.82928,45.87166],[10.82964,45.87153],[10.82977,45.87148],[10.83309,45.87037],[10.83406,45.87024],[10.83554,45.86993],[10.85796,45.86438],[10.85321,45.85539],[10.83294,45.8602],[10.82486,45.85911],[10.81546,45.85522],[10.80878,45.85025],[10.80008,45.84073],[10.79878,45.83604],[10.79889,45.83597],[10.79954,45.83555],[10.8008,45.83482],[10.80186,45.83463],[10.8033,45.83444],[10.80358,45.83441],[10.80401,45.83446],[10.82027,45.83688],[10.82289,45.83735],[10.82412,45.83755],[10.82507,45.8377],[10.82539,45.83774],[10.82553,45.83773],[10.82586,45.83769],[10.83733,45.83375],[10.83873,45.83326],[10.83937,45.83304],[10.83992,45.83284],[10.84015,45.83276],[10.84127,45.83238],[10.84536,45.831],[10.85611,45.82739],[10.85706,45.82707],[10.86556,45.82384],[10.87179,45.82144],[10.88159,45.81758],[10.88331,45.81643],[10.88665,45.81292],[10.88726,45.81224],[10.88735,45.81209],[10.88759,45.81165],[10.88758,45.81154],[10.88758,45.81149],[10.88757,45.81116],[10.88754,45.81113],[10.8867,45.81004],[10.88584,45.8094],[10.88549,45.80915],[10.88107,45.80617],[10.8809,45.80614],[10.8803,45.8058],[10.87701,45.80347],[10.87406,45.79493],[10.87319,45.79154],[10.87313,45.79119],[10.87301,45.79054],[10.87272,45.78838],[10.88233,45.7807],[10.88341,45.77976],[10.88382,45.77934],[10.88478,45.77824],[10.88539,45.77557],[10.88519,45.77512],[10.88498,45.77465],[10.88477,45.7743],[10.88462,45.77403],[10.88444,45.77373],[10.88411,45.77323],[10.88379,45.77281],[10.88301,45.77202],[10.88272,45.77194],[10.88228,45.77194],[10.86871,45.76529],[10.86681,45.76399],[10.86524,45.7613],[10.86504,45.75845],[10.86453,45.75361],[10.86373,45.74909],[10.86263,45.74366],[10.86232,45.74368],[10.86188,45.7437],[10.85972,45.74381],[10.8586,45.74387],[10.85826,45.7438],[10.85569,45.74239],[10.85526,45.74209],[10.85503,45.74185],[10.85481,45.74154],[10.84912,45.73245],[10.84446,45.72416],[10.84334,45.72039],[10.84383,45.71859],[10.85132,45.71788],[10.86782,45.71639],[10.87251,45.71579],[10.87476,45.71734],[10.87983,45.71731],[10.88054,45.71731],[10.88095,45.71731],[10.88143,45.71728],[10.88147,45.71728],[10.88438,45.71662],[10.88958,45.71507],[10.88973,45.715],[10.89009,45.71482],[10.89132,45.7142],[10.89373,45.7127],[10.9046,45.70772],[10.915,45.70311],[10.92351,45.70032],[10.926,45.69917],[10.92598,45.69909],[10.92579,45.69887],[10.92533,45.69836],[10.92414,45.69731],[10.9236,45.69691],[10.92353,45.69687],[10.92326,45.69673],[10.92304,45.6966],[10.92288,45.69653],[10.92222,45.69625],[10.92036,45.69542],[10.92009,45.69531],[10.91931,45.69499],[10.91831,45.69459],[10.91825,45.69456],[10.91768,45.69433],[10.91593,45.69353],[10.91405,45.69243],[10.91356,45.69209],[10.91324,45.69185],[10.91305,45.69168],[10.91281,45.69146],[10.91241,45.69103],[10.91223,45.69079],[10.91216,45.6907],[10.91205,45.68995],[10.91201,45.68945],[10.91198,45.68909],[10.91194,45.68856],[10.91197,45.68843],[10.912,45.68831],[10.91949,45.68174],[10.92208,45.67983],[10.92809,45.67751],[10.93536,45.67455],[10.93746,45.67342],[10.94031,45.67317],[10.94121,45.67313],[10.94196,45.67309],[10.9429,45.67306],[10.94299,45.67312],[10.94311,45.67319],[10.9445,45.67407],[10.94504,45.6754],[10.95123,45.68452],[10.962,45.68568],[10.96475,45.68853],[10.96627,45.69356],[10.9722,45.70182],[10.97231,45.70168],[10.97248,45.70144],[10.97251,45.7014],[10.97478,45.69671],[10.97483,45.69657],[10.97487,45.69642],[10.97496,45.69611],[10.97494,45.69597],[10.97492,45.69586],[10.9748,45.69557],[10.97416,45.69469],[10.9739,45.69433],[10.97368,45.69403],[10.97352,45.6938],[10.97319,45.69335],[10.97279,45.69281],[10.97036,45.68932],[10.97009,45.68886],[10.96938,45.68743],[10.96843,45.6847],[10.96832,45.68012],[10.97313,45.68335],[10.97539,45.68417],[10.97875,45.68554],[10.9868,45.68926],[10.98947,45.69072],[10.99547,45.6965],[10.99546,45.70415],[10.99611,45.70798],[11.00665,45.71044],[11.0117,45.71642],[11.01608,45.71387],[11.01614,45.70786],[11.01647,45.70573],[11.02098,45.70567],[11.03046,45.70569],[11.04138,45.70632],[11.0498,45.71373],[11.05207,45.71593],[11.05276,45.71657],[11.05579,45.71824],[11.05809,45.71675],[11.05997,45.71386],[11.06682,45.70817],[11.07124,45.70539],[11.09003,45.69613],[11.10016,45.69502],[11.10169,45.69592],[11.10187,45.69596],[11.10248,45.69596],[11.10319,45.69596],[11.10585,45.6958],[11.10785,45.69546],[11.10864,45.69496],[11.11253,45.69629],[11.11512,45.69648],[11.12072,45.69566],[11.12103,45.69561],[11.12139,45.69555],[11.12205,45.69533],[11.1225,45.69519],[11.12338,45.69382],[11.12353,45.69294],[11.1232,45.69097],[11.12306,45.69016],[11.123,45.68994],[11.12289,45.68982],[11.12535,45.69044],[11.13215,45.69302],[11.13851,45.69685],[11.13826,45.69708],[11.13599,45.69909],[11.13592,45.69925],[11.13588,45.69935],[11.13585,45.69958],[11.1359,45.70003],[11.13684,45.70357],[11.13699,45.7041],[11.13866,45.70932],[11.13875,45.70944],[11.13921,45.70983],[11.14154,45.71164],[11.14213,45.7121],[11.14282,45.71235],[11.14313,45.71245],[11.14362,45.7126],[11.14378,45.7127],[11.14411,45.7129],[11.14438,45.7131],[11.14572,45.7149],[11.14578,45.71526],[11.1458,45.71538],[11.1459,45.71695]]],[[[10.61115,45.86555],[10.6108,45.86561],[10.61052,45.86562],[10.60945,45.86552],[10.6067,45.86524],[10.60483,45.86431],[10.60395,45.86385],[10.60266,45.8631],[10.57672,45.86191],[10.57521,45.86234],[10.57245,45.86314],[10.56812,45.8644],[10.56725,45.86467],[10.567,45.86475],[10.56616,45.86518],[10.56434,45.86633],[10.56364,45.86691],[10.56084,45.86984],[10.55635,45.87308],[10.55437,45.87404],[10.5533,45.87452],[10.55243,45.8749],[10.5513,45.87532],[10.54562,45.87729],[10.53387,45.88161],[10.52522,45.8857],[10.52396,45.89107],[10.52468,45.89194],[10.52539,45.893],[10.52547,45.89314],[10.52565,45.89374],[10.52582,45.89441],[10.52605,45.89538],[10.52619,45.8962],[10.52619,45.89677],[10.52609,45.89712],[10.52594,45.89758],[10.52506,45.89908],[10.52357,45.90056],[10.52328,45.90082],[10.52227,45.90152],[10.52177,45.90168],[10.52106,45.90153],[10.51918,45.90078],[10.51859,45.90053],[10.51168,45.90058],[10.50618,45.90344],[10.50616,45.90327],[10.5061,45.90315],[10.50594,45.90303],[10.50241,45.90064],[10.50235,45.9006],[10.50195,45.90035],[10.50107,45.90004],[10.50041,45.89982],[10.50014,45.89973],[10.49976,45.89961],[10.49931,45.89955],[10.49896,45.8995],[10.49594,45.89974],[10.49012,45.88708],[10.49005,45.88505],[10.49004,45.88461],[10.49015,45.88431],[10.49031,45.8839],[10.49087,45.88275],[10.49111,45.88228],[10.5037,45.87357],[10.50353,45.87333],[10.50338,45.87311],[10.50292,45.87239],[10.50276,45.87214],[10.50241,45.87141],[10.50229,45.87104],[10.50177,45.86763],[10.50175,45.8674],[10.50172,45.86711],[10.5017,45.86686],[10.50163,45.86095],[10.50392,45.8557],[10.50509,45.85015],[10.50656,45.84241],[10.5038,45.83712],[10.50371,45.83708],[10.50366,45.83706],[10.50356,45.83701],[10.5035,45.83695],[10.50307,45.83633],[10.50301,45.83624],[10.50296,45.83616],[10.50259,45.83512],[10.50248,45.83473],[10.50224,45.83383],[10.50198,45.83236],[10.50197,45.83227],[10.50196,45.83217],[10.50198,45.83205],[10.5021,45.83132],[10.50216,45.83105],[10.5022,45.83085],[10.50226,45.83065],[10.50236,45.83038],[10.50249,45.83016],[10.50283,45.82973],[10.50806,45.8239],[10.51278,45.8249],[10.51847,45.8264],[10.52429,45.82713],[10.52837,45.82657],[10.52934,45.82623],[10.53677,45.82258],[10.53919,45.82116],[10.54327,45.81836],[10.54363,45.81765],[10.54377,45.81718],[10.5438,45.81706],[10.54335,45.81572],[10.55031,45.81485],[10.55104,45.81484],[10.55412,45.81475],[10.55473,45.81472],[10.56357,45.81408],[10.5659,45.81375],[10.56879,45.81274],[10.57101,45.81189],[10.57147,45.8116],[10.57251,45.81101],[10.57418,45.81013],[10.57445,45.80999],[10.57737,45.80936],[10.57779,45.80933],[10.57817,45.80932],[10.58945,45.8128],[10.5956,45.81876],[10.59772,45.82076],[10.59998,45.82266],[10.60248,45.82445],[10.6037,45.8253],[10.60413,45.82539],[10.60455,45.82544],[10.60505,45.82541],[10.60549,45.82538],[10.62644,45.82085],[10.62732,45.82013],[10.63266,45.81261],[10.6346,45.81588],[10.63917,45.8193],[10.64187,45.82227],[10.64353,45.8262],[10.64373,45.82775],[10.64384,45.8288],[10.64385,45.82905],[10.64047,45.83178],[10.64002,45.83215],[10.63774,45.83302],[10.63402,45.83584],[10.6346,45.83624],[10.63578,45.83744],[10.63709,45.83921],[10.63732,45.8398],[10.63754,45.84041],[10.63746,45.84092],[10.63736,45.84147],[10.63716,45.84194],[10.63604,45.8436],[10.63282,45.84707],[10.62716,45.85261],[10.61942,45.8607],[10.61687,45.86224],[10.61221,45.86499],[10.61115,45.86555]]]]}}]}