{"type":"FeatureCollection","_provenance":{"authority":"ISTAT (comune geometry, openpolis/geojson-italy) / MASAF disciplinari (comune membership)","licence":"CC BY 4.0","method":"comune-union: ISTAT comuni dissolved per disciplinare comune lists (comune-level approximation; interior rings dropped, 5dp). Partial-territory comuni are included whole.","reviewed_at":"2026-09-07"},"features":[{"type":"Feature","properties":{"name":"montefalco-sagrantino","comuni_count":5},"geometry":{"type":"MultiPolygon","coordinates":[[[[12.63958,42.92799],[12.63613,42.93069],[12.63466,42.93198],[12.63358,42.93703],[12.63381,42.93701],[12.63382,42.9389],[12.63062,42.94321],[12.62331,42.95156],[12.61586,42.95687],[12.61531,42.95712],[12.61491,42.95732],[12.61469,42.95749],[12.61453,42.95772],[12.6126,42.96047],[12.6118,42.96241],[12.6116,42.96422],[12.61065,42.96606],[12.61059,42.9663],[12.60973,42.9698],[12.61012,42.97118],[12.60995,42.97169],[12.6076,42.97806],[12.60694,42.97969],[12.60636,42.98079],[12.60016,42.98133],[12.5878,42.97948],[12.58592,42.97851],[12.57983,42.97772],[12.57055,42.97663],[12.5696,42.9777],[12.56948,42.97793],[12.56894,42.97986],[12.56239,42.98741],[12.55885,42.99099],[12.55855,42.99087],[12.55804,42.99057],[12.55765,42.99031],[12.55408,42.98742],[12.5427,42.97978],[12.53725,42.97572],[12.53481,42.97314],[12.53429,42.96942],[12.53325,42.96273],[12.52928,42.95775],[12.52427,42.94881],[12.52436,42.94861],[12.52437,42.94844],[12.52435,42.94808],[12.52366,42.94733],[12.52265,42.94698],[12.52169,42.94684],[12.51851,42.94641],[12.51782,42.94647],[12.5167,42.94709],[12.51567,42.94785],[12.51442,42.9488],[12.51341,42.94964],[12.50736,42.95619],[12.50697,42.95745],[12.50661,42.95867],[12.50626,42.96008],[12.50634,42.96375],[12.50649,42.96528],[12.50666,42.96637],[12.50671,42.96718],[12.50669,42.96729],[12.50654,42.96801],[12.50597,42.9692],[12.50502,42.97009],[12.50358,42.97102],[12.5024,42.9716],[12.50116,42.97205],[12.49986,42.97201],[12.49948,42.97196],[12.49653,42.968],[12.49323,42.96453],[12.49237,42.96402],[12.49133,42.96372],[12.49009,42.96351],[12.47975,42.9486],[12.47798,42.946],[12.47786,42.94289],[12.47748,42.93682],[12.47712,42.9311],[12.47498,42.92082],[12.47451,42.9188],[12.47435,42.91816],[12.4739,42.91775],[12.47152,42.91751],[12.4641,42.91763],[12.45742,42.91806],[12.45395,42.91846],[12.45316,42.91858],[12.45266,42.91866],[12.4521,42.91894],[12.45099,42.91948],[12.44999,42.92028],[12.44885,42.91406],[12.45518,42.90757],[12.46143,42.89662],[12.46141,42.88993],[12.44849,42.87413],[12.44287,42.86791],[12.44045,42.86292],[12.43951,42.86226],[12.43927,42.86209],[12.43847,42.86154],[12.43749,42.86141],[12.43676,42.86141],[12.43599,42.85747],[12.44319,42.8572],[12.44588,42.85785],[12.45306,42.85774],[12.45896,42.8576],[12.46154,42.85703],[12.46236,42.85569],[12.46232,42.85567],[12.46157,42.8553],[12.464,42.84918],[12.46954,42.84798],[12.4742,42.84272],[12.47569,42.84023],[12.47697,42.8379],[12.47711,42.83666],[12.47634,42.83507],[12.47511,42.8339],[12.47393,42.83216],[12.47194,42.82769],[12.47236,42.82753],[12.47329,42.82766],[12.47893,42.82898],[12.48045,42.82944],[12.48247,42.83074],[12.48517,42.83257],[12.48803,42.83554],[12.48916,42.83848],[12.49603,42.84356],[12.512,42.84524],[12.51351,42.84513],[12.51369,42.84501],[12.52045,42.84055],[12.52315,42.83861],[12.52436,42.83758],[12.5255,42.83676],[12.52642,42.83637],[12.52702,42.83624],[12.52748,42.83675],[12.52818,42.83784],[12.53059,42.83554],[12.53358,42.83114],[12.53547,42.82829],[12.53835,42.8253],[12.54087,42.82385],[12.54245,42.82679],[12.54755,42.82768],[12.54875,42.82628],[12.55033,42.82178],[12.55071,42.82032],[12.55065,42.81906],[12.55226,42.81627],[12.55805,42.81084],[12.56087,42.8082],[12.56255,42.80668],[12.56376,42.80573],[12.56463,42.80488],[12.56577,42.80228],[12.56632,42.80066],[12.56904,42.80224],[12.5742,42.8027],[12.57541,42.80281],[12.57976,42.80471],[12.58013,42.80526],[12.58099,42.8066],[12.58138,42.80931],[12.5838,42.81162],[12.58938,42.8087],[12.60106,42.80425],[12.60235,42.8038],[12.60534,42.80383],[12.60623,42.80397],[12.60733,42.80454],[12.60827,42.80505],[12.61598,42.80976],[12.61948,42.81228],[12.62124,42.81447],[12.62261,42.81382],[12.62492,42.81317],[12.62928,42.81494],[12.63487,42.81695],[12.63882,42.81836],[12.64436,42.81882],[12.64542,42.81875],[12.6457,42.81873],[12.64652,42.81801],[12.64694,42.81724],[12.64703,42.81708],[12.64643,42.81649],[12.64603,42.81616],[12.64618,42.81561],[12.64683,42.81362],[12.64709,42.81307],[12.64894,42.81105],[12.64906,42.81101],[12.6498,42.81079],[12.6523,42.81014],[12.67494,42.80739],[12.67648,42.80747],[12.67744,42.80766],[12.68055,42.80939],[12.6866,42.8134],[12.69316,42.81728],[12.6984,42.81922],[12.699,42.81939],[12.70114,42.82055],[12.70283,42.82183],[12.71259,42.82954],[12.71386,42.83256],[12.71575,42.83599],[12.71692,42.837],[12.71674,42.83767],[12.71655,42.8382],[12.71629,42.83853],[12.71351,42.84065],[12.70981,42.84344],[12.709,42.84351],[12.7089,42.84352],[12.7064,42.84331],[12.70501,42.84295],[12.7021,42.84185],[12.69758,42.84079],[12.69681,42.84069],[12.69515,42.84077],[12.69381,42.84083],[12.69297,42.84125],[12.6922,42.84185],[12.69208,42.84233],[12.69152,42.84605],[12.69171,42.84775],[12.69346,42.85123],[12.69713,42.85735],[12.70042,42.86636],[12.70137,42.87259],[12.70307,42.89355],[12.70288,42.89691],[12.70187,42.9022],[12.70146,42.90295],[12.70085,42.90372],[12.70013,42.90453],[12.69684,42.90761],[12.69695,42.908],[12.69473,42.90894],[12.68844,42.91162],[12.68811,42.91176],[12.68797,42.91146],[12.68788,42.91126],[12.68737,42.91014],[12.67997,42.91157],[12.6758,42.91266],[12.66668,42.91517],[12.65344,42.91949],[12.65333,42.91953],[12.64915,42.92123],[12.64821,42.92179],[12.64526,42.92377],[12.63958,42.92799]]]]}},{"type":"Feature","properties":{"name":"torgiano-rosso-riserva","comuni_count":1},"geometry":{"type":"MultiPolygon","coordinates":[[[[12.49742,43.06914],[12.49542,43.0695],[12.47942,43.07016],[12.47312,43.07065],[12.46701,43.07181],[12.4622,43.07419],[12.45557,43.08229],[12.45301,43.08715],[12.44851,43.08869],[12.4473,43.08311],[12.43564,43.07396],[12.42461,43.06168],[12.42313,43.05448],[12.42756,43.05248],[12.43212,43.04549],[12.43204,43.04511],[12.43125,43.04321],[12.43081,43.04258],[12.43034,43.04204],[12.42981,43.04144],[12.42926,43.0409],[12.42825,43.03993],[12.42767,43.03937],[12.42609,43.03786],[12.42596,43.0378],[12.42576,43.0377],[12.42566,43.03765],[12.42485,43.03788],[12.41971,43.03731],[12.41517,43.03625],[12.41438,43.03573],[12.41389,43.03526],[12.4137,43.03418],[12.41394,43.03305],[12.41437,43.03198],[12.41484,43.03121],[12.41516,43.03067],[12.41561,43.02939],[12.41579,43.02719],[12.41332,43.02435],[12.40658,43.0188],[12.40651,43.01643],[12.41775,43.0122],[12.42713,43.00934],[12.43683,43.00412],[12.43774,43],[12.43992,42.99633],[12.44082,42.99584],[12.4415,42.99571],[12.44222,42.99562],[12.44551,42.99544],[12.44629,42.99571],[12.4536,42.99701],[12.45636,42.99599],[12.45607,42.997],[12.45558,42.99871],[12.45773,43.00289],[12.46323,43.0049],[12.46396,43.005],[12.4644,43.00523],[12.46461,43.00555],[12.46507,43.00628],[12.46784,43.01082],[12.468,43.01138],[12.46825,43.01255],[12.46833,43.01423],[12.46838,43.01583],[12.46831,43.017],[12.46688,43.03173],[12.4665,43.03211],[12.46631,43.03229],[12.46626,43.03235],[12.46595,43.03298],[12.46576,43.03379],[12.46557,43.03465],[12.46491,43.0391],[12.46495,43.04094],[12.4651,43.04134],[12.46637,43.04141],[12.47063,43.04161],[12.48659,43.04516],[12.48681,43.0463],[12.48706,43.0473],[12.48755,43.04828],[12.488,43.049],[12.48828,43.04946],[12.48927,43.05074],[12.49037,43.05209],[12.49134,43.05321],[12.49356,43.05578],[12.49435,43.05688],[12.49666,43.0602],[12.49709,43.06178],[12.49816,43.06779],[12.49742,43.06914]]]]}},{"type":"Feature","properties":{"name":"orvieto","comuni_count":13},"geometry":{"type":"MultiPolygon","coordinates":[[[[12.24334,42.62809],[12.23964,42.62308],[12.23871,42.62283],[12.23732,42.62231],[12.23665,42.62196],[12.236,42.6214],[12.23052,42.61379],[12.23025,42.61337],[12.22948,42.61192],[12.22914,42.61109],[12.22919,42.6104],[12.23131,42.60907],[12.23136,42.60904],[12.23171,42.60887],[12.23331,42.60815],[12.23684,42.60733],[12.23873,42.60697],[12.23906,42.60696],[12.24614,42.60088],[12.24756,42.59669],[12.24387,42.59767],[12.23738,42.58701],[12.23585,42.58331],[12.23793,42.57942],[12.24006,42.57506],[12.23976,42.57472],[12.23866,42.57296],[12.23861,42.5725],[12.23866,42.57218],[12.23872,42.57201],[12.23891,42.57172],[12.23958,42.57096],[12.24221,42.56949],[12.24424,42.56883],[12.2448,42.56864],[12.24672,42.56802],[12.24828,42.5676],[12.25154,42.56671],[12.26156,42.56069],[12.26641,42.55943],[12.26597,42.55985],[12.26715,42.56123],[12.27524,42.56675],[12.28319,42.57197],[12.28937,42.57494],[12.29441,42.57741],[12.29705,42.57888],[12.30301,42.58285],[12.31208,42.58644],[12.31364,42.58659],[12.31737,42.5873],[12.31906,42.58766],[12.31928,42.58787],[12.31895,42.59295],[12.31805,42.59715],[12.31997,42.6016],[12.32178,42.60491],[12.32377,42.60694],[12.33345,42.61304],[12.33401,42.61327],[12.33438,42.61336],[12.3403,42.61183],[12.34206,42.6104],[12.34244,42.60926],[12.34437,42.61521],[12.3468,42.62405],[12.34387,42.63081],[12.3358,42.64491],[12.33703,42.64846],[12.33745,42.64826],[12.33766,42.6483],[12.3381,42.64849],[12.33834,42.6486],[12.34234,42.6505],[12.34205,42.65125],[12.34177,42.65192],[12.33962,42.65518],[12.33985,42.66159],[12.34875,42.66736],[12.36123,42.67382],[12.36682,42.67329],[12.37744,42.67646],[12.38407,42.678],[12.38243,42.67961],[12.37561,42.68408],[12.36871,42.68693],[12.37112,42.69183],[12.36914,42.70097],[12.37299,42.70359],[12.37529,42.70678],[12.3745,42.71055],[12.37388,42.71156],[12.37268,42.71293],[12.37248,42.713],[12.37226,42.71308],[12.37137,42.71312],[12.37101,42.71306],[12.37058,42.71284],[12.36446,42.71589],[12.35983,42.71917],[12.35883,42.72023],[12.35651,42.72312],[12.35573,42.72425],[12.34877,42.73487],[12.34386,42.73784],[12.34259,42.73876],[12.3405,42.74092],[12.33435,42.74783],[12.33255,42.75093],[12.32464,42.75031],[12.32457,42.74997],[12.32424,42.74822],[12.32405,42.74775],[12.32359,42.74661],[12.32266,42.74555],[12.32238,42.74524],[12.32062,42.74342],[12.32057,42.74338],[12.31828,42.74153],[12.31563,42.74084],[12.31344,42.74329],[12.31093,42.74572],[12.30626,42.74723],[12.30009,42.74798],[12.29956,42.74804],[12.29731,42.74894],[12.29655,42.75093],[12.29616,42.75243],[12.29512,42.75659],[12.29122,42.76741],[12.29204,42.77726],[12.29077,42.7812],[12.28213,42.78285],[12.26494,42.78487],[12.27167,42.79049],[12.27273,42.79208],[12.26891,42.79643],[12.26673,42.79517],[12.26104,42.80157],[12.25706,42.80919],[12.25499,42.81089],[12.25193,42.81275],[12.2513,42.81313],[12.23828,42.81419],[12.22923,42.81262],[12.22028,42.80573],[12.21182,42.80012],[12.2108,42.79904],[12.21045,42.7974],[12.21029,42.79645],[12.21038,42.79618],[12.21051,42.79586],[12.2071,42.79331],[12.20141,42.79376],[12.20127,42.79403],[12.20155,42.79549],[12.20303,42.79818],[12.20415,42.79916],[12.20508,42.79932],[12.20687,42.80119],[12.20967,42.80646],[12.20974,42.80827],[12.20324,42.80971],[12.20104,42.80991],[12.19536,42.81061],[12.18514,42.81235],[12.17567,42.81491],[12.17428,42.81514],[12.17343,42.81525],[12.17128,42.81545],[12.16922,42.81556],[12.16267,42.81494],[12.15731,42.81432],[12.15121,42.80901],[12.14005,42.80331],[12.13267,42.8026],[12.13125,42.80263],[12.13198,42.80557],[12.13163,42.80706],[12.12996,42.81292],[12.12992,42.82116],[12.12554,42.82408],[12.12448,42.82743],[12.11637,42.83013],[12.11314,42.83008],[12.10913,42.83189],[12.10522,42.83482],[12.09614,42.84473],[12.09427,42.84729],[12.094,42.84791],[12.09387,42.84865],[12.09392,42.84904],[12.09451,42.85167],[12.09488,42.85251],[12.09552,42.85379],[12.09303,42.86174],[12.09044,42.86721],[12.08826,42.87145],[12.08703,42.87183],[12.08613,42.87228],[12.08499,42.87289],[12.08396,42.8735],[12.0826,42.87431],[12.08199,42.8753],[12.08302,42.87714],[12.08557,42.87856],[12.08965,42.8806],[12.09123,42.88103],[12.09134,42.88103],[12.09241,42.88106],[12.09341,42.88093],[12.09453,42.88067],[12.09598,42.88042],[12.09782,42.88091],[12.10031,42.88257],[12.10458,42.88722],[12.10777,42.89096],[12.10888,42.89162],[12.10986,42.89188],[12.11403,42.89268],[12.12118,42.89371],[12.12348,42.89237],[12.13431,42.88583],[12.13727,42.88188],[12.13588,42.87747],[12.13606,42.87728],[12.13772,42.8771],[12.13924,42.87698],[12.14073,42.8771],[12.15097,42.87814],[12.16031,42.87979],[12.16493,42.88049],[12.16447,42.88469],[12.16576,42.8965],[12.16958,42.90355],[12.17363,42.90961],[12.17713,42.91659],[12.17613,42.9188],[12.17527,42.92105],[12.17355,42.92659],[12.1729,42.92881],[12.1726,42.93186],[12.17246,42.93351],[12.16867,42.93455],[12.16669,42.93506],[12.16254,42.93603],[12.16211,42.93611],[12.16133,42.93627],[12.15976,42.93631],[12.15166,42.93849],[12.1472,42.93742],[12.14514,42.93547],[12.14368,42.93515],[12.14256,42.9349],[12.13993,42.93553],[12.13496,42.93817],[12.13068,42.94095],[12.12471,42.94117],[12.11421,42.94036],[12.10681,42.94096],[12.10192,42.94137],[12.09264,42.94146],[12.09117,42.94145],[12.08946,42.94139],[12.08588,42.94094],[12.07721,42.9394],[12.07057,42.93722],[12.06147,42.93416],[12.05437,42.93816],[12.05082,42.94075],[12.04976,42.93587],[12.04509,42.93368],[12.03829,42.93222],[12.03212,42.92826],[12.03102,42.9274],[12.02759,42.92409],[12.02525,42.92023],[12.02196,42.91513],[12.01542,42.90887],[12.00996,42.9104],[12.00469,42.9073],[12.00747,42.9026],[12.01391,42.89786],[12.00983,42.89235],[12.01913,42.88615],[12.03009,42.88132],[12.02225,42.88022],[12.01493,42.88003],[11.99887,42.87473],[11.9912,42.87192],[11.9881,42.87099],[11.97785,42.86899],[11.97427,42.8686],[11.96345,42.86508],[11.95839,42.86348],[11.95062,42.86382],[11.94677,42.86332],[11.94562,42.86287],[11.94456,42.86252],[11.94451,42.86251],[11.94286,42.86229],[11.93856,42.86227],[11.93689,42.86274],[11.93558,42.86371],[11.93447,42.86501],[11.93384,42.86644],[11.93338,42.8677],[11.9333,42.86935],[11.93156,42.86979],[11.9305,42.86972],[11.92867,42.86892],[11.92682,42.86773],[11.92601,42.86719],[11.92536,42.86622],[11.92399,42.86341],[11.92,42.8568],[11.91485,42.85216],[11.90923,42.84915],[11.90422,42.84774],[11.89329,42.84391],[11.89308,42.84378],[11.89297,42.8437],[11.89219,42.84311],[11.89189,42.84288],[11.89313,42.83907],[11.89497,42.83467],[11.89914,42.83245],[11.90394,42.83215],[11.90563,42.82956],[11.90615,42.82387],[11.90792,42.81685],[11.90817,42.81623],[11.90842,42.81577],[11.90963,42.81425],[11.913,42.81054],[11.91381,42.80987],[11.91948,42.79911],[11.92532,42.7838],[11.92743,42.78092],[11.92763,42.78074],[11.9282,42.78027],[11.92852,42.78],[11.92985,42.77911],[11.93131,42.77844],[11.93315,42.77802],[11.94422,42.77638],[11.94963,42.77607],[11.96059,42.77123],[11.96109,42.77049],[11.96248,42.76893],[11.96383,42.76802],[11.96539,42.76714],[11.96644,42.76679],[11.97701,42.76495],[11.97798,42.7648],[11.97948,42.76459],[11.97912,42.75909],[11.9783,42.75147],[11.97201,42.74208],[11.96995,42.73872],[11.96924,42.7379],[11.96059,42.72815],[11.95209,42.7266],[11.94915,42.7274],[11.94538,42.72529],[11.93943,42.71796],[11.93017,42.71262],[11.92821,42.70786],[11.92629,42.70474],[11.92611,42.7043],[11.92613,42.70421],[11.9262,42.70386],[11.92627,42.70381],[11.92636,42.70372],[11.92654,42.70357],[11.93164,42.70098],[11.93776,42.69926],[11.93847,42.6992],[11.93893,42.69916],[11.9405,42.69872],[11.94305,42.69799],[11.94409,42.69767],[11.94876,42.69601],[11.94872,42.69554],[11.94778,42.69352],[11.94771,42.69344],[11.94733,42.69299],[11.94237,42.68599],[11.94106,42.68367],[11.94114,42.68356],[11.94126,42.6834],[11.94133,42.6833],[11.94386,42.68264],[11.94395,42.68262],[11.95466,42.68018],[11.96129,42.67882],[11.96852,42.6775],[11.97256,42.67682],[11.97798,42.67553],[11.97907,42.67504],[11.99149,42.66947],[11.99606,42.66738],[12.00239,42.66441],[12.00708,42.66245],[12.01833,42.65578],[12.02921,42.65045],[12.02993,42.65016],[12.03,42.64324],[12.03027,42.64326],[12.0306,42.64338],[12.03083,42.64347],[12.03148,42.64373],[12.03226,42.64406],[12.03245,42.64417],[12.03443,42.64562],[12.03685,42.64749],[12.03853,42.64848],[12.03939,42.64886],[12.03973,42.64897],[12.04033,42.64902],[12.04036,42.64903],[12.04095,42.64906],[12.04123,42.64907],[12.04811,42.64944],[12.05044,42.64986],[12.06308,42.65216],[12.06667,42.65288],[12.07052,42.65435],[12.07372,42.65667],[12.09451,42.65549],[12.10673,42.66467],[12.10682,42.66424],[12.10742,42.66266],[12.10812,42.66081],[12.10841,42.66038],[12.1172,42.65097],[12.11785,42.65055],[12.11954,42.64983],[12.12406,42.64929],[12.12434,42.6494],[12.12477,42.64959],[12.12524,42.64981],[12.12535,42.64985],[12.12555,42.65015],[12.12571,42.65044],[12.12577,42.65094],[12.1258,42.65255],[12.12603,42.65388],[12.12618,42.6548],[12.12706,42.65615],[12.12899,42.65868],[12.12998,42.65994],[12.1321,42.66151],[12.13233,42.66167],[12.13769,42.65816],[12.14077,42.6563],[12.14621,42.65894],[12.14873,42.66577],[12.15448,42.67133],[12.16093,42.67669],[12.16684,42.67596],[12.1733,42.6738],[12.17591,42.67275],[12.18083,42.6698],[12.18468,42.66718],[12.1849,42.667],[12.18576,42.66627],[12.19728,42.66385],[12.1975,42.66375],[12.19766,42.66369],[12.20434,42.66046],[12.20893,42.65619],[12.22193,42.64703],[12.22692,42.64348],[12.22802,42.63811],[12.22792,42.63761],[12.22681,42.6365],[12.22565,42.63555],[12.22592,42.63551],[12.226,42.63549],[12.22691,42.63531],[12.23034,42.63437],[12.23879,42.63164],[12.24267,42.62921],[12.24334,42.62809]]],[[[12.3871,42.63822],[12.38418,42.63829],[12.37915,42.63546],[12.37344,42.63027],[12.36866,42.62812],[12.36239,42.62686],[12.35042,42.62492],[12.35446,42.62293],[12.36579,42.61658],[12.36928,42.61368],[12.3781,42.60686],[12.38161,42.60425],[12.38886,42.60024],[12.39406,42.59792],[12.39464,42.59781],[12.39553,42.59772],[12.39569,42.59799],[12.39639,42.59915],[12.39748,42.60121],[12.39816,42.60298],[12.39811,42.60331],[12.39716,42.60496],[12.39651,42.60601],[12.39609,42.60672],[12.39552,42.60901],[12.39585,42.61406],[12.39692,42.61802],[12.40056,42.62245],[12.40509,42.626],[12.40833,42.62689],[12.4111,42.63008],[12.40978,42.63039],[12.39739,42.63329],[12.3885,42.63685],[12.3871,42.63822]]],[[[11.95859,42.87432],[11.95914,42.87484],[11.96057,42.87618],[11.96096,42.87667],[11.961,42.87672],[11.96401,42.8805],[11.96632,42.88341],[11.97469,42.88981],[11.98025,42.89046],[11.98316,42.89111],[11.98539,42.89262],[11.98652,42.89379],[11.98685,42.89414],[11.98905,42.89643],[11.99617,42.90559],[11.99843,42.90934],[11.99673,42.90978],[11.98917,42.91048],[11.97668,42.91139],[11.96667,42.9121],[11.95809,42.9162],[11.95442,42.90854],[11.95209,42.9032],[11.95208,42.90099],[11.95664,42.89385],[11.9588,42.89156],[11.95897,42.8822],[11.95819,42.87672],[11.95859,42.87432]]]]}},{"type":"Feature","properties":{"name":"colli-del-trasimeno","comuni_count":10},"geometry":{"type":"MultiPolygon","coordinates":[[[[11.9682,43.0155],[11.96599,43.01135],[11.96411,43.00654],[11.96205,43.00118],[11.96085,42.99686],[11.95859,42.98993],[11.95608,42.98286],[11.95465,42.97951],[11.95463,42.97946],[11.9545,42.97919],[11.95447,42.97912],[11.9543,42.97874],[11.95422,42.97863],[11.95417,42.97854],[11.94952,42.97653],[11.94954,42.97644],[11.94957,42.97634],[11.94982,42.97553],[11.94994,42.97514],[11.95042,42.97253],[11.95063,42.97056],[11.95006,42.97012],[11.9495,42.96994],[11.94905,42.96904],[11.94851,42.96727],[11.94847,42.96336],[11.94848,42.96265],[11.94855,42.96196],[11.94916,42.96087],[11.95034,42.95886],[11.95067,42.95833],[11.95123,42.95767],[11.95156,42.95737],[11.95292,42.95469],[11.95208,42.9497],[11.95167,42.9484],[11.95143,42.94807],[11.94845,42.94468],[11.94546,42.94162],[11.9391,42.93252],[11.93723,42.92126],[11.93349,42.90991],[11.93315,42.90928],[11.93272,42.9085],[11.93273,42.90844],[11.93283,42.90778],[11.93285,42.90761],[11.93348,42.90542],[11.93561,42.904],[11.9357,42.90395],[11.93673,42.90346],[11.937,42.90338],[11.93779,42.90313],[11.93811,42.9031],[11.93872,42.90305],[11.93933,42.903],[11.93938,42.903],[11.94121,42.90293],[11.95016,42.90158],[11.95208,42.90099],[11.95209,42.9032],[11.95442,42.90854],[11.95809,42.9162],[11.96667,42.9121],[11.97668,42.91139],[11.98917,42.91048],[11.99673,42.90978],[11.99843,42.90934],[11.99617,42.90559],[11.98905,42.89643],[11.98685,42.89414],[11.98652,42.89379],[11.98539,42.89262],[11.98316,42.89111],[11.98025,42.89046],[11.97469,42.88981],[11.96632,42.88341],[11.96401,42.8805],[11.961,42.87672],[11.96096,42.87667],[11.96057,42.87618],[11.95914,42.87484],[11.95859,42.87432],[11.95904,42.87059],[11.95735,42.8701],[11.95184,42.86996],[11.94457,42.87155],[11.94186,42.87126],[11.93676,42.87042],[11.93375,42.86971],[11.93346,42.86948],[11.9333,42.86935],[11.93338,42.8677],[11.93384,42.86644],[11.93447,42.86501],[11.93558,42.86371],[11.93689,42.86274],[11.93856,42.86227],[11.94286,42.86229],[11.94451,42.86251],[11.94456,42.86252],[11.94562,42.86287],[11.94677,42.86332],[11.95062,42.86382],[11.95839,42.86348],[11.96345,42.86508],[11.97427,42.8686],[11.97785,42.86899],[11.9881,42.87099],[11.9912,42.87192],[11.99887,42.87473],[12.01493,42.88003],[12.02225,42.88022],[12.03009,42.88132],[12.01913,42.88615],[12.00983,42.89235],[12.01391,42.89786],[12.00747,42.9026],[12.00469,42.9073],[12.00996,42.9104],[12.01542,42.90887],[12.02196,42.91513],[12.02525,42.92023],[12.02759,42.92409],[12.03102,42.9274],[12.03212,42.92826],[12.03829,42.93222],[12.04509,42.93368],[12.04976,42.93587],[12.05082,42.94075],[12.05437,42.93816],[12.06147,42.93416],[12.07057,42.93722],[12.07721,42.9394],[12.08588,42.94094],[12.08946,42.94139],[12.09117,42.94145],[12.09264,42.94146],[12.10192,42.94137],[12.10681,42.94096],[12.11421,42.94036],[12.12471,42.94117],[12.13068,42.94095],[12.13496,42.93817],[12.13993,42.93553],[12.14256,42.9349],[12.14368,42.93515],[12.14514,42.93547],[12.1472,42.93742],[12.15166,42.93849],[12.15976,42.93631],[12.16133,42.93627],[12.16211,42.93611],[12.16254,42.93603],[12.16669,42.93506],[12.16867,42.93455],[12.17246,42.93351],[12.17808,42.93523],[12.18737,42.93848],[12.19299,42.93815],[12.20209,42.93599],[12.20506,42.93394],[12.20545,42.93359],[12.20445,42.93742],[12.21412,42.95503],[12.22127,42.96376],[12.22278,42.96545],[12.22306,42.96575],[12.22429,42.96661],[12.23982,42.97059],[12.24824,42.97091],[12.24982,42.97063],[12.25036,42.97065],[12.25213,42.97072],[12.25358,42.97089],[12.25442,42.97102],[12.26061,42.97242],[12.26524,42.97448],[12.25913,42.97981],[12.25174,42.98459],[12.2473,42.98622],[12.24494,42.9877],[12.24257,42.98957],[12.24258,42.9908],[12.24458,42.99428],[12.24642,42.99746],[12.2467,42.9982],[12.24673,42.99899],[12.24664,43.00041],[12.24624,43.00353],[12.24608,43.00427],[12.24521,43.00709],[12.24486,43.00768],[12.2436,43.00788],[12.23682,43.00799],[12.23763,43.0109],[12.2388,43.01562],[12.23945,43.03049],[12.2392,43.03153],[12.23933,43.03238],[12.24049,43.03548],[12.24093,43.03662],[12.24139,43.0374],[12.24575,43.03742],[12.25426,43.03417],[12.25665,43.03345],[12.26192,43.03387],[12.26752,43.03414],[12.26805,43.03416],[12.2686,43.03416],[12.26875,43.03406],[12.26889,43.03395],[12.26895,43.03376],[12.26891,43.03347],[12.26889,43.0334],[12.26821,43.03061],[12.26721,43.02862],[12.26669,43.02735],[12.26677,43.02649],[12.268,43.02607],[12.2695,43.02561],[12.27034,43.02545],[12.27037,43.02547],[12.27105,43.02584],[12.27364,43.0274],[12.27925,43.03162],[12.2858,43.0371],[12.28872,43.03984],[12.29228,43.04185],[12.29506,43.04317],[12.29603,43.04358],[12.29752,43.04395],[12.29876,43.04424],[12.29921,43.04374],[12.3008,43.0419],[12.30288,43.03917],[12.30553,43.03457],[12.30946,43.0307],[12.30975,43.03046],[12.31044,43.02988],[12.31163,43.02956],[12.31363,43.02909],[12.31441,43.02992],[12.31638,43.03268],[12.31808,43.03506],[12.32441,43.03535],[12.32492,43.035],[12.33107,43.02975],[12.33168,43.02914],[12.3321,43.02846],[12.33309,43.02507],[12.33308,43.02457],[12.33307,43.02441],[12.33157,43.02087],[12.33006,43.01858],[12.33221,43.01306],[12.33552,43.01148],[12.34285,43.00795],[12.34401,43.00535],[12.34293,42.99727],[12.34266,42.99648],[12.34298,42.99623],[12.34319,42.99607],[12.34326,42.99601],[12.3447,42.99552],[12.34828,42.99448],[12.34933,42.99428],[12.35572,42.99387],[12.36222,42.99448],[12.3625,42.9948],[12.36302,42.99547],[12.36358,42.99702],[12.36689,43.00924],[12.36788,43.0147],[12.36841,43.01946],[12.36892,43.02145],[12.37072,43.02379],[12.38799,43.02023],[12.39409,43.01666],[12.39848,43.0152],[12.39856,43.01518],[12.39977,43.01517],[12.40651,43.01643],[12.40658,43.0188],[12.41332,43.02435],[12.41579,43.02719],[12.41561,43.02939],[12.41516,43.03067],[12.41484,43.03121],[12.41437,43.03198],[12.41394,43.03305],[12.4137,43.03418],[12.41389,43.03526],[12.41438,43.03573],[12.41517,43.03625],[12.41971,43.03731],[12.42485,43.03788],[12.42566,43.03765],[12.42576,43.0377],[12.42596,43.0378],[12.42609,43.03786],[12.42767,43.03937],[12.42825,43.03993],[12.42926,43.0409],[12.42981,43.04144],[12.43034,43.04204],[12.43081,43.04258],[12.43125,43.04321],[12.43204,43.04511],[12.43212,43.04549],[12.42756,43.05248],[12.42313,43.05448],[12.42461,43.06168],[12.43564,43.07396],[12.4473,43.08311],[12.44851,43.08869],[12.45301,43.08715],[12.45557,43.08229],[12.4622,43.07419],[12.46701,43.07181],[12.47312,43.07065],[12.47942,43.07016],[12.49542,43.0695],[12.49742,43.06914],[12.49806,43.07032],[12.49808,43.07128],[12.49776,43.07238],[12.49732,43.07321],[12.4968,43.0739],[12.49631,43.07434],[12.49428,43.07623],[12.49347,43.07743],[12.49095,43.08137],[12.49104,43.08312],[12.49321,43.0893],[12.49342,43.08929],[12.49457,43.08913],[12.5002,43.08824],[12.50732,43.08976],[12.51053,43.09088],[12.51551,43.10049],[12.52764,43.12438],[12.53383,43.13505],[12.54183,43.14302],[12.54217,43.14309],[12.54282,43.14317],[12.54436,43.14328],[12.55354,43.14332],[12.56045,43.14229],[12.56372,43.14132],[12.56409,43.14249],[12.56399,43.14465],[12.56367,43.14895],[12.56364,43.149],[12.56326,43.14968],[12.56237,43.15039],[12.55382,43.15822],[12.55348,43.15868],[12.55282,43.16075],[12.55207,43.16325],[12.55206,43.16346],[12.55203,43.16388],[12.55426,43.17057],[12.5584,43.17337],[12.56186,43.17575],[12.55793,43.18646],[12.55808,43.19488],[12.5583,43.20032],[12.55667,43.20315],[12.55217,43.20267],[12.54299,43.19943],[12.53892,43.19723],[12.5384,43.1967],[12.53767,43.19634],[12.53723,43.19622],[12.53685,43.19612],[12.53593,43.19591],[12.53476,43.19575],[12.53393,43.19563],[12.53311,43.19583],[12.5326,43.19636],[12.53048,43.19877],[12.52697,43.204],[12.52658,43.20532],[12.52713,43.20695],[12.52909,43.20966],[12.53091,43.2122],[12.53112,43.21271],[12.53061,43.21322],[12.52973,43.21398],[12.52904,43.21454],[12.52732,43.21465],[12.52491,43.21475],[12.52452,43.21473],[12.5238,43.21471],[12.49875,43.21251],[12.48934,43.21233],[12.4783,43.2169],[12.46408,43.22456],[12.46305,43.22538],[12.4623,43.22615],[12.45947,43.2293],[12.4597,43.23108],[12.46161,43.23213],[12.466,43.23466],[12.46833,43.23657],[12.4728,43.24073],[12.47668,43.24546],[12.48226,43.25735],[12.48225,43.2591],[12.47997,43.26106],[12.47995,43.26108],[12.47925,43.26157],[12.47725,43.26292],[12.47641,43.26333],[12.4746,43.26363],[12.4511,43.26617],[12.44316,43.26872],[12.44322,43.27518],[12.43633,43.28096],[12.43332,43.2851],[12.41409,43.28568],[12.41139,43.28536],[12.41046,43.28476],[12.40695,43.28212],[12.4045,43.27844],[12.40282,43.27547],[12.40261,43.27463],[12.39867,43.26727],[12.39393,43.25919],[12.39216,43.25698],[12.3898,43.25505],[12.38834,43.25498],[12.38817,43.2553],[12.38772,43.2555],[12.38646,43.25558],[12.38481,43.25512],[12.38167,43.25414],[12.37968,43.25296],[12.37617,43.24867],[12.37543,43.24577],[12.37525,43.24476],[12.37523,43.24469],[12.3753,43.2437],[12.37683,43.24168],[12.37766,43.24077],[12.37835,43.24018],[12.37849,43.2395],[12.37828,43.23886],[12.37646,43.23587],[12.37533,43.23418],[12.3714,43.23052],[12.3686,43.23012],[12.36023,43.23455],[12.34124,43.24717],[12.33181,43.24517],[12.32453,43.24168],[12.31755,43.23753],[12.317,43.23697],[12.31698,43.23694],[12.31685,43.2369],[12.31612,43.23661],[12.31162,43.23518],[12.31138,43.23511],[12.31109,43.23502],[12.30646,43.23551],[12.29979,43.23685],[12.2988,43.23718],[12.29811,43.23708],[12.2959,43.23603],[12.29556,43.23539],[12.29717,43.22685],[12.29847,43.22278],[12.29924,43.22083],[12.30403,43.21651],[12.30984,43.21438],[12.3152,43.21378],[12.31642,43.21331],[12.31703,43.21295],[12.31836,43.21191],[12.31851,43.21122],[12.31696,43.20618],[12.31362,43.20517],[12.31021,43.20498],[12.30953,43.20472],[12.30466,43.20245],[12.30196,43.20075],[12.30052,43.19972],[12.30021,43.19949],[12.29703,43.20045],[12.29517,43.20223],[12.2918,43.20565],[12.28452,43.21183],[12.28131,43.21212],[12.2789,43.2133],[12.27654,43.21458],[12.27527,43.21893],[12.27519,43.21926],[12.27931,43.22551],[12.27489,43.22512],[12.26981,43.22367],[12.263,43.2217],[12.25347,43.21783],[12.2518,43.2156],[12.2502,43.21621],[12.25049,43.21961],[12.25141,43.22398],[12.25054,43.22873],[12.25047,43.22894],[12.24926,43.22992],[12.24833,43.23054],[12.23487,43.22525],[12.23189,43.223],[12.23154,43.22238],[12.23178,43.22154],[12.23244,43.22046],[12.23287,43.21989],[12.23276,43.21959],[12.23219,43.21947],[12.22873,43.21891],[12.22769,43.21909],[12.22456,43.22017],[12.22247,43.22111],[12.22074,43.22207],[12.22013,43.22243],[12.21844,43.22355],[12.19949,43.22765],[12.19754,43.22746],[12.19699,43.2272],[12.19664,43.22688],[12.19643,43.22667],[12.19513,43.22436],[12.19455,43.21807],[12.19425,43.2176],[12.19364,43.21726],[12.19038,43.21589],[12.18842,43.21551],[12.18449,43.21478],[12.17255,43.21327],[12.16756,43.21293],[12.15964,43.21334],[12.14665,43.21248],[12.1463,43.21251],[12.14259,43.21647],[12.14207,43.21742],[12.14219,43.21848],[12.13694,43.22915],[12.13664,43.22957],[12.13351,43.23086],[12.13131,43.23141],[12.12861,43.23199],[12.12682,43.23175],[12.12497,43.23106],[12.12179,43.22973],[12.12108,43.22933],[12.11697,43.22666],[12.11559,43.22755],[12.10937,43.23107],[12.09978,43.23531],[12.09552,43.23701],[12.09484,43.23721],[12.09464,43.23685],[12.09375,43.23643],[12.09301,43.23614],[12.09268,43.23602],[12.09237,43.23591],[12.09151,43.23583],[12.08592,43.23633],[12.0853,43.23644],[12.08492,43.23658],[12.08465,43.2367],[12.08436,43.23683],[12.08336,43.23728],[12.08297,43.2376],[12.08285,43.23775],[12.08257,43.23807],[12.08253,43.23815],[12.06983,43.24493],[12.05566,43.24954],[12.05455,43.25071],[12.05405,43.25102],[12.0496,43.25277],[12.04782,43.25252],[12.04399,43.25102],[12.04347,43.25078],[12.04332,43.25071],[12.03384,43.24602],[12.03523,43.24078],[12.03529,43.24065],[12.03539,43.24042],[12.03546,43.24026],[12.03566,43.2398],[12.03567,43.23977],[12.03581,43.23947],[12.03588,43.23935],[12.03596,43.2392],[12.03703,43.23781],[12.03815,43.23674],[12.03904,43.22885],[12.03553,43.21723],[12.03097,43.20661],[12.02771,43.19538],[12.02605,43.19034],[12.02335,43.18726],[12.02107,43.18581],[12.01977,43.1852],[12.01862,43.18408],[12.01051,43.1817],[12.00642,43.18053],[12.00614,43.18049],[12.00494,43.18034],[12.00428,43.18027],[12.00358,43.1802],[12.00187,43.18015],[11.99672,43.18036],[11.98785,43.18083],[11.97886,43.1761],[11.97417,43.17238],[11.97394,43.17197],[11.97316,43.17092],[11.97226,43.17036],[11.97106,43.16959],[11.97017,43.16918],[11.96554,43.16771],[11.96367,43.16721],[11.96219,43.16696],[11.96181,43.16694],[11.96164,43.16693],[11.96134,43.16691],[11.96125,43.16691],[11.94802,43.16244],[11.94033,43.15913],[11.92874,43.15262],[11.92859,43.1525],[11.92802,43.15205],[11.92796,43.152],[11.92776,43.15184],[11.92675,43.15093],[11.92571,43.14996],[11.92498,43.14925],[11.92403,43.14778],[11.9223,43.14142],[11.92204,43.13742],[11.92181,43.13482],[11.92042,43.13167],[11.91971,43.13117],[11.91885,43.13087],[11.91804,43.13059],[11.91763,43.13048],[11.91707,43.13034],[11.91325,43.12766],[11.91607,43.12344],[11.91899,43.12014],[11.92193,43.1105],[11.925,43.10446],[11.9275,43.10036],[11.93041,43.0943],[11.93052,43.09398],[11.93073,43.09339],[11.93092,43.0925],[11.93095,43.0924],[11.93111,43.09155],[11.93121,43.09092],[11.93101,43.08991],[11.93083,43.08949],[11.93061,43.08903],[11.93005,43.08807],[11.92805,43.08675],[11.92314,43.08004],[11.92375,43.07522],[11.92542,43.0746],[11.92766,43.07237],[11.93246,43.06692],[11.93473,43.06146],[11.93582,43.05721],[11.93593,43.05647],[11.93597,43.05621],[11.93607,43.05593],[11.93638,43.05563],[11.94007,43.05328],[11.94083,43.05298],[11.94203,43.05312],[11.94223,43.05316],[11.9425,43.05321],[11.94313,43.05339],[11.94345,43.0535],[11.9435,43.05352],[11.94565,43.05444],[11.94721,43.05519],[11.94784,43.0555],[11.94818,43.05571],[11.9487,43.05625],[11.95063,43.05925],[11.95107,43.06059],[11.95081,43.06105],[11.95059,43.06166],[11.95045,43.06206],[11.95035,43.06241],[11.95017,43.063],[11.95001,43.06368],[11.95037,43.06441],[11.951,43.06521],[11.95121,43.06544],[11.95131,43.06554],[11.95146,43.06569],[11.95149,43.06572],[11.95181,43.06597],[11.95204,43.06615],[11.95207,43.06617],[11.9556,43.06836],[11.95603,43.0685],[11.95659,43.06868],[11.9567,43.06866],[11.95707,43.06863],[11.95714,43.06862],[11.96151,43.06787],[11.96228,43.06772],[11.96291,43.06755],[11.96451,43.0671],[11.96497,43.06695],[11.96538,43.06682],[11.96689,43.06623],[11.97254,43.06401],[11.9728,43.06384],[11.97312,43.06364],[11.9734,43.06344],[11.97369,43.06324],[11.97635,43.06114],[11.97781,43.05985],[11.97832,43.05937],[11.97872,43.05897],[11.98037,43.05712],[11.9806,43.05682],[11.98067,43.05667],[11.98082,43.05637],[11.98228,43.05142],[11.9824,43.05095],[11.98243,43.05056],[11.98242,43.04997],[11.98222,43.04888],[11.98136,43.04686],[11.98104,43.04617],[11.98082,43.04578],[11.98056,43.04544],[11.9805,43.04537],[11.98044,43.04529],[11.98013,43.04491],[11.97991,43.04463],[11.9795,43.04436],[11.97921,43.04423],[11.979,43.04413],[11.97896,43.04411],[11.97859,43.04395],[11.97833,43.04383],[11.9776,43.04349],[11.97679,43.04297],[11.97663,43.04283],[11.97652,43.04273],[11.97645,43.04266],[11.97635,43.04257],[11.97617,43.04237],[11.97611,43.04231],[11.97598,43.04217],[11.97568,43.04176],[11.97551,43.0415],[11.97539,43.0413],[11.97408,43.03896],[11.97337,43.03758],[11.97239,43.03534],[11.97186,43.02748],[11.97173,43.02282],[11.97194,43.0223],[11.97196,43.02196],[11.97137,43.02067],[11.97102,43.02],[11.97047,43.01898],[11.96995,43.01809],[11.96937,43.01721],[11.9682,43.0155]]]]}},{"type":"Feature","properties":{"name":"colli-martani","comuni_count":13},"geometry":{"type":"MultiPolygon","coordinates":[[[[12.5023,42.73176],[12.50392,42.73115],[12.50568,42.73093],[12.5058,42.73091],[12.5078,42.73128],[12.50871,42.73167],[12.50951,42.73213],[12.51097,42.73271],[12.51193,42.73248],[12.51415,42.73029],[12.5152,42.72912],[12.51547,42.72715],[12.51556,42.72477],[12.51552,42.72474],[12.51524,42.72454],[12.5143,42.7242],[12.51369,42.72385],[12.51371,42.72357],[12.51392,42.7212],[12.51543,42.71876],[12.51997,42.71664],[12.53208,42.71125],[12.537,42.71148],[12.54399,42.71569],[12.56351,42.71556],[12.56633,42.71501],[12.56803,42.71471],[12.56973,42.71441],[12.5698,42.7144],[12.57331,42.71378],[12.5737,42.7139],[12.57711,42.71645],[12.5805,42.7193],[12.58021,42.72069],[12.57762,42.73316],[12.57711,42.73579],[12.57662,42.73886],[12.57695,42.73989],[12.57711,42.74001],[12.5838,42.74538],[12.58407,42.74665],[12.58458,42.74913],[12.58499,42.74922],[12.5864,42.74926],[12.58806,42.74918],[12.58915,42.74909],[12.59103,42.74877],[12.59385,42.74785],[12.59499,42.74743],[12.59631,42.74692],[12.59855,42.74584],[12.59958,42.74524],[12.60049,42.74468],[12.60125,42.74406],[12.60231,42.74317],[12.6031,42.74226],[12.60362,42.74138],[12.60407,42.74018],[12.60434,42.7392],[12.60438,42.73825],[12.60403,42.73655],[12.6038,42.73549],[12.60382,42.73429],[12.6039,42.73287],[12.60431,42.73178],[12.60486,42.73044],[12.60673,42.72752],[12.60738,42.72659],[12.60794,42.72586],[12.6087,42.72498],[12.60999,42.72368],[12.61199,42.72168],[12.61224,42.72147],[12.61259,42.72119],[12.61273,42.72116],[12.61377,42.721],[12.6149,42.72104],[12.62723,42.71966],[12.62358,42.71062],[12.62307,42.71009],[12.62292,42.70999],[12.62246,42.70967],[12.62215,42.70948],[12.62164,42.70919],[12.62068,42.70874],[12.61961,42.70836],[12.61688,42.70755],[12.61555,42.70748],[12.61392,42.70762],[12.61184,42.70781],[12.61109,42.70788],[12.61081,42.70793],[12.60993,42.70807],[12.60956,42.70813],[12.60896,42.70822],[12.60506,42.70961],[12.59586,42.71114],[12.59345,42.71122],[12.59224,42.71118],[12.59015,42.71101],[12.58863,42.71079],[12.58714,42.71011],[12.57989,42.70555],[12.57977,42.70516],[12.58098,42.69817],[12.58218,42.6937],[12.5836,42.68859],[12.58388,42.68818],[12.58478,42.68818],[12.5882,42.68893],[12.58976,42.68932],[12.60699,42.69404],[12.6084,42.69492],[12.61326,42.69437],[12.61477,42.69246],[12.61642,42.68792],[12.61653,42.68512],[12.61619,42.684],[12.61612,42.68321],[12.61608,42.6824],[12.61644,42.68124],[12.62223,42.67349],[12.62316,42.67328],[12.62494,42.67351],[12.62554,42.6734],[12.62663,42.67325],[12.62779,42.67323],[12.62883,42.67368],[12.62984,42.67459],[12.6307,42.67551],[12.63077,42.67553],[12.63097,42.67558],[12.63186,42.67578],[12.63369,42.67566],[12.63508,42.67556],[12.63517,42.67555],[12.63639,42.67539],[12.63785,42.67515],[12.63913,42.67487],[12.6398,42.67451],[12.64003,42.67306],[12.64007,42.67054],[12.63987,42.66913],[12.65352,42.66314],[12.65937,42.66064],[12.66887,42.65205],[12.6702,42.65013],[12.67178,42.6479],[12.67559,42.64385],[12.67594,42.64369],[12.67783,42.6434],[12.6783,42.64336],[12.67916,42.64338],[12.67962,42.64347],[12.67999,42.64354],[12.68365,42.64367],[12.69026,42.64205],[12.69069,42.64188],[12.69144,42.6415],[12.69192,42.64118],[12.69802,42.63716],[12.70568,42.62873],[12.70737,42.62698],[12.71206,42.62122],[12.71449,42.61691],[12.71506,42.61516],[12.71671,42.60736],[12.71939,42.59755],[12.71975,42.59725],[12.7201,42.59698],[12.72044,42.59686],[12.72083,42.59682],[12.72144,42.59685],[12.72244,42.59696],[12.7231,42.59703],[12.72364,42.59717],[12.72412,42.59738],[12.72607,42.59867],[12.72618,42.59892],[12.72533,42.6018],[12.72528,42.60209],[12.72531,42.60268],[12.72545,42.60303],[12.72623,42.60407],[12.72656,42.6044],[12.73248,42.60824],[12.73455,42.60903],[12.73516,42.60922],[12.7358,42.61003],[12.73619,42.61077],[12.73625,42.61117],[12.73626,42.61126],[12.73598,42.61292],[12.73566,42.61425],[12.73519,42.61569],[12.73454,42.61744],[12.73403,42.61821],[12.73377,42.6187],[12.7336,42.61933],[12.73344,42.62339],[12.7335,42.62377],[12.73382,42.62414],[12.7467,42.63164],[12.74902,42.63281],[12.7518,42.63405],[12.75678,42.6353],[12.75982,42.63563],[12.76331,42.63598],[12.76515,42.63595],[12.7667,42.63577],[12.77033,42.63559],[12.77506,42.63597],[12.77527,42.63617],[12.77658,42.63751],[12.78548,42.64696],[12.78567,42.6519],[12.78619,42.65688],[12.78627,42.6572],[12.78655,42.65811],[12.78662,42.65832],[12.79179,42.66204],[12.79589,42.66127],[12.79665,42.66043],[12.79767,42.65931],[12.79897,42.65812],[12.7992,42.65797],[12.79987,42.65771],[12.80036,42.65757],[12.8062,42.65673],[12.80712,42.65669],[12.80806,42.65687],[12.81207,42.65954],[12.80723,42.66104],[12.80633,42.66166],[12.80465,42.66441],[12.80276,42.67029],[12.80192,42.67431],[12.80163,42.67578],[12.80137,42.67716],[12.80146,42.67831],[12.80204,42.67973],[12.80285,42.68064],[12.80455,42.68175],[12.79735,42.68515],[12.79237,42.68516],[12.78375,42.69024],[12.78277,42.69225],[12.78259,42.69292],[12.78293,42.69344],[12.78602,42.6952],[12.78888,42.69953],[12.79949,42.70307],[12.80296,42.70299],[12.80764,42.70338],[12.80822,42.70368],[12.80855,42.70411],[12.81066,42.70704],[12.81071,42.70729],[12.80577,42.70913],[12.80584,42.71455],[12.80927,42.72112],[12.8096,42.72175],[12.81256,42.72336],[12.81404,42.72339],[12.80804,42.72615],[12.80651,42.72699],[12.80557,42.7278],[12.80495,42.72881],[12.80492,42.72887],[12.80037,42.73904],[12.80334,42.74837],[12.80804,42.75209],[12.81105,42.75476],[12.8164,42.76471],[12.8228,42.78113],[12.82321,42.78184],[12.82325,42.78191],[12.82446,42.78335],[12.82716,42.7859],[12.82711,42.78793],[12.82799,42.79072],[12.83354,42.79259],[12.83682,42.79338],[12.83926,42.79365],[12.84146,42.79396],[12.84169,42.79413],[12.8435,42.79759],[12.84537,42.80183],[12.8464,42.80606],[12.84625,42.80849],[12.84278,42.80963],[12.84165,42.80902],[12.84033,42.80869],[12.83969,42.80869],[12.83879,42.80878],[12.83796,42.80917],[12.83731,42.80949],[12.8357,42.81079],[12.83452,42.81181],[12.82487,42.82043],[12.82195,42.82312],[12.81887,42.82827],[12.81747,42.83233],[12.81706,42.83459],[12.8169,42.83739],[12.81089,42.83805],[12.80804,42.83057],[12.80068,42.82094],[12.80011,42.81973],[12.79937,42.81866],[12.79814,42.81757],[12.79678,42.81688],[12.79492,42.81613],[12.7934,42.81565],[12.79173,42.8152],[12.79148,42.81515],[12.78955,42.81471],[12.77536,42.81251],[12.77404,42.81247],[12.77157,42.81283],[12.76984,42.81323],[12.76084,42.81662],[12.75787,42.81789],[12.75786,42.81791],[12.75784,42.81795],[12.75771,42.81818],[12.75756,42.81896],[12.75711,42.82176],[12.75707,42.8225],[12.75735,42.82337],[12.75784,42.82392],[12.75842,42.82454],[12.75908,42.82513],[12.75945,42.82563],[12.75988,42.82635],[12.76001,42.82671],[12.76013,42.82704],[12.76025,42.82826],[12.76011,42.8289],[12.75957,42.82993],[12.75901,42.83067],[12.75805,42.83166],[12.75741,42.83217],[12.75581,42.83316],[12.75514,42.83341],[12.75419,42.83361],[12.75233,42.8338],[12.74952,42.83398],[12.74834,42.83403],[12.74798,42.83403],[12.74276,42.83432],[12.74,42.83773],[12.74004,42.83835],[12.73963,42.83947],[12.73929,42.84023],[12.73915,42.84051],[12.73461,42.84164],[12.72911,42.84233],[12.72805,42.84224],[12.72677,42.84168],[12.72576,42.84],[12.7218,42.83669],[12.71692,42.837],[12.71674,42.83767],[12.71655,42.8382],[12.71629,42.83853],[12.71351,42.84065],[12.70981,42.84344],[12.709,42.84351],[12.7089,42.84352],[12.7064,42.84331],[12.70501,42.84295],[12.7021,42.84185],[12.69758,42.84079],[12.69681,42.84069],[12.69515,42.84077],[12.69381,42.84083],[12.69297,42.84125],[12.6922,42.84185],[12.69208,42.84233],[12.69152,42.84605],[12.69171,42.84775],[12.69346,42.85123],[12.69713,42.85735],[12.70042,42.86636],[12.70137,42.87259],[12.70307,42.89355],[12.70288,42.89691],[12.70187,42.9022],[12.70146,42.90295],[12.70085,42.90372],[12.70013,42.90453],[12.69684,42.90761],[12.69695,42.908],[12.69473,42.90894],[12.68844,42.91162],[12.68811,42.91176],[12.68797,42.91146],[12.68788,42.91126],[12.68737,42.91014],[12.67997,42.91157],[12.6758,42.91266],[12.66668,42.91517],[12.65344,42.91949],[12.65333,42.91953],[12.64915,42.92123],[12.64821,42.92179],[12.64526,42.92377],[12.63958,42.92799],[12.63613,42.93069],[12.63466,42.93198],[12.63358,42.93703],[12.63381,42.93701],[12.63382,42.9389],[12.63062,42.94321],[12.62331,42.95156],[12.61586,42.95687],[12.61531,42.95712],[12.61491,42.95732],[12.61469,42.95749],[12.61453,42.95772],[12.6126,42.96047],[12.6118,42.96241],[12.6116,42.96422],[12.61065,42.96606],[12.61059,42.9663],[12.60973,42.9698],[12.61012,42.97118],[12.60995,42.97169],[12.6076,42.97806],[12.60694,42.97969],[12.60636,42.98079],[12.6036,42.98908],[12.59868,43.0017],[12.59836,43.00203],[12.59826,43.00213],[12.5982,43.0022],[12.59766,43.00277],[12.59697,43.00351],[12.59669,43.00381],[12.59654,43.00399],[12.59639,43.00416],[12.59609,43.00453],[12.5957,43.00499],[12.59156,43.01016],[12.59192,43.01049],[12.59234,43.01078],[12.5872,43.01168],[12.5768,43.01444],[12.56836,43.01737],[12.56615,43.01813],[12.56116,43.01975],[12.55687,43.02078],[12.55524,43.0211],[12.55244,43.02139],[12.55323,43.02262],[12.55342,43.02297],[12.55359,43.02327],[12.55383,43.02375],[12.55434,43.02476],[12.55134,43.02985],[12.55021,43.03062],[12.54418,43.03243],[12.54305,43.03271],[12.54135,43.03176],[12.5345,43.03277],[12.53194,43.03363],[12.5307,43.0341],[12.52599,43.03609],[12.52172,43.03825],[12.5106,43.04435],[12.50353,43.04825],[12.5,43.05044],[12.4995,43.05091],[12.499,43.05123],[12.49804,43.05149],[12.49246,43.05292],[12.49134,43.05321],[12.49037,43.05209],[12.48927,43.05074],[12.48828,43.04946],[12.488,43.049],[12.48755,43.04828],[12.48706,43.0473],[12.48681,43.0463],[12.48659,43.04516],[12.47063,43.04161],[12.46637,43.04141],[12.4651,43.04134],[12.46495,43.04094],[12.46491,43.0391],[12.46557,43.03465],[12.46576,43.03379],[12.46595,43.03298],[12.46626,43.03235],[12.46631,43.03229],[12.4665,43.03211],[12.46688,43.03173],[12.46831,43.017],[12.46838,43.01583],[12.46833,43.01423],[12.46825,43.01255],[12.468,43.01138],[12.46784,43.01082],[12.46507,43.00628],[12.46461,43.00555],[12.4644,43.00523],[12.46396,43.005],[12.46323,43.0049],[12.45773,43.00289],[12.45558,42.99871],[12.45607,42.997],[12.45636,42.99599],[12.4536,42.99701],[12.44629,42.99571],[12.44551,42.99544],[12.44222,42.99562],[12.4415,42.99571],[12.44082,42.99584],[12.43992,42.99633],[12.43774,43],[12.43683,43.00412],[12.42713,43.00934],[12.41775,43.0122],[12.40651,43.01643],[12.39977,43.01517],[12.39856,43.01518],[12.39848,43.0152],[12.39409,43.01666],[12.38799,43.02023],[12.37072,43.02379],[12.36892,43.02145],[12.36841,43.01946],[12.36788,43.0147],[12.36689,43.00924],[12.36358,42.99702],[12.36302,42.99547],[12.3625,42.9948],[12.36222,42.99448],[12.36599,42.99377],[12.37702,42.98988],[12.39162,42.98225],[12.39281,42.97809],[12.39056,42.97824],[12.38958,42.97791],[12.38908,42.97748],[12.38853,42.97691],[12.38847,42.97631],[12.38862,42.97566],[12.38915,42.97507],[12.39316,42.97153],[12.39384,42.97094],[12.39478,42.97067],[12.39553,42.97059],[12.39645,42.9706],[12.39677,42.97061],[12.39719,42.97068],[12.3982,42.96701],[12.39819,42.96046],[12.39533,42.95447],[12.39495,42.95419],[12.39432,42.95372],[12.39329,42.95288],[12.39015,42.94993],[12.38923,42.94879],[12.38887,42.94747],[12.38869,42.94636],[12.38863,42.94568],[12.38859,42.94514],[12.38893,42.94408],[12.38996,42.94209],[12.39124,42.93985],[12.39166,42.93943],[12.39243,42.9389],[12.3932,42.93901],[12.39332,42.93903],[12.39408,42.93904],[12.39538,42.93846],[12.39656,42.93785],[12.3971,42.93723],[12.39733,42.93651],[12.3972,42.93544],[12.39676,42.93442],[12.39664,42.93417],[12.39645,42.93367],[12.3964,42.93354],[12.396,42.93306],[12.39412,42.93092],[12.39353,42.93048],[12.38873,42.93112],[12.38609,42.93158],[12.38533,42.93186],[12.38492,42.93252],[12.37892,42.93183],[12.37175,42.92959],[12.37077,42.92906],[12.37055,42.92845],[12.36984,42.92225],[12.36997,42.92173],[12.37577,42.91034],[12.38494,42.90347],[12.38174,42.90006],[12.38136,42.90023],[12.37857,42.89893],[12.3775,42.8984],[12.37723,42.89827],[12.37682,42.89802],[12.37612,42.89761],[12.3754,42.89713],[12.37489,42.89674],[12.37523,42.89628],[12.37532,42.89623],[12.37601,42.89588],[12.37636,42.8957],[12.3773,42.89526],[12.3781,42.89489],[12.38212,42.89385],[12.38746,42.89284],[12.38789,42.8927],[12.38866,42.89194],[12.39187,42.88827],[12.39251,42.88734],[12.39268,42.88656],[12.39228,42.88564],[12.39186,42.88485],[12.39155,42.88447],[12.38349,42.88334],[12.38202,42.8881],[12.38128,42.88903],[12.38034,42.88972],[12.37941,42.89021],[12.378,42.89052],[12.37663,42.89056],[12.37517,42.89041],[12.37354,42.8901],[12.37267,42.88985],[12.37023,42.88911],[12.36914,42.88869],[12.36826,42.8881],[12.36764,42.88744],[12.36755,42.88673],[12.36781,42.88597],[12.36838,42.88515],[12.36919,42.88451],[12.37017,42.88419],[12.37704,42.88272],[12.37666,42.88242],[12.37591,42.88182],[12.37506,42.88112],[12.37426,42.88017],[12.37414,42.87988],[12.37416,42.87943],[12.37423,42.87907],[12.37426,42.87894],[12.37444,42.87816],[12.3755,42.87549],[12.37704,42.87311],[12.37519,42.86831],[12.37598,42.86141],[12.38722,42.85695],[12.39705,42.85365],[12.39589,42.85375],[12.39579,42.85376],[12.39476,42.85381],[12.3898,42.8507],[12.38885,42.85009],[12.38801,42.8495],[12.38591,42.84782],[12.38527,42.84713],[12.38482,42.84658],[12.38452,42.84635],[12.3839,42.84611],[12.38302,42.84606],[12.37939,42.84605],[12.37825,42.84625],[12.37447,42.84857],[12.37263,42.85077],[12.3579,42.85493],[12.347,42.85657],[12.3363,42.85819],[12.33579,42.85869],[12.33575,42.85871],[12.33558,42.85879],[12.33512,42.85884],[12.33446,42.85887],[12.33389,42.85889],[12.33308,42.85892],[12.33098,42.85895],[12.32977,42.85882],[12.32917,42.8586],[12.32599,42.85644],[12.32649,42.85456],[12.32728,42.85038],[12.32699,42.84947],[12.32452,42.84343],[12.32206,42.8387],[12.31894,42.83705],[12.3145,42.83437],[12.31156,42.82828],[12.30933,42.8219],[12.30659,42.80875],[12.29991,42.79591],[12.30175,42.79092],[12.30191,42.7897],[12.30164,42.78526],[12.30094,42.78197],[12.30066,42.78148],[12.29985,42.78105],[12.29077,42.7812],[12.29204,42.77726],[12.29122,42.76741],[12.29512,42.75659],[12.29616,42.75243],[12.29655,42.75093],[12.29731,42.74894],[12.29956,42.74804],[12.30009,42.74798],[12.30626,42.74723],[12.31093,42.74572],[12.31344,42.74329],[12.31563,42.74084],[12.31828,42.74153],[12.32057,42.74338],[12.32062,42.74342],[12.32238,42.74524],[12.32266,42.74555],[12.32359,42.74661],[12.32405,42.74775],[12.32424,42.74822],[12.32457,42.74997],[12.32464,42.75031],[12.33255,42.75093],[12.33435,42.74783],[12.3405,42.74092],[12.34259,42.73876],[12.34386,42.73784],[12.34877,42.73487],[12.35573,42.72425],[12.35651,42.72312],[12.35883,42.72023],[12.35983,42.71917],[12.36446,42.71589],[12.37058,42.71284],[12.37101,42.71306],[12.37137,42.71312],[12.37226,42.71308],[12.37248,42.713],[12.37268,42.71293],[12.37388,42.71156],[12.3745,42.71055],[12.37529,42.70678],[12.37299,42.70359],[12.36914,42.70097],[12.37112,42.69183],[12.36871,42.68693],[12.37561,42.68408],[12.38243,42.67961],[12.38407,42.678],[12.38462,42.67615],[12.38543,42.67399],[12.38596,42.6733],[12.38663,42.67331],[12.39636,42.67673],[12.39681,42.67716],[12.39726,42.67795],[12.39882,42.68241],[12.39927,42.6843],[12.39943,42.68569],[12.39892,42.68727],[12.39865,42.68792],[12.39838,42.68991],[12.39856,42.69179],[12.39865,42.69255],[12.39948,42.69537],[12.40103,42.6985],[12.40165,42.69953],[12.40415,42.7006],[12.40566,42.70091],[12.40767,42.70111],[12.41079,42.70139],[12.41236,42.70127],[12.41408,42.70103],[12.41422,42.70099],[12.41439,42.70094],[12.4147,42.7006],[12.4138,42.69689],[12.41494,42.68569],[12.4156,42.6807],[12.4171,42.68043],[12.42349,42.68401],[12.43981,42.69426],[12.44652,42.69959],[12.44779,42.70058],[12.45014,42.70228],[12.4572,42.70421],[12.46034,42.70495],[12.46139,42.7049],[12.46253,42.7047],[12.47015,42.71214],[12.47406,42.7157],[12.4815,42.72036],[12.48929,42.72679],[12.49029,42.72975],[12.49033,42.72986],[12.49078,42.73107],[12.49085,42.73126],[12.49105,42.73162],[12.49322,42.73472],[12.49381,42.73467],[12.49501,42.73457],[12.5023,42.73176]]]]}}]}