{"type":"Feature","properties":{"reg_name":"Umbria","slug":"umbria","_provenance":{"authority":"ISTAT (openpolis/geojson-italy limits_IT_regions)","licence":"CC BY 4.0","method":"mapshaper 6% simplify, interior rings dropped, 5dp"}},"geometry":{"type":"MultiPolygon","coordinates":[[[[13.15849,42.65425],[13.17982,42.67759],[13.17333,42.68731],[13.19066,42.71275],[13.1942,42.7585],[13.21651,42.77148],[13.24512,42.77263],[13.26403,42.80824],[13.24794,42.84947],[13.2309,42.854],[13.18756,42.83448],[13.15456,42.83462],[13.11225,42.88933],[13.08073,42.89953],[13.05278,42.9198],[13.00252,42.89557],[12.99024,42.87112],[12.97615,42.8698],[12.96839,42.90068],[12.97679,42.92568],[12.89582,42.96459],[12.90817,42.98487],[12.88801,43.00952],[12.90671,43.0354],[12.88993,43.05888],[12.89733,43.09348],[12.87547,43.12344],[12.843,43.12234],[12.83236,43.1473],[12.86249,43.16597],[12.86824,43.19521],[12.86234,43.21125],[12.83661,43.21753],[12.82476,43.26657],[12.78924,43.28448],[12.80223,43.30757],[12.79109,43.3373],[12.74969,43.37806],[12.74681,43.39045],[12.77443,43.40197],[12.76591,43.42604],[12.76745,43.45985],[12.73576,43.46375],[12.71527,43.44609],[12.70938,43.42512],[12.66318,43.43683],[12.62516,43.42066],[12.56426,43.4598],[12.49981,43.52146],[12.48053,43.52745],[12.45739,43.51731],[12.43319,43.53841],[12.39904,43.51322],[12.36674,43.53409],[12.33318,43.52358],[12.31291,43.5431],[12.34495,43.55363],[12.3735,43.58429],[12.35116,43.61148],[12.26318,43.58907],[12.22528,43.59392],[12.21383,43.61088],[12.16266,43.56137],[12.1421,43.53577],[12.10273,43.52993],[12.09509,43.49916],[12.13096,43.48264],[12.14123,43.46893],[12.10403,43.46045],[12.08029,43.43385],[12.05688,43.43825],[12.02521,43.41557],[12.03294,43.40022],[12.07783,43.39869],[12.07303,43.37041],[12.11877,43.36436],[12.13546,43.3417],[12.13252,43.29307],[12.17817,43.28308],[12.19382,43.31307],[12.22371,43.29626],[12.21006,43.28273],[12.16643,43.26872],[12.14858,43.25462],[12.12182,43.25519],[12.08592,43.23633],[12.0489,43.25311],[12.02749,43.19162],[11.98748,43.18052],[11.92403,43.14778],[11.92094,43.11759],[11.93041,43.0943],[11.92375,43.07522],[11.93638,43.05563],[11.95659,43.06868],[11.98082,43.05637],[11.97194,43.0223],[11.94855,42.96196],[11.93272,42.9085],[11.95881,42.89165],[11.95866,42.87106],[11.92902,42.86929],[11.91177,42.84965],[11.89189,42.84288],[11.93131,42.77844],[11.97948,42.76459],[11.96873,42.73458],[11.94915,42.7274],[11.92629,42.70474],[11.94133,42.6833],[11.97798,42.67553],[12.02471,42.65149],[12.07372,42.65667],[12.11954,42.64982],[12.14077,42.6563],[12.16101,42.67691],[12.19728,42.66385],[12.24334,42.62809],[12.22919,42.6104],[12.24595,42.59995],[12.23872,42.57201],[12.27504,42.55991],[12.26717,42.53262],[12.31644,42.48838],[12.37417,42.48113],[12.40352,42.49996],[12.4179,42.45845],[12.41138,42.44601],[12.42227,42.4216],[12.46671,42.41947],[12.48136,42.40416],[12.51113,42.40357],[12.51327,42.37862],[12.53123,42.36507],[12.54894,42.38233],[12.56999,42.38291],[12.61489,42.41448],[12.61196,42.43625],[12.62137,42.46867],[12.64269,42.46451],[12.66598,42.44097],[12.70279,42.4609],[12.74157,42.47053],[12.71113,42.5008],[12.77354,42.51309],[12.7732,42.53128],[12.82302,42.53749],[12.84783,42.5528],[12.89273,42.5635],[12.88009,42.60236],[12.89634,42.61644],[12.93154,42.60359],[12.95339,42.61902],[13.00432,42.61524],[13.01533,42.63192],[13.05857,42.62284],[13.09781,42.63631],[13.1305,42.6593],[13.15849,42.65425]]]]}}