{"type":"Feature","properties":{"source":"Natural Earth 1:50m admin_0_countries_lakes ADM0_A3=USA","commit":"ca96624a56bd078437bca8184e78163e5039ad19","raw_sha256":"B4C14911C7EEC4A5D920B90294DE6C16FDB078425B2CAA6974A38A0B261F9667","filter":"components whose outer ring lies fully inside lon [-125,-66.5], lat [24,49.5] (the lower 48; Alaska and Hawaii excluded)","precision":4},"geometry":{"type":"MultiPolygon","coordinates":[[[[-74.7089,45.0039],[-74.6632,45.0039],[-74.4304,45.0042],[-74.0143,45.0047],[-73.5981,45.0052],[-73.182,45.0056],[-72.7659,45.0061],[-72.3498,45.0066],[-71.9336,45.0071],[-71.5175,45.0076],[-71.419,45.2003],[-71.3273,45.2901],[-71.2016,45.2604],[-71.1347,45.2628],[-71.0603,45.3091],[-70.9999,45.3373],[-70.9602,45.3331],[-70.9262,45.2907],[-70.898,45.2625],[-70.865,45.2707],[-70.8368,45.3107],[-70.8378,45.3662],[-70.7992,45.4048],[-70.7533,45.4107],[-70.7109,45.4095],[-70.6898,45.4283],[-70.6921,45.4554],[-70.7074,45.4989],[-70.7022,45.5514],[-70.5964,45.644],[-70.4666,45.7068],[-70.4211,45.7382],[-70.4079,45.8019],[-70.3334,45.8681],[-70.2962,45.9061],[-70.2872,45.9392],[-70.3064,45.9798],[-70.3045,46.0574],[-70.2789,46.15],[-70.2483,46.2509],[-70.1797,46.3418],[-70.0672,46.4411],[-70.0382,46.5714],[-70.0077,46.7089],[-69.8717,46.8429],[-69.7175,46.9949],[-69.6298,47.0813],[-69.4715,47.2387],[-69.3589,47.3506],[-69.3021,47.402],[-69.2429,47.463],[-69.1463,47.4448],[-69.0502,47.4266],[-69.0643,47.3381],[-69.0486,47.2736],[-69.0031,47.2364],[-68.9372,47.2112],[-68.8874,47.2028],[-68.8287,47.2033],[-68.6686,47.2535],[-68.4804,47.2858],[-68.3769,47.3162],[-68.358,47.3445],[-68.3109,47.3545],[-68.2355,47.3459],[-68.0968,47.2749],[-67.9349,47.1676],[-67.8068,47.0828],[-67.8028,46.9357],[-67.8003,46.7799],[-67.7977,46.6156],[-67.7958,46.4984],[-67.7925,46.3374],[-67.7899,46.2093],[-67.7865,46.0421],[-67.7847,45.9528],[-67.767,45.927],[-67.7776,45.8918],[-67.7823,45.8742],[-67.7812,45.8602],[-67.7741,45.8425],[-67.7753,45.8179],[-67.7917,45.7956],[-67.7999,45.7698],[-67.8007,45.7555],[-67.863,45.7396],[-67.779,45.6701],[-67.6255,45.6022],[-67.5124,45.5894],[-67.4494,45.6071],[-67.4497,45.608],[-67.4327,45.6031],[-67.4139,45.5656],[-67.4244,45.5304],[-67.4549,45.514],[-67.4878,45.501],[-67.4937,45.4741],[-67.4772,45.4459],[-67.4538,45.4212],[-67.4279,45.3779],[-67.4385,45.3404],[-67.462,45.3087],[-67.4726,45.2759],[-67.4526,45.2477],[-67.3998,45.2102],[-67.3669,45.1738],[-67.3153,45.1538],[-67.2907,45.1679],[-67.2707,45.1867],[-67.2496,45.2008],[-67.2132,45.1925],[-67.171,45.182],[-67.1249,45.1694],[-67.1304,45.139],[-67.1022,45.0877],[-67.0805,44.9892],[-67.1139,44.9444],[-67.1067,44.8851],[-67.014,44.8678],[-66.9915,44.8496],[-66.987,44.8277],[-67.1913,44.6756],[-67.3641,44.6969],[-67.4578,44.6565],[-67.556,44.6448],[-67.5991,44.5768],[-67.653,44.5624],[-67.7268,44.5665],[-67.7905,44.5857],[-67.8391,44.5763],[-67.907,44.4536],[-67.9627,44.4643],[-67.9849,44.4202],[-68.014,44.4009],[-68.0566,44.3843],[-68.0937,44.4388],[-68.1173,44.4906],[-68.1521,44.502],[-68.1982,44.5152],[-68.2458,44.5148],[-68.2774,44.5074],[-68.3167,44.4739],[-68.3737,44.4451],[-68.4168,44.4691],[-68.4506,44.5076],[-68.4794,44.4457],[-68.5214,44.3802],[-68.5145,44.3039],[-68.5325,44.2586],[-68.5724,44.2709],[-68.612,44.3105],[-68.7233,44.3423],[-68.8119,44.3394],[-68.7939,44.3817],[-68.7101,44.4426],[-68.7359,44.4545],[-68.777,44.446],[-68.7949,44.4545],[-68.7655,44.5098],[-68.7627,44.5708],[-68.8002,44.5494],[-68.8474,44.4851],[-68.9615,44.4338],[-68.9562,44.3481],[-69.0636,44.1724],[-69.0684,44.0976],[-69.1373,44.0378],[-69.2261,43.9865],[-69.3445,44.0009],[-69.435,43.9563],[-69.4809,43.9051],[-69.5208,43.8974],[-69.5416,43.9626],[-69.5567,43.9828],[-69.59,43.8866],[-69.6239,43.8806],[-69.6368,43.9488],[-69.6529,43.9939],[-69.6991,43.955],[-69.7298,43.852],[-69.762,43.8607],[-69.7723,43.899],[-69.7953,43.9106],[-69.8032,43.8668],[-69.7916,43.8052],[-69.8083,43.7723],[-69.8403,43.7899],[-69.8725,43.8195],[-69.9256,43.797],[-69.9743,43.7879],[-69.9745,43.8181],[-69.9652,43.8551],[-70.0624,43.8346],[-70.1788,43.7664],[-70.2692,43.6719],[-70.2379,43.6562],[-70.2026,43.6261],[-70.3597,43.4802],[-70.5207,43.3488],[-70.6423,43.1344],[-70.6912,43.1093],[-70.7331,43.07],[-70.7776,42.9406],[-70.8291,42.8253],[-70.8003,42.774],[-70.7813,42.7212],[-70.7357,42.6693],[-70.6969,42.6646],[-70.6548,42.674],[-70.624,42.6718],[-70.6041,42.6497],[-70.6129,42.6232],[-70.6614,42.6167],[-70.7519,42.5704],[-70.8312,42.5526],[-70.8709,42.4966],[-70.9305,42.432],[-71.0462,42.3311],[-70.9967,42.3],[-70.818,42.2649],[-70.7383,42.2289],[-70.6177,42.0404],[-70.6452,42.0216],[-70.6562,41.9871],[-70.5489,41.9386],[-70.5147,41.8033],[-70.4267,41.7573],[-70.2955,41.729],[-70.135,41.7699],[-70.0014,41.8262],[-70.0061,41.8723],[-70.09,41.9797],[-70.1103,42.0301],[-70.1726,42.0628],[-70.1962,42.0351],[-70.2365,42.071],[-70.2411,42.0912],[-70.2035,42.101],[-70.1599,42.0971],[-70.1089,42.0783],[-69.9779,41.9613],[-69.9416,41.8079],[-69.9338,41.7104],[-69.9486,41.6771],[-69.9868,41.684],[-70.0595,41.6773],[-70.4047,41.6269],[-70.4813,41.5825],[-70.6571,41.5342],[-70.6681,41.5583],[-70.6554,41.6081],[-70.6665,41.7101],[-70.7011,41.7148],[-70.9742,41.5485],[-71.0798,41.5381],[-71.1686,41.4894],[-71.1884,41.5164],[-71.2043,41.6411],[-71.1487,41.7457],[-71.1783,41.744],[-71.2711,41.6813],[-71.3107,41.7199],[-71.3306,41.7623],[-71.3592,41.7862],[-71.3901,41.7953],[-71.3637,41.7027],[-71.4266,41.6333],[-71.4438,41.4537],[-71.5229,41.379],[-71.7693,41.3309],[-71.9299,41.3411],[-72.0739,41.3261],[-72.2653,41.2916],[-72.371,41.3122],[-72.4794,41.2758],[-72.8472,41.2659],[-72.9247,41.2852],[-73.0237,41.2165],[-73.1823,41.1758],[-73.583,41.0219],[-73.6714,40.9659],[-73.779,40.8784],[-73.8513,40.8314],[-73.9107,40.8161],[-73.9472,40.777],[-73.9871,40.7514],[-73.9486,40.8388],[-73.9067,40.9125],[-73.872,41.0552],[-73.8822,41.1706],[-73.9253,41.2181],[-73.9699,41.2497],[-73.9177,41.1358],[-73.9092,40.9961],[-73.9272,40.9143],[-74.0255,40.7564],[-74.0673,40.7196],[-74.1163,40.6873],[-74.1531,40.6732],[-74.1872,40.648],[-74.2267,40.608],[-74.2642,40.5286],[-74.2415,40.4563],[-74.0499,40.4298],[-73.9984,40.4521],[-73.9723,40.4003],[-73.9576,40.3284],[-73.972,40.2505],[-74.004,40.1713],[-74.0283,40.073],[-74.0489,39.923],[-74.0799,39.7881],[-74.084,39.8291],[-74.0646,39.9931],[-74.096,39.976],[-74.1176,39.9381],[-74.1761,39.7266],[-74.2565,39.6139],[-74.3306,39.5359],[-74.407,39.5488],[-74.3898,39.4868],[-74.4108,39.4545],[-74.4288,39.3872],[-74.4744,39.3426],[-74.5172,39.3469],[-74.5787,39.3161],[-74.603,39.2926],[-74.6048,39.2475],[-74.6459,39.2079],[-74.7945,39.0019],[-74.9234,38.9411],[-74.9543,38.95],[-74.9203,39.0472],[-74.897,39.1455],[-74.9753,39.1882],[-75.0502,39.2108],[-75.1361,39.2079],[-75.2311,39.2843],[-75.3534,39.3398],[-75.5242,39.4902],[-75.5192,39.5319],[-75.5235,39.6019],[-75.4716,39.7124],[-75.4219,39.7897],[-75.3532,39.8297],[-75.1538,39.8705],[-75.1038,39.9318],[-75.0742,39.9835],[-75.1729,39.8948],[-75.3209,39.8647],[-75.4006,39.8316],[-75.4644,39.781],[-75.5021,39.7174],[-75.5876,39.6408],[-75.5816,39.5895],[-75.5673,39.553],[-75.5739,39.477],[-75.5198,39.4028],[-75.4126,39.2814],[-75.3922,39.0928],[-75.3104,38.9666],[-75.1851,38.8194],[-75.0887,38.7775],[-75.084,38.7228],[-75.1285,38.6324],[-75.1871,38.5911],[-75.1108,38.5994],[-75.0729,38.5787],[-75.0359,38.5033],[-75.0388,38.4264],[-75.0513,38.383],[-75.0744,38.3657],[-75.0734,38.41],[-75.0897,38.4254],[-75.1167,38.4062],[-75.1342,38.3843],[-75.1415,38.2981],[-75.16,38.2551],[-75.2254,38.2423],[-75.2918,38.1292],[-75.3535,38.065],[-75.5964,37.6312],[-75.5871,37.5587],[-75.6315,37.5354],[-75.6988,37.5164],[-75.7669,37.473],[-75.8121,37.4252],[-75.854,37.2966],[-75.9344,37.1519],[-75.9845,37.2122],[-75.9974,37.2638],[-75.975,37.3984],[-75.8881,37.6191],[-75.7924,37.7563],[-75.7193,37.8214],[-75.6593,37.954],[-75.7352,37.9737],[-75.8508,37.9716],[-75.8291,38.0328],[-75.7953,38.0867],[-75.8556,38.1404],[-75.8913,38.1472],[-75.9281,38.1692],[-75.885,38.214],[-75.8639,38.2612],[-75.8768,38.3188],[-75.8587,38.3621],[-75.8888,38.3555],[-75.9373,38.3097],[-75.9674,38.2914],[-75.9857,38.3319],[-76.0067,38.3228],[-76.0203,38.2949],[-76.0512,38.2795],[-76.1165,38.3177],[-76.2117,38.3613],[-76.2646,38.4364],[-76.2949,38.4946],[-76.2642,38.6],[-76.1984,38.6187],[-76.1129,38.6016],[-76.0009,38.6017],[-76.0169,38.6251],[-76.0569,38.6212],[-76.175,38.7067],[-76.213,38.7583],[-76.2783,38.7725],[-76.3081,38.7229],[-76.3412,38.7097],[-76.3003,38.8182],[-76.247,38.8227],[-76.1682,38.8527],[-76.1911,38.9156],[-76.2408,38.9431],[-76.3307,38.9086],[-76.3296,38.9528],[-76.3127,39.0094],[-76.245,39.0092],[-76.1857,38.9907],[-76.1352,39.0821],[-76.133,39.1229],[-76.2168,39.0636],[-76.2357,39.1916],[-76.1531,39.315],[-76.0744,39.3688],[-75.976,39.3673],[-75.876,39.376],[-75.9387,39.3986],[-76.0031,39.4108],[-75.9547,39.4596],[-75.9135,39.4684],[-75.8729,39.5109],[-75.9704,39.5046],[-75.9589,39.5851],[-76.0063,39.5687],[-76.063,39.5611],[-76.0851,39.527],[-76.0807,39.4703],[-76.0973,39.4331],[-76.1414,39.4032],[-76.2158,39.3799],[-76.223,39.4203],[-76.2477,39.4386],[-76.2568,39.3521],[-76.2764,39.3228],[-76.3308,39.4039],[-76.3472,39.3875],[-76.3451,39.3645],[-76.359,39.3247],[-76.4057,39.3039],[-76.4028,39.2528],[-76.4209,39.225],[-76.5704,39.2693],[-76.5739,39.2543],[-76.4894,39.1587],[-76.4276,39.126],[-76.4201,39.0739],[-76.4731,39.0306],[-76.5462,39.068],[-76.5585,39.0652],[-76.5188,39.0012],[-76.4937,38.9452],[-76.5195,38.8983],[-76.5155,38.8406],[-76.5211,38.7883],[-76.5369,38.7426],[-76.5013,38.5322],[-76.4585,38.475],[-76.4164,38.4202],[-76.3941,38.369],[-76.4388,38.3615],[-76.5099,38.4037],[-76.5724,38.4358],[-76.6469,38.5385],[-76.6592,38.5795],[-76.6773,38.612],[-76.6686,38.5375],[-76.642,38.4543],[-76.4088,38.2683],[-76.3657,38.1969],[-76.3329,38.1408],[-76.3412,38.087],[-76.402,38.125],[-76.4544,38.1735],[-76.5936,38.2283],[-76.7691,38.2629],[-76.8681,38.3903],[-76.8678,38.3372],[-76.8897,38.2921],[-76.9502,38.347],[-76.9884,38.3939],[-77.0012,38.4453],[-77.0767,38.4417],[-77.1559,38.3971],[-77.2325,38.4077],[-77.2416,38.4948],[-77.2209,38.541],[-77.1349,38.6501],[-77.0539,38.7058],[-77.0182,38.7777],[-77.0304,38.8893],[-77.0456,38.7758],[-77.0919,38.7195],[-77.1646,38.6766],[-77.2604,38.6],[-77.2838,38.5292],[-77.3137,38.3966],[-77.2732,38.3518],[-77.2319,38.34],[-77.1099,38.3701],[-77.0468,38.3567],[-76.9063,38.1971],[-76.6449,38.1339],[-76.5495,38.0945],[-76.4718,38.0112],[-76.3549,37.9632],[-76.2643,37.8936],[-76.2618,37.8481],[-76.2932,37.7943],[-76.3056,37.7216],[-76.3441,37.6757],[-76.4366,37.6704],[-76.4925,37.6822],[-76.7928,37.938],[-76.8286,37.9615],[-76.94,38.0955],[-77.0707,38.1672],[-77.1111,38.1657],[-76.9251,38.033],[-76.8492,37.9402],[-76.7154,37.8102],[-76.6198,37.7551],[-76.5495,37.6691],[-76.4841,37.6289],[-76.3056,37.5715],[-76.3676,37.5303],[-76.2686,37.4952],[-76.2544,37.4306],[-76.2635,37.357],[-76.401,37.3861],[-76.4055,37.3319],[-76.3932,37.3],[-76.4539,37.2735],[-76.5384,37.3094],[-76.7577,37.5054],[-76.7559,37.4792],[-76.7381,37.4488],[-76.6109,37.3226],[-76.4974,37.2469],[-76.4011,37.2127],[-76.327,37.1493],[-76.3008,37.1109],[-76.2833,37.0527],[-76.3383,37.0131],[-76.4009,36.9913],[-76.462,37.0308],[-76.5068,37.0723],[-76.6023,37.1429],[-76.6309,37.2217],[-76.7035,37.2177],[-77.007,37.3177],[-77.2509,37.3292],[-77.2271,37.3091],[-77.1962,37.2957],[-77.002,37.271],[-76.9252,37.225],[-76.7654,37.1841],[-76.6719,37.1729],[-76.6339,37.0474],[-76.5046,36.961],[-76.4878,36.897],[-76.3996,36.8898],[-76.2442,36.9526],[-76.144,36.9306],[-75.9994,36.9126],[-75.9664,36.862],[-75.9416,36.7655],[-75.8904,36.657],[-75.7579,36.2292],[-75.5587,35.8793],[-75.5342,35.8191],[-75.5805,35.872],[-75.7282,36.1037],[-75.8098,36.271],[-75.8936,36.5665],[-75.9179,36.6327],[-75.9465,36.6591],[-75.9653,36.6376],[-75.9734,36.6],[-75.9598,36.571],[-75.9928,36.4738],[-75.9785,36.4292],[-75.9249,36.383],[-75.8666,36.2679],[-75.8201,36.1128],[-75.883,36.1757],[-75.9502,36.209],[-76.0547,36.2345],[-76.1479,36.2793],[-76.1411,36.2151],[-76.15,36.1458],[-76.2218,36.1669],[-76.2706,36.1899],[-76.2274,36.116],[-76.3212,36.1382],[-76.3837,36.1335],[-76.4243,36.068],[-76.4788,36.0282],[-76.5594,36.0153],[-76.6789,36.0753],[-76.7176,36.1481],[-76.7336,36.2291],[-76.74,36.1333],[-76.7187,36.0335],[-76.7262,35.9576],[-76.6111,35.9437],[-76.5035,35.9561],[-76.3583,35.9529],[-76.2636,35.9671],[-76.2065,35.9912],[-76.0698,35.9703],[-76.0601,35.8787],[-76.0757,35.7875],[-76.0836,35.6905],[-76.0457,35.6912],[-76.0012,35.7222],[-75.9789,35.8959],[-75.8539,35.9602],[-75.812,35.9558],[-75.7722,35.8999],[-75.7588,35.8433],[-75.7447,35.7655],[-75.7739,35.647],[-75.966,35.5084],[-76.1035,35.3803],[-76.1738,35.3541],[-76.2752,35.369],[-76.3902,35.4013],[-76.4466,35.4078],[-76.4895,35.397],[-76.5156,35.4365],[-76.5325,35.5084],[-76.5772,35.5323],[-76.611,35.5297],[-76.6341,35.4532],[-76.7414,35.4315],[-76.8873,35.4631],[-77.04,35.5274],[-76.9745,35.4584],[-76.5955,35.3297],[-76.5528,35.3056],[-76.5129,35.2704],[-76.566,35.2152],[-76.6075,35.153],[-76.6134,35.1041],[-76.628,35.0733],[-76.7791,34.9903],[-76.861,35.005],[-77.0703,35.1546],[-76.975,35.0252],[-76.8986,34.9703],[-76.745,34.941],[-76.4567,34.9894],[-76.3622,34.9365],[-76.4398,34.8429],[-76.5169,34.7772],[-76.618,34.7699],[-76.7071,34.7521],[-76.7332,34.707],[-76.7967,34.7042],[-76.8959,34.7015],[-77.0495,34.6974],[-77.1339,34.7079],[-77.2518,34.6156],[-77.2962,34.6029],[-77.3584,34.6203],[-77.3845,34.6944],[-77.4123,34.7308],[-77.4129,34.5921],[-77.4021,34.5548],[-77.3798,34.5266],[-77.5177,34.4514],[-77.6497,34.3575],[-77.697,34.332],[-77.7507,34.285],[-77.8608,34.1492],[-77.888,34.0501],[-77.9278,33.9397],[-77.9329,33.9895],[-77.926,34.0731],[-77.9533,34.169],[-77.9706,33.9934],[-78.0133,33.9118],[-78.4059,33.9176],[-78.5777,33.8732],[-78.8415,33.7241],[-78.9203,33.6587],[-79.1382,33.4059],[-79.1938,33.2441],[-79.2384,33.3122],[-79.2273,33.3632],[-79.2265,33.4049],[-79.2813,33.3154],[-79.2292,33.1852],[-79.276,33.1354],[-79.4199,33.0425],[-79.4987,33.0273],[-79.5871,33.0009],[-79.6149,32.9093],[-79.735,32.8248],[-79.805,32.7874],[-79.9331,32.8101],[-79.8937,32.7287],[-79.9407,32.6671],[-80.0218,32.6199],[-80.1226,32.5891],[-80.1803,32.5929],[-80.2297,32.5765],[-80.2684,32.5374],[-80.3628,32.5007],[-80.461,32.5213],[-80.5722,32.5337],[-80.6342,32.5117],[-80.53,32.4754],[-80.4743,32.4228],[-80.4857,32.3518],[-80.5136,32.3244],[-80.5793,32.2873],[-80.6082,32.2928],[-80.6258,32.3263],[-80.6472,32.3959],[-80.6778,32.3811],[-80.6831,32.3486],[-80.7093,32.3371],[-80.8025,32.448],[-80.7979,32.3634],[-80.7653,32.2983],[-80.7338,32.2653],[-80.7021,32.2459],[-80.6942,32.2157],[-80.758,32.1422],[-80.7908,32.1258],[-80.8492,32.1139],[-80.8821,32.0686],[-80.8724,32.0296],[-80.9234,31.9449],[-81.0456,31.892],[-81.0829,31.8941],[-81.1133,31.8786],[-81.0955,31.8409],[-81.065,31.8135],[-81.0661,31.788],[-81.0984,31.7534],[-81.1621,31.7437],[-81.1979,31.7042],[-81.1866,31.6669],[-81.1655,31.6461],[-81.1699,31.6103],[-81.2424,31.5743],[-81.2594,31.5389],[-81.2234,31.5285],[-81.1957,31.5389],[-81.1754,31.5313],[-81.2189,31.4721],[-81.2579,31.436],[-81.295,31.3712],[-81.381,31.3533],[-81.3777,31.3323],[-81.3291,31.3138],[-81.2885,31.2639],[-81.3649,31.1719],[-81.4126,31.1794],[-81.4417,31.1997],[-81.4604,31.1271],[-81.4532,31.0883],[-81.4714,31.009],[-81.5006,30.9138],[-81.5204,30.8747],[-81.5162,30.8018],[-81.504,30.7314],[-81.4572,30.6408],[-81.3857,30.27],[-81.3371,30.1412],[-81.2495,29.7938],[-81.1045,29.457],[-80.9,29.0499],[-80.5643,28.5564],[-80.5241,28.4861],[-80.5678,28.4265],[-80.5812,28.3647],[-80.585,28.2716],[-80.5729,28.1809],[-80.5332,28.0701],[-80.4569,27.9007],[-80.4996,27.9345],[-80.61,28.1776],[-80.6229,28.3204],[-80.6069,28.5229],[-80.6329,28.518],[-80.6539,28.4522],[-80.6655,28.3749],[-80.6935,28.345],[-80.7317,28.4629],[-80.7291,28.5162],[-80.6885,28.5785],[-80.7002,28.6009],[-80.7659,28.6328],[-80.7799,28.683],[-80.771,28.7325],[-80.8087,28.7589],[-80.8382,28.7577],[-80.8184,28.6356],[-80.7872,28.5606],[-80.7486,28.381],[-80.6864,28.2722],[-80.6501,28.1809],[-80.2261,27.207],[-80.1258,27.083],[-80.0887,26.9939],[-80.05,26.8077],[-80.0413,26.5686],[-80.1106,26.1316],[-80.1264,25.8335],[-80.1363,25.8426],[-80.1429,25.874],[-80.1589,25.8783],[-80.2191,25.7417],[-80.3008,25.6186],[-80.3277,25.4271],[-80.3669,25.3313],[-80.4847,25.2298],[-80.5576,25.2324],[-80.7365,25.1563],[-80.8622,25.1762],[-81.012,25.1333],[-81.1105,25.138],[-81.1674,25.2285],[-81.1587,25.269],[-81.136,25.3097],[-81.0977,25.3191],[-80.9654,25.2243],[-80.9404,25.2642],[-80.9804,25.3117],[-81.0568,25.3381],[-81.1133,25.3672],[-81.2271,25.5834],[-81.3451,25.7318],[-81.3649,25.8311],[-81.5683,25.8916],[-81.7155,25.9832],[-81.8115,26.1461],[-81.8666,26.435],[-81.9315,26.4675],[-81.9589,26.4899],[-81.8955,26.5972],[-81.8287,26.6871],[-81.8815,26.6647],[-81.9206,26.6314],[-81.9702,26.5521],[-82.0064,26.5398],[-82.0396,26.5521],[-82.0779,26.7043],[-82.0669,26.8916],[-82.0133,26.9616],[-82.0957,26.9634],[-82.1811,26.9368],[-82.1686,26.8744],[-82.1807,26.8401],[-82.2429,26.8489],[-82.29,26.8708],[-82.3541,26.9357],[-82.4414,27.0597],[-82.6205,27.4011],[-82.6554,27.4492],[-82.7146,27.4996],[-82.6867,27.5153],[-82.6358,27.5246],[-82.5208,27.6783],[-82.4305,27.7711],[-82.4005,27.8354],[-82.4058,27.8629],[-82.4457,27.9028],[-82.4981,27.8679],[-82.5206,27.8779],[-82.5796,27.9584],[-82.6359,27.9812],[-82.6752,27.9638],[-82.6338,27.8978],[-82.5966,27.8732],[-82.611,27.7772],[-82.626,27.746],[-82.6609,27.7184],[-82.7153,27.7331],[-82.7429,27.7094],[-82.7753,27.7344],[-82.8076,27.7766],[-82.8435,27.846],[-82.7485,28.2368],[-82.6606,28.4858],[-82.6506,28.7699],[-82.644,28.812],[-82.6515,28.8875],[-82.7693,29.0516],[-83.2905,29.4519],[-83.6944,29.926],[-84.0442,30.1038],[-84.3097,30.0647],[-84.3556,30.029],[-84.3753,29.9823],[-84.3587,29.9294],[-84.3828,29.9074],[-84.4541,29.9102],[-84.55,29.8979],[-84.8005,29.773],[-84.8889,29.7776],[-84.9692,29.7453],[-85.0293,29.7211],[-85.186,29.7079],[-85.3189,29.6802],[-85.3764,29.6952],[-85.4138,29.7676],[-85.4138,29.8425],[-85.3834,29.7851],[-85.3364,29.7401],[-85.3149,29.7581],[-85.3068,29.7979],[-85.3536,29.8757],[-85.5043,29.9758],[-85.6758,30.1219],[-85.6235,30.1171],[-85.6103,30.1484],[-85.6634,30.1895],[-85.641,30.2369],[-85.6035,30.2868],[-85.6759,30.2793],[-85.7408,30.2444],[-85.743,30.2013],[-85.7558,30.167],[-85.7908,30.172],[-85.8557,30.2144],[-86.1751,30.3325],[-86.4544,30.3991],[-86.2401,30.4291],[-86.1238,30.4058],[-86.1377,30.4416],[-86.1657,30.4643],[-86.2574,30.493],[-86.3742,30.4821],[-86.4479,30.4956],[-86.5234,30.4671],[-86.6061,30.4247],[-86.6796,30.4029],[-86.9676,30.3724],[-87.2012,30.3393],[-87.1637,30.3742],[-87.1238,30.3967],[-86.9858,30.4309],[-86.9651,30.5019],[-86.9976,30.5703],[-87.0339,30.5539],[-87.072,30.5004],[-87.1188,30.539],[-87.1706,30.5388],[-87.1847,30.4537],[-87.2511,30.3967],[-87.2811,30.3393],[-87.4758,30.2943],[-87.5007,30.3093],[-87.4437,30.3638],[-87.4483,30.3941],[-87.5133,30.3681],[-87.6223,30.2647],[-88.006,30.2309],[-87.985,30.2544],[-87.904,30.2591],[-87.7903,30.2918],[-87.8133,30.3469],[-87.8571,30.4074],[-87.8976,30.4142],[-87.9243,30.4497],[-87.923,30.5615],[-87.9489,30.6269],[-88.0113,30.6942],[-88.0324,30.6813],[-88.0784,30.5662],[-88.1166,30.4153],[-88.1354,30.3666],[-88.2492,30.3632],[-88.3499,30.3735],[-88.6921,30.3554],[-88.8199,30.4065],[-88.8729,30.4163],[-88.9052,30.4151],[-89.0541,30.3683],[-89.2236,30.3324],[-89.2636,30.3437],[-89.3206,30.3453],[-89.4435,30.2231],[-89.5885,30.166],[-89.9542,30.2688],[-90.0452,30.3514],[-90.126,30.3691],[-90.2253,30.3793],[-90.332,30.2776],[-90.413,30.1403],[-90.285,30.0651],[-90.1753,30.0291],[-89.9942,30.0593],[-89.894,30.1259],[-89.8123,30.1237],[-89.7731,30.1372],[-89.7375,30.172],[-89.6675,30.1445],[-89.665,30.117],[-89.7147,30.0783],[-89.7772,30.0457],[-89.8152,30.0073],[-89.7438,29.9298],[-89.6317,29.9038],[-89.5895,29.915],[-89.5634,30.0021],[-89.4944,30.0582],[-89.4007,30.046],[-89.4141,30.0109],[-89.4009,29.9777],[-89.3579,29.921],[-89.3628,29.8398],[-89.3544,29.8202],[-89.4554,29.7844],[-89.5307,29.7722],[-89.5909,29.7253],[-89.5593,29.698],[-89.6207,29.6741],[-89.6621,29.6837],[-89.683,29.6749],[-89.6892,29.646],[-89.7209,29.6193],[-89.6748,29.5387],[-89.5803,29.486],[-89.5137,29.4201],[-89.2457,29.3332],[-89.1808,29.3357],[-89.1168,29.2482],[-89.0653,29.2182],[-89.0157,29.2029],[-89.0214,29.1427],[-89.1095,29.0987],[-89.1333,29.0461],[-89.1555,29.0166],[-89.1953,29.054],[-89.2361,29.0811],[-89.3306,28.9987],[-89.3761,28.9813],[-89.3535,29.0702],[-89.3892,29.105],[-89.4432,29.1941],[-89.5218,29.2493],[-89.5771,29.2675],[-89.6203,29.3024],[-89.6725,29.3165],[-89.717,29.3129],[-89.7924,29.3332],[-89.7974,29.3806],[-89.8183,29.4161],[-89.8772,29.458],[-90.1591,29.5372],[-90.1608,29.5044],[-90.1413,29.4797],[-90.1008,29.4633],[-90.0523,29.4314],[-90.0528,29.3368],[-90.0737,29.2968],[-90.0827,29.2397],[-90.1014,29.1818],[-90.1358,29.1361],[-90.2128,29.1049],[-90.2467,29.131],[-90.3016,29.2558],[-90.3792,29.2951],[-90.5025,29.2998],[-90.5862,29.2715],[-90.6775,29.1506],[-90.751,29.1309],[-91.0027,29.1935],[-91.2901,29.289],[-91.2827,29.3208],[-91.2375,29.331],[-91.1508,29.3179],[-91.1554,29.3507],[-91.244,29.4573],[-91.2603,29.5055],[-91.2488,29.5642],[-91.2777,29.5629],[-91.331,29.5136],[-91.5142,29.5554],[-91.5648,29.6053],[-91.6725,29.7461],[-91.8244,29.7507],[-91.8932,29.836],[-92.0173,29.8003],[-92.0802,29.7607],[-92.1355,29.6995],[-92.114,29.6677],[-92.0589,29.6172],[-92.084,29.5928],[-92.2608,29.5568],[-92.6713,29.5971],[-92.7913,29.6347],[-92.9524,29.7142],[-93.1757,29.779],[-93.2832,29.7894],[-93.3885,29.7766],[-93.6948,29.7699],[-93.7659,29.7527],[-93.8265,29.7251],[-93.8657,29.7556],[-93.8839,29.81],[-93.8483,29.8188],[-93.8088,29.8508],[-93.7731,29.9141],[-93.769,29.9523],[-93.794,29.9772],[-93.8415,29.9797],[-93.9463,29.815],[-93.8864,29.7227],[-93.8905,29.6894],[-94.0997,29.6704],[-94.5745,29.4845],[-94.7596,29.3843],[-94.7501,29.418],[-94.5263,29.5479],[-94.6053,29.5678],[-94.7326,29.5354],[-94.7783,29.5479],[-94.7244,29.6553],[-94.7419,29.75],[-94.8323,29.7526],[-94.8899,29.677],[-94.9299,29.6802],[-94.9823,29.7126],[-95.0229,29.7023],[-94.9928,29.531],[-94.9359,29.4604],[-94.8883,29.3706],[-95.0183,29.2595],[-95.1391,29.1678],[-95.1521,29.0792],[-95.2735,28.9639],[-95.3876,28.8984],[-95.6559,28.7446],[-95.7324,28.7117],[-95.8534,28.6403],[-96.0204,28.5868],[-96.1805,28.5019],[-96.2345,28.489],[-96.1323,28.5609],[-96.011,28.6319],[-96.115,28.6222],[-96.2753,28.6551],[-96.3734,28.657],[-96.3741,28.6311],[-96.4487,28.5945],[-96.526,28.6483],[-96.5597,28.6845],[-96.5757,28.7157],[-96.6085,28.7233],[-96.64,28.7088],[-96.5247,28.4887],[-96.4755,28.4792],[-96.4211,28.4573],[-96.4888,28.4061],[-96.5617,28.3671],[-96.6764,28.3413],[-96.7735,28.4216],[-96.7946,28.3209],[-96.8069,28.2202],[-96.8395,28.1944],[-96.8916,28.1576],[-96.9199,28.1854],[-96.9333,28.2243],[-96.9666,28.1896],[-97.0155,28.1635],[-97.096,28.1583],[-97.1565,28.1443],[-97.1551,28.1026],[-97.1413,28.0607],[-97.0343,28.0938],[-97.0731,27.9861],[-97.1714,27.8796],[-97.2516,27.8544],[-97.3741,27.87],[-97.4044,27.8593],[-97.4315,27.8372],[-97.2887,27.6706],[-97.3805,27.4193],[-97.4391,27.3283],[-97.4798,27.3166],[-97.5239,27.314],[-97.6821,27.3949],[-97.7685,27.4575],[-97.6924,27.2872],[-97.4851,27.2374],[-97.4745,27.1729],[-97.4757,27.1179],[-97.5165,27.0532],[-97.5547,26.9673],[-97.5265,26.9075],[-97.4938,26.7596],[-97.4658,26.6917],[-97.4351,26.4858],[-97.4023,26.3965],[-97.2139,26.0679],[-97.1504,26.0653],[-97.1402,26.0297],[-97.1462,25.9615],[-97.2818,25.9416],[-97.3387,25.9112],[-97.3498,25.8848],[-97.3582,25.8705],[-97.3756,25.8718],[-97.4403,25.8908],[-97.5873,25.9842],[-97.8014,26.042],[-98.0828,26.0645],[-98.275,26.1112],[-98.3781,26.1824],[-98.4859,26.2246],[-98.5983,26.2378],[-98.6914,26.2765],[-98.7652,26.3404],[-98.8732,26.3813],[-99.0153,26.399],[-99.1078,26.4469],[-99.1721,26.5642],[-99.1724,26.5659],[-99.2299,26.7619],[-99.3024,26.8847],[-99.4436,27.0367],[-99.4565,27.0566],[-99.4565,27.0567],[-99.4577,27.0817],[-99.4402,27.1701],[-99.4551,27.2337],[-99.4998,27.2855],[-99.5101,27.3403],[-99.4858,27.398],[-99.4843,27.4674],[-99.5053,27.5483],[-99.5953,27.6359],[-99.7542,27.7299],[-99.8896,27.8673],[-100.0014,28.0479],[-100.112,28.1729],[-100.2213,28.2426],[-100.296,28.3277],[-100.3363,28.4281],[-100.3481,28.4864],[-100.3317,28.5025],[-100.3989,28.6142],[-100.5497,28.8213],[-100.6363,28.9728],[-100.6586,29.0686],[-100.7546,29.1825],[-100.9241,29.3147],[-101.0163,29.4007],[-101.0386,29.4603],[-101.039,29.4604],[-101.3035,29.6341],[-101.3804,29.7426],[-101.4404,29.7769],[-101.5093,29.7731],[-101.5446,29.7835],[-101.5464,29.8081],[-101.5687,29.8092],[-101.6116,29.787],[-101.7523,29.7825],[-101.9909,29.7957],[-102.1631,29.8252],[-102.2689,29.8712],[-102.3431,29.865],[-102.3856,29.8066],[-102.4763,29.7691],[-102.6149,29.7523],[-102.7342,29.6439],[-102.834,29.4439],[-102.8778,29.3153],[-102.8657,29.258],[-102.892,29.2164],[-102.9568,29.1904],[-103.0229,29.1322],[-103.09,29.0419],[-103.1683,28.9982],[-103.2577,29.0011],[-103.4229,29.0707],[-103.664,29.2069],[-103.8529,29.2911],[-103.9897,29.3231],[-104.1106,29.3861],[-104.2155,29.4799],[-104.3122,29.5424],[-104.4006,29.5737],[-104.504,29.6777],[-104.6222,29.8543],[-104.6813,29.9905],[-104.6813,30.1344],[-104.8359,30.4477],[-104.9179,30.5834],[-104.9788,30.6459],[-105.0981,30.7206],[-105.2758,30.8073],[-105.514,30.9808],[-105.8127,31.241],[-106.0241,31.3978],[-106.148,31.4509],[-106.2557,31.5447],[-106.347,31.679],[-106.436,31.7645],[-106.4454,31.7684],[-106.4532,31.7702],[-106.673,31.7713],[-106.8929,31.7725],[-107.1127,31.7736],[-107.3325,31.7748],[-107.5523,31.7759],[-107.7722,31.7771],[-107.992,31.7782],[-108.2118,31.7793],[-108.2125,31.6668],[-108.2132,31.5544],[-108.2138,31.4419],[-108.2145,31.3294],[-108.5679,31.3288],[-108.9213,31.3281],[-109.2748,31.3274],[-109.6282,31.3268],[-109.9816,31.3262],[-110.3351,31.3255],[-110.6885,31.3249],[-111.042,31.3242],[-111.5162,31.4723],[-111.9905,31.6202],[-112.4647,31.7683],[-112.939,31.9163],[-113.4132,32.0643],[-113.8875,32.2123],[-114.3617,32.3603],[-114.8359,32.5083],[-114.788,32.5648],[-114.7248,32.7153],[-114.8391,32.7047],[-115.1252,32.6833],[-115.4114,32.6619],[-115.6975,32.6405],[-115.9837,32.619],[-116.2698,32.5976],[-116.556,32.5762],[-116.8421,32.5548],[-117.1283,32.5334],[-117.1305,32.5397],[-117.1374,32.6492],[-117.1837,32.6879],[-117.2435,32.664],[-117.2707,32.8063],[-117.2558,32.8734],[-117.263,32.9389],[-117.3188,33.1],[-117.4674,33.2955],[-117.7885,33.5385],[-117.9521,33.6196],[-118.0805,33.7222],[-118.1619,33.7507],[-118.2644,33.7586],[-118.2942,33.7123],[-118.4104,33.7439],[-118.393,33.8583],[-118.5062,34.0174],[-118.5988,34.035],[-118.832,34.0245],[-119.1437,34.112],[-119.2358,34.1641],[-119.2677,34.2574],[-119.4137,34.3386],[-119.6061,34.418],[-119.7132,34.3997],[-119.8533,34.412],[-120.053,34.4693],[-120.1695,34.4765],[-120.3965,34.4596],[-120.4812,34.4716],[-120.5598,34.5439],[-120.6447,34.58],[-120.6267,34.6689],[-120.6376,34.7494],[-120.6249,34.812],[-120.663,34.9493],[-120.6336,35.0765],[-120.6591,35.1224],[-120.707,35.1577],[-120.8574,35.2097],[-120.8849,35.275],[-120.8603,35.3654],[-120.8996,35.4251],[-121.0229,35.4808],[-121.1379,35.6071],[-121.2838,35.6763],[-121.3438,35.7922],[-121.4337,35.8639],[-121.465,35.9274],[-121.6644,36.1541],[-121.8774,36.3311],[-121.9102,36.4329],[-121.9187,36.5724],[-121.8352,36.6575],[-121.79,36.7323],[-121.7945,36.801],[-121.8074,36.8512],[-121.8807,36.9389],[-122.1642,36.991],[-122.3949,37.2075],[-122.4084,37.3731],[-122.4992,37.5426],[-122.5004,37.6528],[-122.5142,37.772],[-122.4456,37.798],[-122.3841,37.7885],[-122.3903,37.7411],[-122.3697,37.6559],[-122.2976,37.5918],[-122.2287,37.5639],[-122.166,37.5017],[-122.119,37.4828],[-122.0705,37.4783],[-122.0965,37.5182],[-122.1241,37.5438],[-122.1581,37.6265],[-122.2222,37.732],[-122.296,37.7903],[-122.3334,37.8966],[-122.3655,37.9212],[-122.3854,37.9606],[-122.3143,38.0073],[-122.217,38.0406],[-122.0867,38.0496],[-121.7168,38.0341],[-121.6381,38.0613],[-121.573,38.0524],[-121.5253,38.0559],[-121.6257,38.0839],[-121.6822,38.0748],[-121.7486,38.0805],[-121.8808,38.075],[-121.9342,38.0868],[-121.9931,38.1201],[-122.0315,38.1235],[-122.1538,38.0655],[-122.2083,38.0726],[-122.3371,38.1359],[-122.3934,38.1448],[-122.4839,38.1088],[-122.4949,37.9536],[-122.4669,37.8382],[-122.5213,37.8264],[-122.5842,37.8741],[-122.6807,37.9023],[-122.7604,37.9457],[-122.8729,38.0261],[-122.932,38.0555],[-122.9988,37.9886],[-123.0015,38.0193],[-122.9682,38.097],[-122.9776,38.2273],[-122.8768,38.1233],[-122.9082,38.1966],[-122.9865,38.2771],[-123.0462,38.3051],[-123.1211,38.4493],[-123.2897,38.5358],[-123.4248,38.6756],[-123.7011,38.9073],[-123.7195,39.111],[-123.8203,39.3684],[-123.7778,39.5149],[-123.7835,39.6187],[-123.8329,39.7755],[-123.8845,39.8608],[-124.1085,40.0945],[-124.324,40.252],[-124.3565,40.3711],[-124.3717,40.4912],[-124.3245,40.5981],[-124.2837,40.7105],[-124.2539,40.7403],[-124.2423,40.7279],[-124.2506,40.7039],[-124.22,40.6965],[-124.2084,40.7461],[-124.1902,40.7717],[-124.2225,40.775],[-124.2192,40.7907],[-124.1999,40.8221],[-124.1331,40.9698],[-124.14,41.1559],[-124.0685,41.3842],[-124.0719,41.4595],[-124.1177,41.6217],[-124.1632,41.719],[-124.2446,41.7879],[-124.2087,41.8886],[-124.2117,41.9846],[-124.3553,42.1229],[-124.41,42.3043],[-124.4205,42.381],[-124.4062,42.5837],[-124.4438,42.6702],[-124.5396,42.8129],[-124.4986,42.9369],[-124.4544,43.0124],[-124.3466,43.3417],[-124.3206,43.3682],[-124.2755,43.3674],[-124.1969,43.4233],[-124.2332,43.4364],[-124.288,43.4097],[-124.2392,43.54],[-124.1844,43.6516],[-124.1487,43.6917],[-124.1307,44.0557],[-124.0992,44.3338],[-124.0475,44.4255],[-124.0654,44.5201],[-124.0445,44.6482],[-124.0592,44.7777],[-123.9486,45.4008],[-123.9631,45.4761],[-123.9293,45.577],[-123.9612,45.843],[-123.9471,46.1406],[-123.9752,46.1783],[-123.9893,46.2194],[-123.9629,46.2254],[-123.9117,46.1822],[-123.6736,46.1826],[-123.5216,46.2227],[-123.4664,46.2094],[-123.4023,46.155],[-123.3216,46.144],[-123.2206,46.1536],[-123.2513,46.1673],[-123.2987,46.1709],[-123.4047,46.221],[-123.4648,46.2711],[-123.6503,46.2677],[-123.6884,46.2999],[-123.8957,46.2678],[-123.9598,46.3007],[-124.0728,46.2794],[-124.0451,46.3729],[-124.0502,46.4905],[-124.0443,46.6051],[-124.0164,46.5214],[-123.9461,46.4326],[-123.9124,46.5334],[-123.8892,46.66],[-123.9577,46.7087],[-124.0717,46.7448],[-124.1125,46.8627],[-123.8429,46.9632],[-123.986,46.9845],[-124.0422,47.0297],[-124.1117,47.0352],[-124.1168,47.0003],[-124.1393,46.9547],[-124.1636,47.0153],[-124.1705,47.0867],[-124.1988,47.2085],[-124.3093,47.4046],[-124.376,47.6586],[-124.4601,47.7842],[-124.6211,47.9042],[-124.6631,47.9741],[-124.7017,48.1517],[-124.68,48.2859],[-124.71,48.3804],[-124.6326,48.375],[-124.4291,48.3008],[-124.1755,48.2424],[-124.0988,48.2],[-123.9758,48.1685],[-123.2944,48.1195],[-123.2499,48.1242],[-123.1619,48.1545],[-123.1244,48.1509],[-123.0242,48.0816],[-122.9739,48.0733],[-122.9089,48.0769],[-122.8609,48.09],[-122.7786,48.1376],[-122.7675,48.12],[-122.7691,48.076],[-122.7397,48.0132],[-122.6795,47.9318],[-122.6566,47.8812],[-122.7784,47.7384],[-122.8018,47.7354],[-122.8054,47.7836],[-122.8214,47.7932],[-123.0506,47.552],[-123.1311,47.4377],[-123.1391,47.3861],[-123.1363,47.3558],[-123.1042,47.3484],[-123.0309,47.3602],[-122.9222,47.4077],[-122.9169,47.418],[-123.0182,47.4011],[-123.0668,47.3997],[-123.0602,47.4537],[-123.0486,47.4793],[-122.9825,47.5594],[-122.9129,47.6074],[-122.8141,47.6585],[-122.7571,47.7005],[-122.7179,47.7621],[-122.6082,47.8355],[-122.5879,47.856],[-122.5927,47.9164],[-122.5857,47.9279],[-122.5328,47.9197],[-122.5108,47.8157],[-122.5239,47.7693],[-122.6184,47.7128],[-122.6302,47.6928],[-122.6136,47.6156],[-122.6283,47.6082],[-122.6643,47.6172],[-122.6755,47.6124],[-122.5858,47.5284],[-122.5574,47.4632],[-122.5536,47.4049],[-122.5779,47.2932],[-122.6039,47.2746],[-122.6486,47.2814],[-122.7077,47.3164],[-122.7209,47.3051],[-122.7678,47.2184],[-122.7833,47.226],[-122.8125,47.329],[-122.8285,47.3366],[-122.9195,47.2896],[-122.9562,47.2446],[-122.9876,47.1726],[-123.0276,47.1389],[-122.9142,47.1315],[-122.812,47.146],[-122.7299,47.1118],[-122.702,47.1109],[-122.6271,47.1442],[-122.6041,47.167],[-122.5422,47.2756],[-122.5111,47.295],[-122.4648,47.2958],[-122.4201,47.3121],[-122.3538,47.3716],[-122.3511,47.3952],[-122.3752,47.5284],[-122.3684,47.6039],[-122.3808,47.6278],[-122.4105,47.6526],[-122.4068,47.6768],[-122.3836,47.7165],[-122.382,47.7523],[-122.4018,47.7843],[-122.3929,47.8206],[-122.3303,47.8986],[-122.3185,47.9331],[-122.242,48.0107],[-122.2613,48.042],[-122.3175,48.0802],[-122.353,48.1138],[-122.3887,48.1664],[-122.4158,48.1839],[-122.4247,48.1759],[-122.3866,48.0899],[-122.3948,48.0841],[-122.494,48.1305],[-122.517,48.1597],[-122.5291,48.1993],[-122.5203,48.2291],[-122.467,48.2585],[-122.4034,48.2692],[-122.4085,48.2939],[-122.4884,48.3743],[-122.5416,48.4109],[-122.5826,48.4287],[-122.6378,48.4333],[-122.6625,48.4464],[-122.669,48.4652],[-122.6573,48.49],[-122.628,48.4979],[-122.5427,48.488],[-122.4968,48.5056],[-122.5011,48.5375],[-122.5148,48.5552],[-122.5127,48.6694],[-122.5451,48.7623],[-122.562,48.778],[-122.5802,48.7796],[-122.5994,48.7671],[-122.653,48.7639],[-122.6859,48.7943],[-122.7225,48.853],[-122.7888,48.993],[-122.6864,48.993],[-122.26,48.993],[-121.8336,48.993],[-121.4072,48.993],[-120.9809,48.993],[-120.5545,48.993],[-120.1281,48.993],[-119.7017,48.993],[-119.2753,48.9931],[-118.8489,48.9931],[-118.4226,48.9931],[-117.9962,48.9931],[-117.5698,48.9931],[-117.1434,48.9931],[-116.717,48.9931],[-116.2906,48.9931],[-115.8643,48.9931],[-115.4379,48.9931],[-115.0115,48.9931],[-114.5851,48.9931],[-114.1587,48.9931],[-113.7324,48.9931],[-113.306,48.9931],[-112.8796,48.9931],[-112.4532,48.9931],[-112.0268,48.9931],[-111.6004,48.9931],[-111.1741,48.9931],[-110.7477,48.9931],[-110.3213,48.9931],[-109.8949,48.9931],[-109.4686,48.9931],[-109.0421,48.9931],[-108.6158,48.9931],[-108.1894,48.9931],[-107.763,48.9931],[-107.3366,48.9931],[-106.9103,48.9931],[-106.4838,48.9931],[-106.0575,48.9931],[-105.6311,48.9931],[-105.2047,48.9931],[-104.7783,48.9931],[-104.352,48.9931],[-103.9256,48.9931],[-103.4992,48.9931],[-103.0728,48.9931],[-102.6464,48.9931],[-102.22,48.9931],[-101.7937,48.9931],[-101.3673,48.9931],[-100.9409,48.9931],[-100.5145,48.9931],[-100.0881,48.9931],[-99.6617,48.9931],[-99.2354,48.9931],[-98.809,48.9932],[-98.3826,48.9932],[-97.9562,48.9932],[-97.5298,48.9932],[-97.1035,48.9932],[-96.6771,48.9932],[-96.2507,48.9932],[-95.8243,48.9932],[-95.3979,48.9932],[-95.1621,48.9917],[-95.1583,49.2031],[-95.1553,49.3697],[-94.9394,49.3494],[-94.8748,49.319],[-94.8543,49.3046],[-94.8604,49.2586],[-94.8426,49.1192],[-94.8035,49.0029],[-94.7128,48.8634],[-94.7125,48.863],[-94.7051,48.8085],[-94.6753,48.7744],[-94.6209,48.7426],[-94.4142,48.7041],[-94.0552,48.659],[-93.8516,48.6073],[-93.8036,48.5489],[-93.7077,48.5254],[-93.5643,48.5369],[-93.4636,48.5613],[-93.3779,48.6166],[-93.258,48.6289],[-93.1552,48.6253],[-93.0517,48.6199],[-92.9962,48.6118],[-92.8367,48.5678],[-92.7327,48.5318],[-92.5833,48.4651],[-92.5006,48.4354],[-92.4609,48.3659],[-92.4146,48.2766],[-92.3484,48.2766],[-92.2987,48.3289],[-92.1718,48.3384],[-92.0052,48.3019],[-91.8584,48.1976],[-91.6473,48.1046],[-91.5183,48.0583],[-91.3872,48.0585],[-91.2207,48.1046],[-91.0435,48.1937],[-90.9161,48.2091],[-90.8403,48.2005],[-90.7973,48.1311],[-90.7444,48.1046],[-90.6071,48.1126],[-90.3201,48.0992],[-90.0918,48.1181],[-90.0399,48.0782],[-89.9937,48.0153],[-89.901,47.9955],[-89.7754,48.0153],[-89.5776,48.0018],[-89.6047,47.9917],[-89.6338,47.9937],[-89.6721,47.9787],[-89.7195,47.9467],[-89.8288,47.9009],[-89.9999,47.8412],[-90.1973,47.7864],[-90.5975,47.6877],[-90.8467,47.5853],[-90.9571,47.5237],[-91.3863,47.2147],[-91.6452,47.05],[-92.0646,46.8188],[-92.1042,46.7894],[-92.107,46.7619],[-92.0728,46.7362],[-91.9873,46.699],[-91.9208,46.6944],[-91.8356,46.7021],[-91.4991,46.7661],[-91.357,46.8107],[-91.2176,46.8856],[-91.2034,46.888],[-91.1454,46.8743],[-91.1272,46.8677],[-90.946,46.9538],[-90.8867,46.9648],[-90.8399,46.9625],[-90.7819,46.9287],[-90.7684,46.908],[-90.7877,46.8684],[-90.8399,46.81],[-90.8653,46.7607],[-90.8639,46.7208],[-90.8864,46.6775],[-90.9435,46.619],[-90.923,46.6031],[-90.77,46.6454],[-90.7476,46.6619],[-90.745,46.6717],[-90.7543,46.6835],[-90.7368,46.6889],[-90.6165,46.6313],[-90.5361,46.5994],[-90.4688,46.5841],[-90.3414,46.6025],[-90.1536,46.6545],[-89.9933,46.7179],[-89.8606,46.7928],[-89.6951,46.8386],[-89.4968,46.8554],[-89.355,46.8819],[-89.2694,46.9182],[-89.1548,46.9886],[-89.0902,47.0093],[-89.0091,47.0157],[-88.9481,47.043],[-88.9071,47.0911],[-88.8296,47.1459],[-88.7156,47.2072],[-88.6505,47.232],[-88.6341,47.2203],[-88.6282,47.1986],[-88.6327,47.1669],[-88.6044,47.1413],[-88.5433,47.1216],[-88.5154,47.0955],[-88.5208,47.0631],[-88.5044,47.0354],[-88.466,47.0125],[-88.4559,46.9628],[-88.4737,46.8863],[-88.4761,46.8367],[-88.4627,46.8142],[-88.4491,46.8015],[-88.4273,46.8139],[-88.4,46.8409],[-88.3899,46.8574],[-88.383,46.8743],[-88.2163,46.9516],[-88.1837,46.9553],[-88.1291,46.9355],[-87.8771,46.9077],[-87.7776,46.8879],[-87.6729,46.8436],[-87.6375,46.8265],[-87.5095,46.6834],[-87.4512,46.6274],[-87.4149,46.6121],[-87.3945,46.5901],[-87.3778,46.5396],[-87.3581,46.5244],[-87.1707,46.5135],[-87.0857,46.5227],[-87.0341,46.5432],[-86.9768,46.5301],[-86.9136,46.4833],[-86.8515,46.4702],[-86.7904,46.4908],[-86.7329,46.4901],[-86.6791,46.4682],[-86.6539,46.4522],[-86.6375,46.453],[-86.531,46.5244],[-86.4027,46.5877],[-86.2313,46.6563],[-86.132,46.6868],[-86.1046,46.6792],[-85.9468,46.7021],[-85.8045,46.7042],[-85.6161,46.6906],[-85.4415,46.7066],[-85.2807,46.7524],[-85.1384,46.778],[-85.0146,46.7835],[-84.9679,46.7707],[-84.9982,46.7397],[-85.0145,46.6865],[-85.0167,46.6109],[-85.0274,46.5631],[-85.0463,46.543],[-85.0486,46.5239],[-85.0343,46.5058],[-84.9143,46.494],[-84.8512,46.4695],[-84.7788,46.4684],[-84.6973,46.4907],[-84.6349,46.4823],[-84.5915,46.4431],[-84.5284,46.4361],[-84.4672,46.4642],[-84.4242,46.4907],[-84.387,46.5022],[-84.358,46.5047],[-84.3274,46.4915],[-84.3067,46.4691],[-84.2548,46.4076],[-84.2291,46.3658],[-84.2133,46.3038],[-84.2022,46.2832],[-84.2037,46.247],[-84.2385,46.2225],[-84.2479,46.203],[-84.2271,46.1836],[-84.1088,46.1782],[-84.0549,46.1589],[-84.0347,46.1374],[-84.0484,46.1135],[-84.0408,46.0882],[-84.012,46.0614],[-83.9174,46.0207],[-83.8941,46.0013],[-83.901,45.9809],[-83.9292,45.9676],[-83.9788,45.9615],[-84.3409,45.9998],[-84.4473,46.0062],[-84.4629,45.9921],[-84.4731,45.99],[-84.4903,45.9938],[-84.5213,45.9946],[-84.5369,46.0037],[-84.5499,46.0292],[-84.5815,46.0456],[-84.6315,46.0526],[-84.6747,46.0333],[-84.7249,45.9575],[-84.7171,45.9435],[-84.7254,45.8949],[-84.7127,45.8816],[-84.7133,45.8705],[-84.7274,45.8615],[-84.7569,45.8628],[-84.8019,45.8744],[-84.9718,45.989],[-85.1006,46.0462],[-85.2599,46.0882],[-85.3859,46.1086],[-85.4788,46.1076],[-85.5551,46.0782],[-85.6148,46.0205],[-85.7078,45.9876],[-85.8342,45.9797],[-85.9029,45.9642],[-85.9137,45.9412],[-85.9593,45.9407],[-86.0397,45.9627],[-86.1229,45.9689],[-86.2089,45.9593],[-86.2718,45.9367],[-86.3381,45.8657],[-86.3513,45.831],[-86.3996,45.8007],[-86.5275,45.7532],[-86.5339,45.7356],[-86.6012,45.6816],[-86.6224,45.652],[-86.622,45.6228],[-86.6444,45.6245],[-86.6897,45.6573],[-86.6914,45.7014],[-86.6495,45.7568],[-86.6123,45.7836],[-86.5795,45.7818],[-86.5593,45.8063],[-86.5515,45.8571],[-86.5633,45.8825],[-86.6272,45.8725],[-86.6606,45.8523],[-86.7028,45.8479],[-86.7536,45.8595],[-86.7985,45.8318],[-86.8375,45.7648],[-86.8839,45.7209],[-86.9379,45.7002],[-86.9742,45.7231],[-86.9928,45.7896],[-86.9929,45.8419],[-86.9711,45.905],[-86.9823,45.9173],[-87.005,45.8972],[-87.0393,45.8446],[-87.0849,45.7298],[-87.1142,45.6925],[-87.1538,45.6768],[-87.2164,45.6073],[-87.3021,45.4841],[-87.3988,45.3646],[-87.5065,45.2489],[-87.5712,45.1866],[-87.5928,45.1778],[-87.6022,45.157],[-87.6078,45.0827],[-87.627,45.0323],[-87.6832,44.9926],[-87.8303,44.9425],[-87.8536,44.9083],[-87.8568,44.8804],[-87.9516,44.7637],[-87.9978,44.6923],[-88.0283,44.6179],[-88.0187,44.5711],[-87.9692,44.552],[-87.929,44.5595],[-87.8982,44.5934],[-87.8511,44.624],[-87.7875,44.6516],[-87.7409,44.692],[-87.6766,44.7903],[-87.6044,44.8469],[-87.566,44.8503],[-87.5554,44.8486],[-87.4802,44.8741],[-87.4196,44.8656],[-87.3831,44.8271],[-87.3456,44.8006],[-87.3373,44.7758],[-87.3561,44.7204],[-87.3905,44.662],[-87.4409,44.6007],[-87.4865,44.5086],[-87.5274,44.3857],[-87.5361,44.293],[-87.5125,44.2303],[-87.5349,44.1743],[-87.6034,44.125],[-87.6585,44.059],[-87.7001,43.9766],[-87.7238,43.9073],[-87.7294,43.8512],[-87.7234,43.8091],[-87.6979,43.7524],[-87.6997,43.7237],[-87.774,43.5989],[-87.8009,43.5381],[-87.8056,43.4901],[-87.8239,43.443],[-87.8807,43.347],[-87.8984,43.2938],[-87.9017,43.2449],[-87.8888,43.1646],[-87.8961,43.1374],[-87.8928,43.1169],[-87.8789,43.1031],[-87.879,43.0778],[-87.8934,43.0411],[-87.8877,43.0125],[-87.8621,42.992],[-87.8456,42.9531],[-87.8382,42.8957],[-87.8187,42.8477],[-87.7871,42.8092],[-87.7814,42.7534],[-87.8017,42.6804],[-87.812,42.543],[-87.8125,42.3411],[-87.7975,42.2114],[-87.7668,42.1539],[-87.7325,42.1115],[-87.6946,42.0844],[-87.6511,42.0002],[-87.6021,41.8591],[-87.5566,41.766],[-87.5146,41.7207],[-87.477,41.6955],[-87.447,41.6808],[-87.425,41.6786],[-87.4125,41.6565],[-87.3562,41.6433],[-87.2532,41.6376],[-87.1587,41.6464],[-87.0726,41.6695],[-86.7982,41.7885],[-86.6916,41.8534],[-86.6325,41.9113],[-86.5753,41.9877],[-86.5202,42.0823],[-86.4074,42.2237],[-86.3525,42.3093],[-86.2996,42.4176],[-86.2596,42.5312],[-86.2327,42.65],[-86.22,42.7731],[-86.2215,42.9004],[-86.2485,43.0288],[-86.3009,43.1581],[-86.3291,43.2241],[-86.3402,43.2417],[-86.435,43.4071],[-86.5421,43.6373],[-86.5405,43.6569],[-86.4406,43.7943],[-86.438,43.8127],[-86.4486,43.924],[-86.4699,43.9798],[-86.5209,44.0547],[-86.5192,44.0737],[-86.4154,44.1695],[-86.3527,44.2424],[-86.2959,44.3306],[-86.2591,44.4336],[-86.2422,44.5513],[-86.2427,44.6297],[-86.2607,44.6688],[-86.2587,44.699],[-86.237,44.7202],[-86.1258,44.7478],[-86.0884,44.7942],[-86.0805,44.8759],[-86.0577,44.9164],[-86.0199,44.9157],[-85.985,44.9325],[-85.9529,44.9667],[-85.9105,44.9763],[-85.8578,44.9615],[-85.7841,45.0122],[-85.6894,45.1281],[-85.6166,45.1929],[-85.5659,45.2065],[-85.5562,45.196],[-85.5877,45.1613],[-85.5974,45.1233],[-85.5853,45.082],[-85.5957,45.0419],[-85.6192,44.9871],[-85.6047,44.9699],[-85.6453,44.8816],[-85.6472,44.8375],[-85.6225,44.804],[-85.5933,44.8157],[-85.5593,44.8727],[-85.5492,44.903],[-85.5628,44.9067],[-85.5578,44.931],[-85.5339,44.9756],[-85.5126,44.9968],[-85.4941,44.9944],[-85.4889,44.9701],[-85.4971,44.9238],[-85.5509,44.8146],[-85.5615,44.7813],[-85.5494,44.7719],[-85.4847,44.8403],[-85.4304,44.9493],[-85.389,45.0328],[-85.3816,45.0783],[-85.394,45.1957],[-85.3915,45.2438],[-85.3757,45.277],[-85.3195,45.3145],[-85.2229,45.3562],[-85.1273,45.3785],[-85.033,45.3813],[-84.9671,45.3927],[-84.9298,45.4126],[-84.9429,45.4286],[-85.0064,45.4405],[-85.0547,45.4667],[-85.0877,45.5069],[-85.0987,45.5531],[-85.0878,45.6053],[-85.0474,45.6564],[-84.9775,45.7065],[-84.9555,45.7434],[-84.9814,45.767],[-84.9515,45.7754],[-84.8659,45.7686],[-84.806,45.775],[-84.772,45.7948],[-84.7626,45.7924],[-84.6909,45.7738],[-84.5629,45.7122],[-84.4414,45.6763],[-84.3263,45.6662],[-84.2423,45.6444],[-84.1893,45.6111],[-84.1511,45.5738],[-84.1277,45.5325],[-84.0728,45.5091],[-83.9863,45.5038],[-83.9183,45.4863],[-83.8687,45.4565],[-83.5937,45.3794],[-83.4785,45.3388],[-83.4153,45.299],[-83.3973,45.2736],[-83.4026,45.2483],[-83.3962,45.2214],[-83.349,45.169],[-83.3311,45.1642],[-83.3202,45.139],[-83.3161,45.0932],[-83.3023,45.0624],[-83.2787,45.0468],[-83.2931,45.0404],[-83.3778,45.0669],[-83.4259,45.0589],[-83.4481,45.0246],[-83.4516,44.992],[-83.4362,44.9614],[-83.3278,44.8692],[-83.2996,44.7852],[-83.2942,44.6834],[-83.3079,44.6438],[-83.3193,44.5565],[-83.3284,44.4214],[-83.3306,44.3751],[-83.3662,44.33],[-83.4628,44.2649],[-83.4642,44.2772],[-83.4874,44.2806],[-83.5125,44.2708],[-83.5475,44.215],[-83.5775,44.1134],[-83.614,44.0583],[-83.657,44.0496],[-83.6828,44.035],[-83.6915,44.0145],[-83.7377,44.0006],[-83.8214,43.9935],[-83.8788,43.9625],[-83.9216,43.8755],[-83.9198,43.8339],[-83.9396,43.7819],[-83.9383,43.7375],[-83.9157,43.7006],[-83.848,43.6636],[-83.7352,43.6267],[-83.6679,43.621],[-83.6216,43.6365],[-83.5731,43.6971],[-83.526,43.7209],[-83.4689,43.7309],[-83.4474,43.7584],[-83.353,43.8793],[-83.3531,43.9063],[-83.3875,43.9166],[-83.3826,43.9241],[-83.3381,43.9289],[-83.2995,43.9451],[-83.2666,43.9729],[-83.2093,43.9936],[-83.0695,44.025],[-82.9946,44.0611],[-82.9472,44.067],[-82.8782,44.0478],[-82.7877,44.0035],[-82.7161,43.939],[-82.6633,43.8542],[-82.5967,43.6344],[-82.5162,43.2796],[-82.4613,43.081],[-82.4319,43.0386],[-82.4172,43.0174],[-82.4883,42.7395],[-82.5453,42.6247],[-82.6451,42.5581],[-82.6391,42.5744],[-82.63,42.5945],[-82.6328,42.661],[-82.6499,42.6866],[-82.6868,42.6969],[-82.7326,42.6896],[-82.7874,42.6646],[-82.8044,42.6389],[-82.7838,42.6127],[-82.796,42.5891],[-82.841,42.5681],[-82.8701,42.519],[-82.8834,42.4418],[-82.902,42.394],[-82.926,42.3755],[-83.0165,42.3471],[-83.0634,42.3227],[-83.1048,42.2864],[-83.1421,42.2276],[-83.1752,42.1463],[-83.1884,42.0834],[-83.1766,42.0489],[-83.2048,42.0271],[-83.2556,41.9856],[-83.2652,41.9706],[-83.2618,41.9464],[-83.2725,41.9346],[-83.2972,41.9351],[-83.3162,41.9233],[-83.3621,41.8799],[-83.4412,41.7662],[-83.4562,41.7425],[-83.443,41.7249],[-83.3522,41.714],[-83.2907,41.6933],[-83.2426,41.6619],[-83.0691,41.6006],[-83.016,41.5628],[-82.9633,41.5419],[-82.9108,41.5382],[-82.8749,41.5501],[-82.8555,41.5778],[-82.8308,41.5797],[-82.8008,41.5557],[-82.7031,41.5295],[-82.7,41.5213],[-82.9707,41.4757],[-83.0275,41.4545],[-82.9596,41.4397],[-82.8911,41.4433],[-82.8223,41.4652],[-82.7431,41.4641],[-82.6735,41.4537],[-82.6515,41.4625],[-82.6426,41.4669],[-82.5244,41.407],[-82.4803,41.3981],[-82.4344,41.4049],[-82.3869,41.4275],[-82.2825,41.4568],[-82.1213,41.493],[-81.9663,41.5077],[-81.8175,41.5009],[-81.7232,41.5109],[-81.6372,41.5484],[-81.4471,41.6715],[-81.2286,41.7704],[-80.8692,41.8933],[-80.3345,42.0408],[-80.252,42.0753],[-80.1682,42.109],[-80.1247,42.1283],[-80.0762,42.146],[-79.7041,42.3001],[-79.5123,42.391],[-79.4164,42.4569],[-79.3154,42.5116],[-79.2092,42.5552],[-79.125,42.6112],[-79.0625,42.6798],[-78.9936,42.7307],[-78.9183,42.7641],[-78.8778,42.7991],[-78.8723,42.8359],[-78.8862,42.8856],[-78.9197,42.9482],[-78.9243,42.9975],[-78.9001,43.0335],[-78.8947,43.0578],[-78.9082,43.0703],[-79.0661,43.1061],[-79.0592,43.2781],[-79.0614,43.2829],[-79.0532,43.2851],[-78.6895,43.3615],[-78.4575,43.3875],[-78.175,43.3947],[-77.8382,43.3571],[-77.7074,43.3229],[-77.6246,43.2791],[-77.5291,43.2674],[-77.4208,43.2877],[-77.2708,43.2945],[-77.079,43.2877],[-76.9764,43.2774],[-76.9631,43.2638],[-76.9498,43.2679],[-76.9367,43.2897],[-76.8853,43.314],[-76.7414,43.35],[-76.7223,43.3426],[-76.6929,43.3609],[-76.6531,43.405],[-76.5797,43.4538],[-76.4727,43.5073],[-76.376,43.5351],[-76.2896,43.5373],[-76.2318,43.5504],[-76.2026,43.5745],[-76.1936,43.5958],[-76.2048,43.6143],[-76.1999,43.6347],[-76.195,43.6448],[-76.1993,43.6531],[-76.2097,43.6703],[-76.2181,43.7578],[-76.2349,43.7988],[-76.2582,43.8291],[-76.2882,43.8487],[-76.2846,43.8692],[-76.2325,43.8945],[-76.2364,43.8709],[-76.2228,43.8638],[-76.1983,43.8745],[-76.1427,43.9269],[-76.1365,43.9466],[-76.0987,43.967],[-76.0707,43.9985],[-76.1019,44.0032],[-76.1754,43.9938],[-76.1923,44.0034],[-76.1541,44.0454],[-76.1612,44.0693],[-76.1733,44.0794],[-76.1976,44.0835],[-76.2806,44.0465],[-76.3061,44.0432],[-76.3097,44.0627],[-76.3524,44.1061],[-76.2378,44.1832],[-75.8322,44.3973],[-75.7909,44.4299],[-75.7757,44.4589],[-75.7866,44.4843],[-75.798,44.4907],[-75.7919,44.4971],[-75.4013,44.7723],[-75.1794,44.8994],[-74.9961,44.9701],[-74.8566,45.0039],[-74.7625,44.9991],[-74.7089,45.0039]]],[[[-72.5098,40.986],[-72.5809,40.9213],[-72.5166,40.9148],[-72.4613,40.9338],[-72.409,40.9722],[-72.2875,41.0241],[-72.1839,41.0468],[-72.1513,41.0515],[-72.1019,41.015],[-72.004,41.0443],[-71.9032,41.0607],[-72.339,40.8941],[-72.4281,40.8754],[-72.5556,40.8258],[-72.6761,40.7906],[-72.7628,40.7778],[-73.1943,40.6542],[-73.2285,40.6515],[-73.2655,40.6636],[-73.6209,40.5999],[-73.7667,40.5927],[-73.8996,40.5705],[-73.8013,40.6218],[-73.7992,40.641],[-73.8227,40.656],[-73.8752,40.6516],[-73.929,40.5988],[-74.0149,40.5812],[-74.032,40.6387],[-74.0034,40.6832],[-73.9646,40.7253],[-73.8792,40.7916],[-73.7572,40.8337],[-73.6952,40.87],[-73.6522,40.838],[-73.6428,40.8813],[-73.6098,40.9062],[-73.5738,40.9196],[-73.4874,40.92],[-73.4409,40.9268],[-73.4072,40.9411],[-73.3727,40.9438],[-73.2782,40.9242],[-73.1858,40.9298],[-73.1113,40.9569],[-73.0338,40.966],[-72.8288,40.9721],[-72.6251,40.9918],[-72.5437,41.027],[-72.3726,41.1255],[-72.2741,41.153],[-72.4274,41.0385],[-72.5098,40.986]]],[[[-68.1873,44.3325],[-68.2455,44.313],[-68.3093,44.3215],[-68.308,44.2687],[-68.3151,44.2497],[-68.3858,44.2769],[-68.4117,44.2943],[-68.4095,44.3643],[-68.347,44.4304],[-68.2994,44.4565],[-68.238,44.4384],[-68.1909,44.3644],[-68.1873,44.3325]]],[[[-74.1881,40.5229],[-74.2359,40.5187],[-74.1882,40.6146],[-74.1005,40.6584],[-74.0687,40.6493],[-74.0674,40.6154],[-74.0797,40.5865],[-74.1385,40.5418],[-74.1881,40.5229]]],[[[-70.5099,41.3763],[-70.7853,41.3274],[-70.8292,41.359],[-70.7605,41.3736],[-70.6737,41.4485],[-70.616,41.4572],[-70.5253,41.4148],[-70.5099,41.3763]]],[[[-71.2414,41.4919],[-71.2909,41.4646],[-71.3462,41.4694],[-71.3182,41.5063],[-71.3075,41.5605],[-71.2802,41.62],[-71.2645,41.6382],[-71.232,41.6543],[-71.2414,41.4919]]],[[[-69.9779,41.2656],[-70.0551,41.2495],[-70.2331,41.2863],[-70.0866,41.3176],[-70.0627,41.3285],[-70.0436,41.3744],[-70.0412,41.3975],[-69.9856,41.2986],[-69.9779,41.2656]]],[[[-75.6357,35.8559],[-75.6508,35.8356],[-75.7172,35.9461],[-75.6489,35.9104],[-75.6367,35.8807],[-75.6357,35.8559]]],[[[-75.5441,35.2401],[-75.6783,35.2128],[-75.6901,35.2216],[-75.5364,35.2786],[-75.4879,35.4795],[-75.4812,35.5721],[-75.5043,35.7354],[-75.5035,35.7691],[-75.4785,35.7165],[-75.4564,35.5642],[-75.4647,35.4486],[-75.5093,35.2803],[-75.5441,35.2401]]],[[[-75.7819,35.1902],[-75.9637,35.1188],[-75.9842,35.1231],[-75.8649,35.1741],[-75.7819,35.1902]]],[[[-76.5037,34.643],[-76.5286,34.6315],[-76.437,34.7563],[-76.2562,34.9147],[-76.2074,34.9389],[-76.3577,34.8037],[-76.5037,34.643]]],[[[-82.0372,26.4536],[-82.0729,26.4275],[-82.145,26.4467],[-82.1844,26.481],[-82.2014,26.548],[-82.1386,26.477],[-82.1161,26.4609],[-82.0372,26.4536]]],[[[-82.0838,26.5523],[-82.0852,26.4936],[-82.1356,26.592],[-82.1691,26.7007],[-82.1211,26.6655],[-82.0838,26.5523]]],[[[-80.3818,25.1423],[-80.5806,24.9542],[-80.5585,25.0013],[-80.4811,25.102],[-80.456,25.1493],[-80.4037,25.1793],[-80.3549,25.2336],[-80.3513,25.297],[-80.2805,25.3413],[-80.2571,25.3476],[-80.3818,25.1423]]],[[[-91.7937,29.5007],[-91.8309,29.4865],[-91.9962,29.5731],[-92.0066,29.6103],[-91.925,29.6439],[-91.8752,29.641],[-91.7965,29.597],[-91.7677,29.5847],[-91.7543,29.5669],[-91.7619,29.539],[-91.7937,29.5007]]],[[[-97.0144,27.9016],[-97.036,27.8992],[-96.9876,27.9811],[-96.9787,28.0139],[-96.8993,28.1175],[-96.8574,28.1329],[-96.8397,28.0888],[-96.9213,28.016],[-97.0144,27.9016]]],[[[-96.7644,28.1526],[-96.8011,28.1484],[-96.7556,28.2024],[-96.6816,28.2297],[-96.5193,28.3334],[-96.4531,28.3406],[-96.4187,28.3763],[-96.4036,28.3816],[-96.4133,28.3378],[-96.5439,28.2756],[-96.7644,28.1526]]],[[[-97.3536,27.3],[-97.3848,27.2425],[-97.3762,27.3283],[-97.295,27.5231],[-97.13,27.7792],[-97.0605,27.822],[-97.2509,27.5412],[-97.3536,27.3]]],[[[-95.0397,29.1459],[-95.0896,29.1363],[-94.8717,29.2901],[-94.826,29.3413],[-94.7676,29.3391],[-94.8649,29.2529],[-95.0397,29.1459]]],[[[-97.1707,26.1594],[-97.1845,26.1129],[-97.2673,26.3298],[-97.4021,26.8205],[-97.4072,27.1002],[-97.386,27.1965],[-97.3512,26.8015],[-97.2022,26.2998],[-97.1707,26.1594]]],[[[-120.3066,34.0249],[-120.3597,34.0223],[-120.4416,34.0329],[-120.4129,34.0563],[-120.3677,34.0733],[-120.3533,34.0606],[-120.3066,34.0249]]],[[[-119.438,33.2172],[-119.4825,33.2153],[-119.5437,33.2246],[-119.5752,33.2783],[-119.5251,33.282],[-119.4788,33.2746],[-119.442,33.2324],[-119.438,33.2172]]],[[[-118.3504,32.8276],[-118.4086,32.8185],[-118.4732,32.8389],[-118.5289,32.9356],[-118.5902,33.0112],[-118.5571,33.0327],[-118.5075,32.9599],[-118.3832,32.8495],[-118.3504,32.8276]]],[[[-120.0436,33.9188],[-120.1139,33.9049],[-120.1671,33.9181],[-120.2519,34.0139],[-120.0718,34.0265],[-119.9944,33.9849],[-119.9839,33.9733],[-120.0436,33.9188]]],[[[-119.8824,34.0797],[-119.6789,34.0285],[-119.5691,34.053],[-119.5493,34.0282],[-119.5622,34.0066],[-119.8096,33.9678],[-119.8855,33.9949],[-119.8924,34.0322],[-119.9181,34.0678],[-119.8824,34.0797]]],[[[-118.3479,33.3857],[-118.2975,33.3121],[-118.3702,33.3212],[-118.4463,33.3171],[-118.4693,33.3571],[-118.492,33.4128],[-118.5073,33.427],[-118.5594,33.432],[-118.5633,33.4371],[-118.5694,33.4642],[-118.5548,33.4771],[-118.3917,33.4151],[-118.3479,33.3857]]],[[[-122.7821,48.6727],[-122.7688,48.651],[-122.809,48.6298],[-122.8376,48.6266],[-122.8831,48.6606],[-122.903,48.6647],[-122.887,48.6123],[-122.8925,48.5945],[-122.9856,48.6267],[-123.0028,48.6522],[-122.9767,48.6792],[-122.918,48.707],[-122.8977,48.7104],[-122.7821,48.6727]]],[[[-123.0131,48.5009],[-122.9868,48.468],[-123.0944,48.4891],[-123.1399,48.508],[-123.1534,48.5263],[-123.1696,48.5867],[-123.1622,48.6064],[-123.1142,48.6133],[-123.0242,48.5385],[-123.0131,48.5009]]],[[[-122.5728,48.1566],[-122.5238,48.0254],[-122.5028,48.0801],[-122.3667,47.9854],[-122.3666,47.9388],[-122.3832,47.9232],[-122.4114,47.9177],[-122.4376,47.9313],[-122.4616,47.964],[-122.4923,47.9813],[-122.5575,47.9925],[-122.5914,48.0296],[-122.6032,48.055],[-122.6063,48.1286],[-122.6227,48.1514],[-122.6573,48.1565],[-122.6904,48.1739],[-122.7415,48.2253],[-122.7487,48.239],[-122.7245,48.2809],[-122.669,48.351],[-122.6286,48.3842],[-122.6035,48.3806],[-122.5725,48.3596],[-122.5355,48.3212],[-122.5424,48.294],[-122.6921,48.2411],[-122.697,48.2287],[-122.6244,48.2138],[-122.5976,48.2004],[-122.5728,48.1566]]],[[[-71.3653,41.4853],[-71.3931,41.4667],[-71.4034,41.515],[-71.384,41.5706],[-71.3643,41.5718],[-71.3545,41.5423],[-71.3653,41.4853]]],[[[-74.1332,39.6808],[-74.2505,39.5294],[-74.2532,39.5585],[-74.1067,39.7464],[-74.1332,39.6808]]],[[[-75.3331,37.8883],[-75.3785,37.8721],[-75.226,38.0723],[-75.1374,38.2401],[-75.0979,38.2981],[-75.1362,38.1805],[-75.2032,38.0724],[-75.3331,37.8883]]],[[[-76.5462,34.6549],[-76.5685,34.6525],[-76.6078,34.6636],[-76.662,34.6847],[-76.6739,34.7001],[-76.6223,34.6945],[-76.5462,34.6549]]],[[[-81.3348,24.6505],[-81.3648,24.6299],[-81.3791,24.6363],[-81.3791,24.6663],[-81.4217,24.7326],[-81.4201,24.75],[-81.3223,24.6851],[-81.3198,24.6676],[-81.3348,24.6505]]],[[[-80.8294,24.8037],[-80.8483,24.8037],[-80.8389,24.8179],[-80.7994,24.8463],[-80.7852,24.8353],[-80.7868,24.821],[-80.8294,24.8037]]],[[[-80.6383,24.9032],[-80.6651,24.8984],[-80.6257,24.9411],[-80.6146,24.9379],[-80.6383,24.9032]]],[[[-81.0442,24.7168],[-81.09,24.6931],[-81.1374,24.7105],[-81.0853,24.7342],[-80.9305,24.7595],[-80.9889,24.7279],[-81.0442,24.7168]]],[[[-81.419,30.9714],[-81.4635,30.7278],[-81.4827,30.8141],[-81.4846,30.8979],[-81.4509,30.9474],[-81.419,30.9714]]],[[[-81.5667,24.5999],[-81.6315,24.59],[-81.5792,24.6294],[-81.5623,24.6892],[-81.5316,24.6425],[-81.5322,24.6142],[-81.5667,24.5999]]],[[[-80.1868,27.2784],[-80.1705,27.2048],[-80.2625,27.3756],[-80.3761,27.6434],[-80.4369,27.8505],[-80.3958,27.7945],[-80.3555,27.6786],[-80.1868,27.2784]]],[[[-81.7838,24.5446],[-81.8092,24.5423],[-81.8114,24.5578],[-81.7677,24.5767],[-81.7387,24.5754],[-81.7397,24.5545],[-81.7838,24.5446]]],[[[-88.8893,29.7126],[-88.9436,29.6603],[-88.9411,29.6802],[-88.9012,29.7326],[-88.8727,29.753],[-88.8893,29.7126]]],[[[-88.5581,30.2159],[-88.5707,30.2048],[-88.6592,30.2256],[-88.7131,30.2449],[-88.7229,30.2643],[-88.574,30.2292],[-88.5581,30.2159]]],[[[-88.0713,30.2523],[-88.1593,30.2309],[-88.2897,30.2329],[-88.3163,30.2404],[-88.2639,30.2547],[-88.1094,30.2737],[-88.0713,30.2523]]],[[[-89.224,30.0841],[-89.2205,30.0376],[-89.2694,30.0607],[-89.342,30.0628],[-89.3101,30.0787],[-89.2876,30.0942],[-89.2765,30.1108],[-89.1847,30.1687],[-89.2107,30.1262],[-89.224,30.0841]]],[[[-88.8274,29.8077],[-88.8557,29.7759],[-88.828,29.9284],[-88.8669,30.0567],[-88.8259,30.0004],[-88.8126,29.9334],[-88.8274,29.8077]]],[[[-84.9079,29.6426],[-85.0083,29.6066],[-85.1167,29.6328],[-85.0493,29.6378],[-85.0005,29.6272],[-84.877,29.6787],[-84.8122,29.7176],[-84.7372,29.7324],[-84.9079,29.6426]]],[[[-122.8531,47.2047],[-122.8626,47.1851],[-122.8768,47.1861],[-122.908,47.2261],[-122.9119,47.2543],[-122.8851,47.2747],[-122.8492,47.2163],[-122.8531,47.2047]]],[[[-122.3941,47.3953],[-122.3987,47.3725],[-122.4371,47.3548],[-122.457,47.3593],[-122.4582,47.3861],[-122.4686,47.3902],[-122.5099,47.358],[-122.5068,47.4217],[-122.4865,47.4888],[-122.4686,47.49],[-122.4421,47.4461],[-122.3941,47.3953]]],[[[-122.4973,47.5946],[-122.5026,47.5754],[-122.5578,47.5983],[-122.5759,47.6195],[-122.5737,47.6668],[-122.5601,47.6978],[-122.5498,47.704],[-122.5172,47.6906],[-122.5079,47.6827],[-122.4973,47.5946]]],[[[-122.8209,48.4313],[-122.8366,48.4215],[-122.89,48.4347],[-122.9216,48.4569],[-122.9323,48.4848],[-122.9122,48.538],[-122.8855,48.5516],[-122.8689,48.5486],[-122.8619,48.5019],[-122.8146,48.4523],[-122.8209,48.4313]]],[[[-68.6232,44.196],[-68.6612,44.1763],[-68.7017,44.1827],[-68.703,44.232],[-68.6908,44.2487],[-68.6768,44.2562],[-68.656,44.2423],[-68.6232,44.196]]],[[[-90.4102,47.0438],[-90.4267,47.0259],[-90.4593,47.0101],[-90.4717,47.0175],[-90.4639,47.0483],[-90.4474,47.0662],[-90.4221,47.0711],[-90.4097,47.0637],[-90.4102,47.0438]]],[[[-88.911,47.9362],[-88.9552,47.926],[-88.9601,47.9095],[-88.9237,47.9045],[-88.9304,47.8962],[-88.9699,47.8813],[-89.0816,47.8506],[-89.1568,47.8408],[-89.1952,47.8518],[-89.1992,47.8723],[-89.1688,47.9021],[-89.1691,47.9171],[-89.2001,47.9171],[-89.1926,47.929],[-89.1466,47.9526],[-88.7555,48.1035],[-88.5883,48.1585],[-88.4992,48.1759],[-88.4849,48.1674],[-88.5813,48.1107],[-88.5968,48.0875],[-88.5931,48.072],[-88.6248,48.042],[-88.911,47.9362]]],[[[-87.7905,47.4114],[-88.0207,47.3924],[-88.027,47.3863],[-87.9831,47.3679],[-87.9749,47.3549],[-88.0155,47.3209],[-88.2219,47.2106],[-88.2404,47.1783],[-88.2368,47.1589],[-88.3582,47.0734],[-88.4022,47.0193],[-88.4391,47.0107],[-88.4687,47.0476],[-88.4685,47.0772],[-88.4384,47.0996],[-88.4091,47.1314],[-88.4054,47.1755],[-88.4167,47.1915],[-88.4538,47.1519],[-88.4332,47.1434],[-88.4271,47.1366],[-88.4341,47.1223],[-88.5737,47.1433],[-88.6157,47.1742],[-88.6089,47.2172],[-88.562,47.2722],[-88.3943,47.3887],[-88.3203,47.4211],[-88.1102,47.4725],[-87.9943,47.4842],[-87.8779,47.4842],[-87.7935,47.4673],[-87.741,47.4336],[-87.7905,47.4114]]],[[[-84.1687,46.3245],[-84.1373,46.3063],[-84.1196,46.285],[-84.1156,46.2608],[-84.1207,46.2459],[-84.1349,46.2404],[-84.1849,46.2794],[-84.1955,46.3034],[-84.1881,46.3235],[-84.1687,46.3245]]],[[[-84.1327,46.3407],[-84.1634,46.3456],[-84.189,46.3601],[-84.2095,46.3843],[-84.2351,46.4445],[-84.2742,46.4875],[-84.2155,46.5361],[-84.1803,46.5418],[-84.1424,46.5309],[-84.1374,46.5026],[-84.1651,46.4568],[-84.1636,46.41],[-84.1328,46.3622],[-84.1327,46.3407]]],[[[-78.9903,42.9916],[-79.012,43.0027],[-79.0194,43.0242],[-79.0142,43.0515],[-78.988,43.0635],[-78.9162,43.0532],[-78.9139,43.0423],[-78.9299,43.0225],[-78.9605,42.9882],[-78.9903,42.9916]]],[[[-84.429,45.8065],[-84.4167,45.8143],[-84.3803,45.7877],[-84.3748,45.7654],[-84.3901,45.7466],[-84.4123,45.7363],[-84.4412,45.7345],[-84.4875,45.7535],[-84.5631,45.8039],[-84.5572,45.8205],[-84.429,45.8065]]],[[[-83.529,46.0236],[-83.5035,46.0131],[-83.4937,45.9908],[-83.518,45.9579],[-83.5883,45.9411],[-83.7308,45.943],[-83.8232,45.9557],[-83.8657,45.9791],[-83.8751,45.9913],[-83.8711,46.0174],[-83.8506,46.0191],[-83.8203,46.005],[-83.775,46.0111],[-83.7148,46.0375],[-83.6833,46.0572],[-83.6802,46.0704],[-83.6994,46.0956],[-83.6839,46.1063],[-83.6082,46.0966],[-83.5801,46.0801],[-83.529,46.0236]]],[[[-90.5467,46.9193],[-90.58,46.9135],[-90.6518,46.9223],[-90.6504,46.9368],[-90.5759,46.957],[-90.5426,46.9627],[-90.5348,46.9543],[-90.5467,46.9193]]],[[[-85.4923,45.7602],[-85.5015,45.7502],[-85.4923,45.6629],[-85.5091,45.6245],[-85.5517,45.6026],[-85.5859,45.5975],[-85.6121,45.6093],[-85.6077,45.6561],[-85.5729,45.7379],[-85.5385,45.7754],[-85.4923,45.7602]]],[[[-86.0524,45.1564],[-85.9985,45.1501],[-85.9798,45.1316],[-85.9762,45.1021],[-85.9882,45.088],[-86.0158,45.0892],[-86.0379,45.1028],[-86.0596,45.1468],[-86.0524,45.1564]]],[[[-86.9263,45.4149],[-86.8785,45.4142],[-86.8619,45.4086],[-86.8566,45.3944],[-86.8619,45.3522],[-86.8919,45.3423],[-86.9469,45.3457],[-86.9667,45.3683],[-86.938,45.4256],[-86.9263,45.4149]]],[[[-87.0491,45.3029],[-87.005,45.2958],[-86.9859,45.2752],[-86.9919,45.241],[-87.0104,45.2282],[-87.0415,45.2367],[-87.0536,45.2179],[-87.0466,45.1719],[-87.0569,45.1505],[-87.0842,45.154],[-87.0857,45.1454],[-87.0615,45.1249],[-87.0589,45.1024],[-87.078,45.0781],[-87.0963,45.0667],[-87.1139,45.0685],[-87.1414,45.0407],[-87.1786,44.9834],[-87.1913,44.9502],[-87.1795,44.9411],[-87.1881,44.922],[-87.2803,44.8349],[-87.3158,44.8266],[-87.3546,44.8388],[-87.382,44.8643],[-87.3982,44.9029],[-87.403,44.9329],[-87.3965,44.9542],[-87.3155,45.0311],[-87.2793,45.0815],[-87.2588,45.138],[-87.2211,45.174],[-87.1664,45.1895],[-87.122,45.2245],[-87.0881,45.2792],[-87.0491,45.3029]]],[[[-90.6534,46.8277],[-90.6775,46.813],[-90.6805,46.7978],[-90.7105,46.7834],[-90.7677,46.7698],[-90.7916,46.7723],[-90.7821,46.7911],[-90.7523,46.8136],[-90.6191,46.87],[-90.5961,46.8688],[-90.5889,46.8554],[-90.6534,46.8277]]]]}}
