{"type":"FeatureCollection","_provenance":{"source":"Natural Earth 1:50m admin_1_states_provinces_lakes (public domain)","commit":"ca96624a56bd078437bca8184e78163e5039ad19","raw_sha256":"B92C3F709B691240F6320E5CD7FADE78CEDFA3B91ECFF14CECD3DE0616C764B9","use":"wave states become REGION places in US-2; check-only states are measurement geometry and never become places (spec §5.3)","precision":4},"features":[{"type":"Feature","properties":{"code":"AZ","name":"Arizona","role":"check-only"},"geometry":{"type":"MultiPolygon","coordinates":[[[[-109.0478,31.3279],[-109.2748,31.3275],[-109.6282,31.3268],[-109.9817,31.3262],[-110.3351,31.3255],[-110.6885,31.3249],[-111.042,31.3242],[-111.5162,31.4722],[-111.9905,31.6202],[-112.4647,31.7682],[-112.939,31.9163],[-113.4132,32.0643],[-113.8875,32.2123],[-114.3617,32.3603],[-114.836,32.5083],[-114.788,32.5648],[-114.7248,32.7153],[-114.7209,32.7245],[-114.5822,32.7347],[-114.5165,32.7728],[-114.4775,32.842],[-114.469,32.9123],[-114.4909,32.9836],[-114.5505,33.0368],[-114.6481,33.0718],[-114.7044,33.1698],[-114.7194,33.3309],[-114.7017,33.4178],[-114.6512,33.4306],[-114.6026,33.4699],[-114.556,33.5356],[-114.5216,33.6076],[-114.4993,33.6859],[-114.4951,33.7847],[-114.5091,33.9039],[-114.4183,34.0511],[-114.3293,34.142],[-114.1635,34.2534],[-114.1256,34.2865],[-114.125,34.3141],[-114.1251,34.3172],[-114.1588,34.3552],[-114.308,34.4329],[-114.371,34.4885],[-114.3769,34.5397],[-114.3789,34.5406],[-114.398,34.5897],[-114.5575,34.7946],[-114.6109,34.9074],[-114.6105,34.9911],[-114.6105,34.9976],[-114.591,35.3528],[-114.6485,35.4759],[-114.6621,35.5454],[-114.6452,35.6305],[-114.6501,35.6835],[-114.6771,35.7298],[-114.6837,35.8136],[-114.6871,35.9173],[-114.7323,35.9837],[-114.7414,36.0135],[-114.7158,36.085],[-114.6691,36.1217],[-114.593,36.1476],[-114.5053,36.1564],[-114.4061,36.1483],[-114.3315,36.1163],[-114.2816,36.0603],[-114.2321,36.0317],[-114.1832,36.0303],[-114.1194,36.0767],[-114.0619,36.1752],[-114.0429,36.1818],[-114.0412,36.6125],[-114.0403,37.0042],[-113.7282,37.0039],[-113.4161,37.0037],[-113.104,37.0035],[-112.7919,37.0033],[-112.4798,37.0031],[-112.1677,37.0029],[-111.8556,37.0027],[-111.5435,37.0025],[-111.2314,37.0023],[-110.9193,37.0021],[-110.6072,37.0019],[-110.2951,37.0017],[-109.983,37.0015],[-109.6709,37.0013],[-109.3588,37.0011],[-109.0467,37.0008],[-109.0467,36.6463],[-109.0467,36.2918],[-109.0468,35.9373],[-109.0469,35.5828],[-109.0469,35.2283],[-109.047,34.8738],[-109.047,34.5193],[-109.0471,34.1648],[-109.0471,33.8103],[-109.0472,33.4558],[-109.0472,33.1013],[-109.0473,32.7468],[-109.0473,32.3922],[-109.0474,32.0377],[-109.0474,31.6832],[-109.0478,31.3279]]]]}},{"type":"Feature","properties":{"code":"CA","name":"California","role":"wave"},"geometry":{"type":"MultiPolygon","coordinates":[[[[-114.6105,34.9911],[-114.6109,34.9074],[-114.5575,34.7946],[-114.398,34.5897],[-114.3789,34.5406],[-114.3769,34.5397],[-114.371,34.4885],[-114.308,34.4329],[-114.1588,34.3552],[-114.1251,34.3172],[-114.125,34.3141],[-114.1256,34.2865],[-114.1635,34.2534],[-114.3293,34.142],[-114.4183,34.0511],[-114.5091,33.9039],[-114.4951,33.7847],[-114.4993,33.6859],[-114.5216,33.6076],[-114.556,33.5356],[-114.6026,33.4699],[-114.6512,33.4306],[-114.7017,33.4178],[-114.7194,33.3309],[-114.7044,33.1698],[-114.6481,33.0718],[-114.5505,33.0368],[-114.4909,32.9836],[-114.469,32.9123],[-114.4775,32.842],[-114.5165,32.7728],[-114.5822,32.7347],[-114.7209,32.7245],[-114.7248,32.7153],[-114.8391,32.7047],[-115.1252,32.6833],[-115.4114,32.6619],[-115.6975,32.6405],[-115.9837,32.619],[-116.2698,32.5976],[-116.556,32.5762],[-116.8421,32.5548],[-117.1283,32.5334],[-117.1305,32.5398],[-117.1374,32.6492],[-117.1837,32.6879],[-117.2435,32.664],[-117.2707,32.8063],[-117.2558,32.8734],[-117.263,32.9389],[-117.3188,33.1001],[-117.4674,33.2955],[-117.7885,33.5385],[-117.9521,33.6196],[-118.0805,33.7222],[-118.1619,33.7507],[-118.2644,33.7586],[-118.2942,33.7123],[-118.4104,33.7439],[-118.3929,33.8583],[-118.5062,34.0174],[-118.5989,34.035],[-118.832,34.0245],[-119.1437,34.112],[-119.2358,34.1641],[-119.2676,34.2574],[-119.4137,34.3386],[-119.6061,34.418],[-119.7132,34.3997],[-119.8533,34.412],[-120.053,34.4693],[-120.1696,34.4765],[-120.3965,34.4596],[-120.4812,34.4716],[-120.5598,34.5439],[-120.6447,34.58],[-120.6267,34.6689],[-120.6376,34.7494],[-120.6249,34.812],[-120.663,34.9493],[-120.6336,35.0765],[-120.6591,35.1224],[-120.707,35.1576],[-120.8574,35.2097],[-120.8849,35.2749],[-120.8603,35.3654],[-120.8996,35.4251],[-121.0228,35.4808],[-121.1379,35.6071],[-121.2838,35.6763],[-121.3439,35.7922],[-121.4337,35.8639],[-121.465,35.9274],[-121.6644,36.154],[-121.8774,36.3311],[-121.9102,36.4329],[-121.9186,36.5723],[-121.8351,36.6575],[-121.79,36.7323],[-121.7945,36.801],[-121.8074,36.8512],[-121.8807,36.9389],[-122.1642,36.991],[-122.3949,37.2075],[-122.4085,37.3732],[-122.4992,37.5426],[-122.5005,37.6528],[-122.5142,37.772],[-122.4456,37.798],[-122.3841,37.7885],[-122.3903,37.7411],[-122.3697,37.6559],[-122.2976,37.5919],[-122.2287,37.5639],[-122.166,37.5017],[-122.119,37.4828],[-122.0705,37.4783],[-122.0965,37.5182],[-122.1241,37.5438],[-122.158,37.6264],[-122.2222,37.732],[-122.296,37.7904],[-122.3334,37.8966],[-122.3655,37.9212],[-122.3854,37.9606],[-122.3142,38.0073],[-122.217,38.0406],[-122.0867,38.0496],[-121.7169,38.0341],[-121.6381,38.0613],[-121.573,38.0524],[-121.5253,38.0559],[-121.6257,38.0839],[-121.6822,38.0748],[-121.7486,38.0805],[-121.8808,38.075],[-121.9342,38.0868],[-121.9931,38.1201],[-122.0315,38.1235],[-122.1538,38.0655],[-122.2083,38.0725],[-122.3371,38.1359],[-122.3934,38.1448],[-122.4839,38.1088],[-122.4949,37.9536],[-122.4669,37.8382],[-122.5213,37.8264],[-122.5842,37.8741],[-122.6807,37.9023],[-122.7604,37.9456],[-122.8729,38.026],[-122.932,38.0555],[-122.9988,37.9886],[-123.0015,38.0193],[-122.9681,38.097],[-122.9776,38.2273],[-122.8768,38.1234],[-122.9082,38.1966],[-122.9865,38.2771],[-123.0462,38.3051],[-123.1212,38.4493],[-123.2897,38.5359],[-123.4248,38.6756],[-123.7011,38.9073],[-123.7195,39.111],[-123.8203,39.3684],[-123.7778,39.515],[-123.7835,39.6187],[-123.8329,39.7755],[-123.8845,39.8608],[-124.1085,40.0945],[-124.324,40.252],[-124.3565,40.3711],[-124.3717,40.4912],[-124.3245,40.5981],[-124.2837,40.7105],[-124.2539,40.7403],[-124.2423,40.7279],[-124.2506,40.7039],[-124.22,40.6965],[-124.2084,40.7461],[-124.1902,40.7717],[-124.2225,40.775],[-124.2192,40.7907],[-124.1999,40.8221],[-124.1331,40.9698],[-124.14,41.1559],[-124.0685,41.3842],[-124.0719,41.4595],[-124.1177,41.6218],[-124.1632,41.719],[-124.2446,41.7879],[-124.2087,41.8886],[-124.2117,41.9846],[-124.2284,42.0008],[-123.9557,42.0006],[-123.692,42.0006],[-123.4284,42.0006],[-123.1647,42.0006],[-122.901,42.0006],[-122.6374,42.0006],[-122.3737,42.0006],[-122.1101,42.0006],[-121.8464,42.0006],[-121.5827,42.0006],[-121.3191,42.0006],[-121.0554,42.0006],[-120.7918,42.0006],[-120.5281,42.0006],[-120.2645,42.0006],[-120.0008,42.0006],[-120.0008,41.8131],[-120.0007,41.6255],[-120.0007,41.438],[-120.0006,41.2505],[-120.0006,41.063],[-120.0006,40.8755],[-120.0005,40.688],[-120.0004,40.5004],[-120.0004,40.3129],[-120.0003,40.1254],[-120.0003,39.9379],[-120.0002,39.7503],[-120.0002,39.5628],[-120.0001,39.3753],[-120.0001,39.1878],[-120.0001,39.0003],[-119.7658,38.8368],[-119.5316,38.6733],[-119.2974,38.5098],[-119.0632,38.3463],[-118.8289,38.1828],[-118.5947,38.0193],[-118.3605,37.8559],[-118.1263,37.6924],[-117.9429,37.5546],[-117.7596,37.4168],[-117.5763,37.279],[-117.3929,37.1412],[-117.2096,37.0034],[-117.0263,36.8655],[-116.8429,36.7278],[-116.6596,36.59],[-116.4057,36.3918],[-116.1517,36.1936],[-115.8978,35.9955],[-115.6439,35.7973],[-115.39,35.5991],[-115.1361,35.401],[-114.8822,35.2028],[-114.6105,34.9911]]],[[[-119.8824,34.0797],[-119.6789,34.0285],[-119.5691,34.053],[-119.5493,34.0282],[-119.5622,34.0066],[-119.8096,33.9678],[-119.8855,33.9949],[-119.8924,34.0322],[-119.918,34.0678],[-119.8824,34.0797]]],[[[-120.3066,34.0249],[-120.3597,34.0223],[-120.4416,34.0329],[-120.4129,34.0563],[-120.3677,34.0733],[-120.3533,34.0606],[-120.3066,34.0249]]],[[[-120.0436,33.9189],[-120.1139,33.9049],[-120.1671,33.9181],[-120.2519,34.0138],[-120.0718,34.0265],[-119.9944,33.9849],[-119.9839,33.9733],[-120.0436,33.9189]]],[[[-118.348,33.3858],[-118.2975,33.3121],[-118.3702,33.3212],[-118.4463,33.3171],[-118.4694,33.3571],[-118.492,33.4128],[-118.5073,33.427],[-118.5594,33.432],[-118.5633,33.4371],[-118.5694,33.4642],[-118.5548,33.4771],[-118.3917,33.4151],[-118.348,33.3858]]],[[[-119.438,33.2172],[-119.4825,33.2153],[-119.5437,33.2246],[-119.5752,33.2783],[-119.5251,33.2821],[-119.4788,33.2746],[-119.4421,33.2324],[-119.438,33.2172]]],[[[-118.3504,32.8276],[-118.4086,32.8185],[-118.4732,32.8389],[-118.5289,32.9356],[-118.5902,33.0112],[-118.5571,33.0327],[-118.5075,32.9599],[-118.3832,32.8495],[-118.3504,32.8276]]]]}},{"type":"Feature","properties":{"code":"CT","name":"Connecticut","role":"check-only"},"geometry":{"type":"MultiPolygon","coordinates":[[[[-71.8008,42.012],[-71.8003,41.9582],[-71.7996,41.883],[-71.799,41.8285],[-71.7982,41.7531],[-71.7973,41.6676],[-71.7965,41.5889],[-71.7958,41.52],[-71.7992,41.4792],[-71.8045,41.4167],[-71.8299,41.3927],[-71.8424,41.3355],[-71.9299,41.341],[-72.0739,41.3261],[-72.2653,41.2917],[-72.3711,41.3122],[-72.4794,41.2758],[-72.8472,41.2658],[-72.9247,41.2852],[-73.0237,41.2165],[-73.1823,41.1758],[-73.583,41.0219],[-73.6305,40.9919],[-73.6821,41.0547],[-73.723,41.1045],[-73.6419,41.1434],[-73.5798,41.1731],[-73.5218,41.2009],[-73.4841,41.219],[-73.5144,41.2575],[-73.5447,41.296],[-73.5367,41.3909],[-73.5287,41.4858],[-73.5206,41.5808],[-73.5126,41.6757],[-73.5046,41.7707],[-73.4966,41.8657],[-73.4886,41.9606],[-73.4806,42.0556],[-73.3965,42.0529],[-73.3123,42.0502],[-73.2282,42.0475],[-73.1441,42.0448],[-73.06,42.0421],[-72.9759,42.0395],[-72.8918,42.0368],[-72.8077,42.0341],[-72.8065,42.008],[-72.7633,42.0112],[-72.7576,42.0341],[-72.6381,42.0326],[-72.5186,42.0312],[-72.3991,42.0298],[-72.2796,42.0284],[-72.1601,42.027],[-72.0406,42.0256],[-71.9211,42.0241],[-71.8016,42.0227],[-71.8008,42.012]]]]}},{"type":"Feature","properties":{"code":"ID","name":"Idaho","role":"check-only"},"geometry":{"type":"MultiPolygon","coordinates":[[[[-117.0391,48.9931],[-116.717,48.9931],[-116.2906,48.9931],[-116.0485,48.9931],[-116.0484,48.7466],[-116.0486,48.4993],[-116.0488,48.252],[-116.049,48.0047],[-115.9414,47.9041],[-115.8621,47.8424],[-115.8112,47.776],[-115.7338,47.7063],[-115.7184,47.6815],[-115.6909,47.6067],[-115.7109,47.5526],[-115.6697,47.4979],[-115.6769,47.4706],[-115.708,47.4568],[-115.7145,47.4523],[-115.7133,47.4467],[-115.7025,47.4376],[-115.5933,47.3849],[-115.486,47.3116],[-115.3495,47.2612],[-115.3067,47.2312],[-115.1266,47.0846],[-115.0335,46.9909],[-114.9357,46.9228],[-114.8869,46.8449],[-114.7861,46.7768],[-114.7607,46.7423],[-114.7537,46.7346],[-114.7403,46.7336],[-114.678,46.7502],[-114.6616,46.7455],[-114.6306,46.7186],[-114.624,46.6776],[-114.6015,46.6603],[-114.563,46.6504],[-114.5187,46.6477],[-114.3809,46.6676],[-114.3509,46.6676],[-114.3369,46.6592],[-114.3301,46.6376],[-114.3321,46.6014],[-114.3458,46.5506],[-114.387,46.5],[-114.3802,46.453],[-114.4127,46.3436],[-114.4442,46.2707],[-114.4466,46.1993],[-114.4854,46.1582],[-114.4636,46.1098],[-114.4783,46.0356],[-114.4648,46.0164],[-114.4159,45.9822],[-114.3968,45.8909],[-114.4051,45.8743],[-114.4926,45.8387],[-114.5225,45.8151],[-114.5337,45.782],[-114.4958,45.6858],[-114.5326,45.633],[-114.5373,45.5874],[-114.5292,45.5757],[-114.4484,45.5513],[-114.3506,45.4971],[-114.3192,45.4857],[-114.2976,45.4876],[-114.2561,45.5056],[-114.2102,45.5424],[-114.1166,45.5791],[-114.0064,45.6585],[-114.0007,45.6806],[-113.9919,45.693],[-113.9778,45.6924],[-113.9427,45.6815],[-113.8729,45.6335],[-113.8128,45.607],[-113.8023,45.6011],[-113.7966,45.5877],[-113.7996,45.5402],[-113.7661,45.5025],[-113.7561,45.4408],[-113.7219,45.3793],[-113.6971,45.305],[-113.6066,45.2091],[-113.5574,45.1404],[-113.5036,45.1093],[-113.4711,45.0729],[-113.4471,45.0291],[-113.4381,44.994],[-113.4693,44.93],[-113.4608,44.9036],[-113.4321,44.8742],[-113.3389,44.8081],[-113.3204,44.8025],[-113.2343,44.8099],[-113.1872,44.7986],[-113.1407,44.7655],[-113.0933,44.7153],[-113.0627,44.6651],[-113.0543,44.6052],[-113.0064,44.5391],[-112.9997,44.4804],[-112.9701,44.4545],[-112.9104,44.4193],[-112.8539,44.3983],[-112.8314,44.3966],[-112.8155,44.406],[-112.8102,44.4382],[-112.7871,44.4631],[-112.7159,44.498],[-112.6482,44.4971],[-112.3928,44.468],[-112.3754,44.47],[-112.3639,44.4796],[-112.32,44.5332],[-112.2851,44.5539],[-112.2313,44.5607],[-112.0742,44.5476],[-111.8921,44.5549],[-111.7971,44.5399],[-111.6593,44.5596],[-111.4999,44.5448],[-111.4793,44.5537],[-111.4745,44.5646],[-111.4888,44.5845],[-111.491,44.6242],[-111.4591,44.671],[-111.4481,44.7111],[-111.4156,44.7336],[-111.3725,44.7462],[-111.3375,44.7448],[-111.3041,44.7233],[-111.2651,44.6876],[-111.1976,44.5906],[-111.1609,44.5558],[-111.1172,44.5253],[-111.0514,44.4989],[-111.0514,44.3428],[-111.0513,44.1867],[-111.0512,44.0305],[-111.0511,43.8744],[-111.0511,43.7183],[-111.051,43.5621],[-111.0509,43.406],[-111.0509,43.2499],[-111.0508,43.0938],[-111.0507,42.9376],[-111.0507,42.7815],[-111.0506,42.6254],[-111.0505,42.4692],[-111.0504,42.3131],[-111.0504,42.157],[-111.0503,42.0009],[-111.2373,42.0009],[-111.4243,42.0009],[-111.6113,42.0009],[-111.7984,42.001],[-111.9854,42.001],[-112.1724,42.001],[-112.3594,42.001],[-112.5464,42.001],[-112.7335,42.001],[-112.9205,42.001],[-113.1075,42.0011],[-113.2945,42.0011],[-113.4815,42.0011],[-113.6685,42.0011],[-113.8556,42.0011],[-114.0426,42.0011],[-114.4144,42.0011],[-114.7861,42.001],[-115.1579,42.0009],[-115.5296,42.0008],[-115.9014,42.0008],[-116.2732,42.0007],[-116.6449,42.0006],[-117.0167,42.0006],[-117.0171,42.2238],[-117.0176,42.447],[-117.018,42.6702],[-117.0185,42.8934],[-117.0189,43.1165],[-117.0193,43.3397],[-117.0198,43.5629],[-117.0202,43.8084],[-117.0205,43.8132],[-116.9576,43.9641],[-116.944,44.0377],[-116.9607,44.0791],[-116.9498,44.119],[-116.9113,44.1574],[-116.9124,44.1995],[-116.9532,44.2453],[-117.029,44.2755],[-117.1397,44.2903],[-117.1973,44.3438],[-117.2017,44.4362],[-117.1189,44.5783],[-116.949,44.7701],[-116.8559,44.9057],[-116.8396,44.9852],[-116.7373,45.1688],[-116.5492,45.4567],[-116.477,45.6411],[-116.5209,45.7219],[-116.6168,45.7992],[-116.7647,45.8729],[-116.8692,45.9585],[-116.8965,46.0021],[-116.9302,46.056],[-116.9478,46.1243],[-116.9221,46.1636],[-116.943,46.2321],[-117.0104,46.3296],[-117.039,46.3966],[-117.0325,46.4198],[-117.025,46.4292],[-117.0258,46.5895],[-117.0267,46.7498],[-117.0275,46.9101],[-117.0283,47.0704],[-117.0292,47.2307],[-117.03,47.391],[-117.0308,47.5513],[-117.0316,47.7116],[-117.0325,47.8719],[-117.0333,48.0322],[-117.0341,48.1925],[-117.0349,48.3528],[-117.0357,48.5131],[-117.0365,48.6734],[-117.0374,48.8337],[-117.0391,48.9931]]]]}},{"type":"Feature","properties":{"code":"MA","name":"Massachusetts","role":"check-only"},"geometry":{"type":"MultiPolygon","coordinates":[[[[-71.8008,42.012],[-71.8016,42.0227],[-71.9211,42.0241],[-72.0406,42.0256],[-72.1601,42.027],[-72.2796,42.0284],[-72.3991,42.0298],[-72.5186,42.0312],[-72.6381,42.0326],[-72.7576,42.0341],[-72.7633,42.0112],[-72.8065,42.008],[-72.8077,42.0341],[-72.8918,42.0368],[-72.9759,42.0395],[-73.06,42.0421],[-73.1441,42.0448],[-73.2282,42.0475],[-73.3123,42.0502],[-73.3965,42.0529],[-73.4806,42.0556],[-73.5073,42.08],[-73.4755,42.164],[-73.4438,42.2481],[-73.412,42.3321],[-73.3803,42.4161],[-73.3486,42.5001],[-73.3168,42.5842],[-73.2851,42.6682],[-73.2533,42.7522],[-73.155,42.7495],[-73.0567,42.7467],[-72.9584,42.744],[-72.8601,42.7413],[-72.7618,42.7385],[-72.6635,42.7358],[-72.5652,42.7331],[-72.4669,42.7303],[-72.3247,42.7269],[-72.1825,42.7234],[-72.0404,42.7199],[-71.8982,42.7164],[-71.7561,42.7129],[-71.6139,42.7094],[-71.4718,42.706],[-71.3296,42.7025],[-71.2423,42.7295],[-71.1393,42.8081],[-71.0762,42.8251],[-70.9741,42.8717],[-70.9235,42.8816],[-70.8061,42.8768],[-70.8291,42.8253],[-70.8003,42.774],[-70.7813,42.7212],[-70.7357,42.6693],[-70.6969,42.6646],[-70.6548,42.674],[-70.624,42.6718],[-70.6041,42.6497],[-70.6129,42.6233],[-70.6614,42.6167],[-70.7518,42.5703],[-70.8312,42.5526],[-70.8709,42.4966],[-70.9304,42.432],[-71.0462,42.3311],[-70.9967,42.3],[-70.8179,42.265],[-70.7383,42.2289],[-70.6177,42.0404],[-70.6452,42.0216],[-70.6561,41.987],[-70.5489,41.9386],[-70.5147,41.8033],[-70.4267,41.7573],[-70.2955,41.729],[-70.135,41.7699],[-70.0014,41.8262],[-70.0061,41.8723],[-70.09,41.9797],[-70.1102,42.0301],[-70.1726,42.0628],[-70.1962,42.0351],[-70.2365,42.071],[-70.2411,42.0912],[-70.2035,42.101],[-70.1599,42.0971],[-70.1089,42.0783],[-69.9779,41.9613],[-69.9416,41.8079],[-69.9338,41.7104],[-69.9486,41.6771],[-69.9868,41.684],[-70.0595,41.6774],[-70.4047,41.6269],[-70.4814,41.5825],[-70.6571,41.5342],[-70.6681,41.5583],[-70.6553,41.6081],[-70.6665,41.7101],[-70.7011,41.7148],[-70.9742,41.5485],[-71.0798,41.5381],[-71.1685,41.4894],[-71.1884,41.5164],[-71.2043,41.6411],[-71.1487,41.7457],[-71.1783,41.7441],[-71.2338,41.7066],[-71.2679,41.7508],[-71.3047,41.7747],[-71.3407,41.7979],[-71.3395,41.8352],[-71.3376,41.8914],[-71.3791,41.9024],[-71.3839,41.9717],[-71.3871,42.0169],[-71.4625,42.016],[-71.5241,42.0152],[-71.6232,42.014],[-71.7258,42.0129],[-71.8008,42.012]]],[[[-70.5099,41.3763],[-70.7853,41.3274],[-70.8292,41.359],[-70.7605,41.3736],[-70.6737,41.4485],[-70.616,41.4572],[-70.5254,41.4148],[-70.5099,41.3763]]],[[[-69.9779,41.2656],[-70.0551,41.2495],[-70.2331,41.2863],[-70.0866,41.3176],[-70.0627,41.3285],[-70.0436,41.3744],[-70.0412,41.3975],[-69.9856,41.2986],[-69.9779,41.2656]]]]}},{"type":"Feature","properties":{"code":"NJ","name":"New Jersey","role":"check-only"},"geometry":{"type":"MultiPolygon","coordinates":[[[[-75.0742,39.9835],[-75.0235,40.0174],[-74.9093,40.0795],[-74.7349,40.1545],[-74.9764,40.4058],[-75.034,40.4204],[-75.0974,40.5431],[-75.1705,40.5768],[-75.189,40.5958],[-75.1923,40.6899],[-75.1857,40.7438],[-75.1747,40.7755],[-75.1118,40.8021],[-75.0756,40.8563],[-75.0749,40.8845],[-75.1227,40.9718],[-75.123,40.999],[-75.0315,41.0518],[-74.9123,41.1553],[-74.8414,41.2686],[-74.8125,41.3015],[-74.7778,41.3251],[-74.6991,41.3573],[-74.6001,41.3116],[-74.5011,41.2659],[-74.402,41.2202],[-74.3031,41.1745],[-74.2041,41.1289],[-74.1051,41.0832],[-74.006,41.0375],[-73.9101,40.9923],[-73.9272,40.9142],[-74.0255,40.7564],[-74.0673,40.7196],[-74.1162,40.6873],[-74.1531,40.6733],[-74.1871,40.648],[-74.2267,40.608],[-74.2642,40.5286],[-74.2415,40.4563],[-74.0498,40.4298],[-73.9985,40.4522],[-73.9723,40.4003],[-73.9576,40.3284],[-73.972,40.2505],[-74.004,40.1713],[-74.0283,40.073],[-74.0489,39.9231],[-74.0799,39.7881],[-74.084,39.8291],[-74.0646,39.9931],[-74.096,39.976],[-74.1176,39.9381],[-74.1761,39.7266],[-74.2566,39.6139],[-74.3306,39.5359],[-74.407,39.5488],[-74.3899,39.4868],[-74.4109,39.4545],[-74.4288,39.3872],[-74.4744,39.3426],[-74.5172,39.3468],[-74.5787,39.3161],[-74.603,39.2926],[-74.6048,39.2475],[-74.6459,39.2079],[-74.7945,39.0019],[-74.9234,38.9411],[-74.9543,38.95],[-74.9203,39.0472],[-74.897,39.1455],[-74.9753,39.1883],[-75.0502,39.2108],[-75.1361,39.2079],[-75.231,39.2843],[-75.3534,39.3398],[-75.5242,39.4902],[-75.5193,39.5319],[-75.5236,39.6018],[-75.4716,39.7124],[-75.4219,39.7897],[-75.3532,39.8297],[-75.1538,39.8705],[-75.1038,39.9318],[-75.0742,39.9835]]],[[[-74.1332,39.6808],[-74.2505,39.5294],[-74.2532,39.5585],[-74.1068,39.7464],[-74.1332,39.6808]]]]}},{"type":"Feature","properties":{"code":"NV","name":"Nevada","role":"check-only"},"geometry":{"type":"MultiPolygon","coordinates":[[[[-114.0403,37.0042],[-114.0412,36.6125],[-114.0429,36.1818],[-114.0619,36.1752],[-114.1194,36.0767],[-114.1832,36.0303],[-114.2321,36.0317],[-114.2816,36.0603],[-114.3315,36.1163],[-114.4061,36.1483],[-114.5053,36.1564],[-114.593,36.1476],[-114.6691,36.1217],[-114.7158,36.085],[-114.7414,36.0135],[-114.7323,35.9837],[-114.6871,35.9173],[-114.6837,35.8136],[-114.6771,35.7298],[-114.6501,35.6835],[-114.6452,35.6305],[-114.6621,35.5454],[-114.6485,35.4759],[-114.591,35.3528],[-114.6105,34.9976],[-114.6105,34.9911],[-114.8822,35.2028],[-115.1361,35.401],[-115.39,35.5991],[-115.6439,35.7973],[-115.8978,35.9955],[-116.1517,36.1936],[-116.4057,36.3918],[-116.6596,36.59],[-116.8429,36.7278],[-117.0263,36.8655],[-117.2096,37.0034],[-117.3929,37.1412],[-117.5763,37.279],[-117.7596,37.4168],[-117.9429,37.5546],[-118.1263,37.6924],[-118.3605,37.8559],[-118.5947,38.0193],[-118.8289,38.1828],[-119.0632,38.3463],[-119.2974,38.5098],[-119.5316,38.6733],[-119.7658,38.8368],[-120.0001,39.0003],[-120.0001,39.1878],[-120.0001,39.3753],[-120.0002,39.5628],[-120.0002,39.7503],[-120.0003,39.9379],[-120.0003,40.1254],[-120.0004,40.3129],[-120.0004,40.5004],[-120.0005,40.688],[-120.0006,40.8755],[-120.0006,41.063],[-120.0006,41.2505],[-120.0007,41.438],[-120.0007,41.6255],[-120.0008,41.8131],[-120.0008,42.0006],[-119.6278,42.0006],[-119.2548,42.0006],[-118.8818,42.0006],[-118.5088,42.0006],[-118.1357,42.0006],[-117.7627,42.0006],[-117.3897,42.0006],[-117.0167,42.0006],[-116.6449,42.0006],[-116.2732,42.0007],[-115.9014,42.0008],[-115.5296,42.0008],[-115.1579,42.0009],[-114.7861,42.001],[-114.4144,42.0011],[-114.0426,42.0011],[-114.0425,41.8449],[-114.0425,41.6888],[-114.0424,41.5327],[-114.0423,41.3765],[-114.0422,41.2203],[-114.0422,41.0642],[-114.0421,40.908],[-114.042,40.7519],[-114.0419,40.5957],[-114.0418,40.4396],[-114.0418,40.2834],[-114.0417,40.1273],[-114.0416,39.9711],[-114.0416,39.8149],[-114.0415,39.6588],[-114.0414,39.5026],[-114.0414,39.3465],[-114.0413,39.1903],[-114.0412,39.0342],[-114.0411,38.878],[-114.0411,38.7218],[-114.041,38.5657],[-114.0409,38.4095],[-114.0409,38.2534],[-114.0408,38.0972],[-114.0407,37.9411],[-114.0406,37.7849],[-114.0406,37.6288],[-114.0405,37.4726],[-114.0404,37.3165],[-114.0403,37.1603],[-114.0403,37.0042]]]]}},{"type":"Feature","properties":{"code":"NY","name":"New York","role":"wave"},"geometry":{"type":"MultiPolygon","coordinates":[[[[-79.066,43.1061],[-79.0661,43.1061],[-79.0592,43.2781],[-79.0614,43.2829],[-79.0532,43.2851],[-78.6895,43.3615],[-78.4575,43.3875],[-78.175,43.3947],[-77.8382,43.3571],[-77.7074,43.3229],[-77.6246,43.2791],[-77.5291,43.2674],[-77.4208,43.2877],[-77.2708,43.2945],[-77.079,43.2877],[-76.9764,43.2774],[-76.9631,43.2638],[-76.9498,43.2679],[-76.9367,43.2897],[-76.8853,43.314],[-76.7414,43.35],[-76.7223,43.3426],[-76.6929,43.3609],[-76.6531,43.405],[-76.5797,43.4538],[-76.4727,43.5073],[-76.376,43.5351],[-76.2896,43.5373],[-76.2318,43.5504],[-76.2026,43.5745],[-76.1936,43.5958],[-76.2048,43.6143],[-76.1999,43.6347],[-76.195,43.6448],[-76.1993,43.6531],[-76.2097,43.6703],[-76.2181,43.7578],[-76.2349,43.7988],[-76.2582,43.8291],[-76.2882,43.8487],[-76.2846,43.8692],[-76.2325,43.8945],[-76.2364,43.8709],[-76.2228,43.8638],[-76.1983,43.8745],[-76.1427,43.9269],[-76.1365,43.9466],[-76.0987,43.967],[-76.0707,43.9985],[-76.1019,44.0032],[-76.1754,43.9938],[-76.1923,44.0034],[-76.1541,44.0454],[-76.1612,44.0693],[-76.1733,44.0794],[-76.1976,44.0835],[-76.2806,44.0465],[-76.3061,44.0432],[-76.3097,44.0627],[-76.3524,44.1061],[-76.2378,44.1832],[-75.8322,44.3973],[-75.7909,44.4299],[-75.7757,44.4589],[-75.7866,44.4843],[-75.798,44.4907],[-75.792,44.497],[-75.4013,44.7723],[-75.1794,44.8994],[-74.9961,44.9701],[-74.8566,45.0039],[-74.7625,44.9991],[-74.7089,45.0039],[-74.6632,45.0039],[-74.4304,45.0042],[-74.0143,45.0047],[-73.5981,45.0052],[-73.3522,45.0054],[-73.3451,44.9389],[-73.3658,44.8604],[-73.3486,44.7753],[-73.3721,44.5973],[-73.3098,44.4596],[-73.3246,44.3679],[-73.3209,44.2689],[-73.3318,44.2446],[-73.3811,44.1874],[-73.4098,44.1314],[-73.4261,44.0749],[-73.4249,44.0383],[-73.383,43.8758],[-73.375,43.8042],[-73.3758,43.7622],[-73.4134,43.6279],[-73.4159,43.5896],[-73.4049,43.5788],[-73.3914,43.5785],[-73.3492,43.6204],[-73.3305,43.6267],[-73.3062,43.6163],[-73.2471,43.553],[-73.2503,43.4397],[-73.2527,43.3572],[-73.2552,43.2654],[-73.2591,43.1279],[-73.2619,43.0271],[-73.2645,42.9352],[-73.2666,42.8648],[-73.2802,42.8132],[-73.2533,42.7522],[-73.2851,42.6682],[-73.3168,42.5842],[-73.3486,42.5001],[-73.3803,42.4161],[-73.412,42.3321],[-73.4438,42.2481],[-73.4755,42.164],[-73.5073,42.08],[-73.4806,42.0556],[-73.4886,41.9606],[-73.4966,41.8657],[-73.5046,41.7707],[-73.5126,41.6757],[-73.5206,41.5808],[-73.5287,41.4858],[-73.5367,41.3909],[-73.5447,41.296],[-73.5144,41.2575],[-73.4841,41.219],[-73.5218,41.2009],[-73.5798,41.1731],[-73.6419,41.1434],[-73.723,41.1045],[-73.6821,41.0547],[-73.6305,40.9919],[-73.6714,40.9659],[-73.779,40.8784],[-73.8512,40.8314],[-73.9107,40.8161],[-73.9472,40.7769],[-73.9871,40.7514],[-73.9486,40.8387],[-73.9067,40.9125],[-73.872,41.0552],[-73.8823,41.1706],[-73.9253,41.2181],[-73.97,41.2497],[-73.9176,41.1358],[-73.9092,40.9961],[-73.9101,40.9923],[-74.006,41.0375],[-74.1051,41.0832],[-74.2041,41.1289],[-74.3031,41.1745],[-74.402,41.2202],[-74.5011,41.2659],[-74.6001,41.3116],[-74.6991,41.3573],[-74.7204,41.3949],[-74.7566,41.4239],[-74.9354,41.4744],[-74.9813,41.5077],[-75.0227,41.5529],[-75.0514,41.6084],[-75.0662,41.6666],[-75.0669,41.7132],[-75.0537,41.765],[-75.0948,41.7995],[-75.0955,41.8317],[-75.1219,41.8534],[-75.2389,41.8922],[-75.274,41.9467],[-75.3513,41.9984],[-75.4892,41.9985],[-75.6271,41.9986],[-75.7649,41.9986],[-75.9028,41.9987],[-76.0406,41.9988],[-76.1785,41.9989],[-76.3164,41.999],[-76.4542,41.999],[-76.5921,41.9991],[-76.73,41.9992],[-76.8678,41.9993],[-77.0057,41.9994],[-77.1436,41.9994],[-77.2814,41.9995],[-77.4193,41.9996],[-77.5571,41.9997],[-77.695,41.9997],[-77.8329,41.9998],[-77.9707,41.9999],[-78.1086,42],[-78.2465,42],[-78.3843,42.0001],[-78.5222,42.0002],[-78.6601,42.0003],[-78.7979,42.0003],[-78.9358,42.0004],[-79.0736,42.0005],[-79.2115,42.0006],[-79.3494,42.0007],[-79.4872,42.0007],[-79.6251,42.0008],[-79.763,42.0009],[-79.763,42.1355],[-79.763,42.2701],[-79.763,42.2757],[-79.7041,42.3001],[-79.5123,42.391],[-79.4164,42.4569],[-79.3154,42.5116],[-79.2092,42.5552],[-79.125,42.6112],[-79.0625,42.6798],[-78.9936,42.7307],[-78.9183,42.7641],[-78.8778,42.7991],[-78.8723,42.8359],[-78.8862,42.8856],[-78.9197,42.9482],[-78.9243,42.9975],[-78.9001,43.0335],[-78.8947,43.0578],[-78.9082,43.0703],[-79.066,43.1061]]],[[[-72.5098,40.986],[-72.5809,40.9213],[-72.5166,40.9148],[-72.4613,40.9338],[-72.409,40.9722],[-72.2874,41.0241],[-72.1839,41.0468],[-72.1512,41.0515],[-72.1019,41.015],[-72.004,41.0443],[-71.9032,41.0607],[-72.339,40.8941],[-72.4281,40.8754],[-72.5555,40.8258],[-72.6761,40.7906],[-72.7628,40.7778],[-73.1943,40.6542],[-73.2285,40.6515],[-73.2655,40.6636],[-73.6209,40.5999],[-73.7667,40.5927],[-73.8996,40.5705],[-73.8013,40.6218],[-73.7992,40.641],[-73.8227,40.656],[-73.8752,40.6516],[-73.929,40.5988],[-74.0149,40.5812],[-74.032,40.6387],[-74.0034,40.6832],[-73.9646,40.7253],[-73.8793,40.7917],[-73.7572,40.8337],[-73.6952,40.87],[-73.6522,40.838],[-73.6428,40.8812],[-73.6098,40.9062],[-73.5738,40.9196],[-73.4874,40.92],[-73.4409,40.9268],[-73.4072,40.9411],[-73.3727,40.9438],[-73.2782,40.9242],[-73.1858,40.9299],[-73.1113,40.9569],[-73.0338,40.966],[-72.8288,40.9721],[-72.6251,40.9918],[-72.5437,41.027],[-72.3726,41.1256],[-72.2741,41.153],[-72.4274,41.0385],[-72.5098,40.986]]],[[[-74.1881,40.5229],[-74.2359,40.5187],[-74.1882,40.6146],[-74.1005,40.6584],[-74.0688,40.6493],[-74.0674,40.6155],[-74.0797,40.5865],[-74.1385,40.5418],[-74.1881,40.5229]]],[[[-78.9903,42.9916],[-79.012,43.0027],[-79.0194,43.0242],[-79.0142,43.0515],[-78.988,43.0635],[-78.9162,43.0532],[-78.9139,43.0423],[-78.9299,43.0225],[-78.9605,42.9882],[-78.9903,42.9916]]]]}},{"type":"Feature","properties":{"code":"OH","name":"Ohio","role":"check-only"},"geometry":{"type":"MultiPolygon","coordinates":[[[[-80.5203,41.9896],[-80.5203,41.9059],[-80.5203,41.8011],[-80.5203,41.6962],[-80.5203,41.5914],[-80.5203,41.4866],[-80.5203,41.3817],[-80.5203,41.2769],[-80.5203,41.172],[-80.5203,41.0672],[-80.5203,40.9624],[-80.5203,40.8575],[-80.5203,40.7527],[-80.5191,40.647],[-80.6375,40.6033],[-80.659,40.563],[-80.6232,40.5116],[-80.6041,40.4452],[-80.6018,40.3639],[-80.6683,40.1852],[-80.8035,39.9091],[-80.8722,39.7355],[-80.8743,39.6643],[-80.9633,39.5711],[-81.1391,39.456],[-81.2625,39.3865],[-81.3334,39.3628],[-81.3924,39.3648],[-81.4396,39.3926],[-81.4927,39.3736],[-81.5516,39.308],[-81.6065,39.2741],[-81.6572,39.272],[-81.7006,39.2295],[-81.7367,39.1466],[-81.7707,39.0988],[-81.8026,39.0861],[-81.805,39.0441],[-81.7777,38.9728],[-81.7801,38.947],[-81.795,38.9459],[-81.8093,38.95],[-81.8438,38.9343],[-81.8824,38.8942],[-81.8967,38.8935],[-81.9074,38.9002],[-81.9185,38.9523],[-81.9498,38.9893],[-82.0011,39.0111],[-82.0723,38.9629],[-82.1633,38.8449],[-82.2035,38.7682],[-82.1876,38.7152],[-82.1801,38.6376],[-82.2025,38.6058],[-82.2523,38.5941],[-82.2909,38.552],[-82.3181,38.4797],[-82.3871,38.434],[-82.4975,38.415],[-82.6128,38.4482],[-82.6213,38.4507],[-82.7582,38.5412],[-82.8446,38.6277],[-82.8804,38.7103],[-83.0001,38.714],[-83.2035,38.6389],[-83.357,38.6274],[-83.4606,38.6795],[-83.5384,38.6999],[-83.6163,38.6828],[-83.6899,38.6495],[-83.7523,38.6694],[-83.8281,38.7312],[-83.9484,38.7742],[-84.1132,38.7984],[-84.2273,38.8652],[-84.2904,38.9747],[-84.358,39.0499],[-84.4301,39.0909],[-84.5089,39.1028],[-84.5945,39.0858],[-84.6605,39.0945],[-84.7069,39.1289],[-84.7659,39.125],[-84.8217,39.092],[-84.8201,39.4238],[-84.8167,39.7492],[-84.8133,40.0746],[-84.8098,40.3999],[-84.8064,40.7253],[-84.803,41.0507],[-84.7996,41.3761],[-84.7961,41.7014],[-84.4631,41.7109],[-84.1302,41.7205],[-83.7972,41.73],[-83.4642,41.7394],[-83.4543,41.7455],[-83.4562,41.7425],[-83.443,41.7249],[-83.3522,41.714],[-83.2907,41.6933],[-83.2426,41.6619],[-83.0691,41.6006],[-83.016,41.5628],[-82.9633,41.5419],[-82.9108,41.5382],[-82.8749,41.5501],[-82.8555,41.5778],[-82.8308,41.5797],[-82.8008,41.5557],[-82.7031,41.5295],[-82.7,41.5213],[-82.9707,41.4757],[-83.0275,41.4545],[-82.9596,41.4397],[-82.8911,41.4433],[-82.8223,41.4652],[-82.7431,41.4641],[-82.6735,41.4537],[-82.6515,41.4625],[-82.6426,41.4669],[-82.5244,41.407],[-82.4803,41.3981],[-82.4344,41.4049],[-82.3869,41.4275],[-82.2825,41.4568],[-82.1213,41.493],[-81.9663,41.5077],[-81.8175,41.5009],[-81.7232,41.5109],[-81.6372,41.5484],[-81.4471,41.6715],[-81.2286,41.7704],[-80.8692,41.8933],[-80.5203,41.9896]]]]}},{"type":"Feature","properties":{"code":"OR","name":"Oregon","role":"wave"},"geometry":{"type":"MultiPolygon","coordinates":[[[[-120.0008,42.0006],[-120.2645,42.0006],[-120.5281,42.0006],[-120.7918,42.0006],[-121.0554,42.0006],[-121.3191,42.0006],[-121.5827,42.0006],[-121.8464,42.0006],[-122.1101,42.0006],[-122.3737,42.0006],[-122.6374,42.0006],[-122.901,42.0006],[-123.1647,42.0006],[-123.4284,42.0006],[-123.692,42.0006],[-123.9557,42.0006],[-124.2284,42.0008],[-124.3553,42.1229],[-124.41,42.3043],[-124.4205,42.381],[-124.4062,42.5837],[-124.4438,42.6702],[-124.5396,42.8129],[-124.4986,42.9369],[-124.4544,43.0124],[-124.3466,43.3416],[-124.3206,43.3682],[-124.2755,43.3674],[-124.1969,43.4233],[-124.2332,43.4364],[-124.288,43.4097],[-124.2392,43.54],[-124.1844,43.6516],[-124.1487,43.6917],[-124.1307,44.0557],[-124.0992,44.3338],[-124.0475,44.4255],[-124.0654,44.5201],[-124.0445,44.6482],[-124.0592,44.7777],[-123.9486,45.4009],[-123.9631,45.4761],[-123.9294,45.577],[-123.9612,45.843],[-123.9471,46.1406],[-123.9752,46.1783],[-123.9893,46.2194],[-123.9629,46.2255],[-123.9117,46.1822],[-123.6736,46.1826],[-123.5216,46.2227],[-123.4664,46.2094],[-123.4023,46.155],[-123.3216,46.144],[-123.2206,46.1536],[-123.1209,46.1788],[-123.0423,46.16],[-122.942,46.1149],[-122.8434,45.9781],[-122.7464,45.7497],[-122.7259,45.6738],[-122.6498,45.6274],[-122.561,45.6251],[-122.2025,45.5911],[-122.1499,45.5938],[-122.1499,45.5939],[-122.0851,45.6026],[-121.882,45.6895],[-121.6625,45.7181],[-121.4021,45.7118],[-121.2427,45.687],[-121.1843,45.6438],[-121.0452,45.639],[-120.7158,45.6898],[-120.3514,45.7252],[-120.156,45.7622],[-119.9343,45.8379],[-119.4291,45.9342],[-119.1773,45.9451],[-119.0499,45.9815],[-119.0197,46.0003],[-119.0024,46.0005],[-118.737,46.0008],[-118.4715,46.001],[-118.2061,46.0013],[-117.9407,46.0015],[-117.6752,46.0018],[-117.4098,46.002],[-117.1443,46.0023],[-116.8965,46.0021],[-116.8692,45.9585],[-116.7647,45.8729],[-116.6168,45.7992],[-116.5209,45.7219],[-116.477,45.6411],[-116.5492,45.4567],[-116.7373,45.1688],[-116.8396,44.9852],[-116.8559,44.9057],[-116.949,44.7701],[-117.1189,44.5783],[-117.2017,44.4362],[-117.1973,44.3438],[-117.1397,44.2903],[-117.029,44.2755],[-116.9532,44.2453],[-116.9124,44.1995],[-116.9113,44.1574],[-116.9498,44.119],[-116.9607,44.0791],[-116.944,44.0377],[-116.9576,43.9641],[-117.0205,43.8132],[-117.0202,43.8084],[-117.0198,43.5629],[-117.0193,43.3397],[-117.0189,43.1165],[-117.0185,42.8934],[-117.018,42.6702],[-117.0176,42.447],[-117.0171,42.2238],[-117.0167,42.0006],[-117.3897,42.0006],[-117.7627,42.0006],[-118.1357,42.0006],[-118.5088,42.0006],[-118.8818,42.0006],[-119.2548,42.0006],[-119.6278,42.0006],[-120.0008,42.0006]]]]}},{"type":"Feature","properties":{"code":"PA","name":"Pennsylvania","role":"check-only"},"geometry":{"type":"MultiPolygon","coordinates":[[[[-79.763,42.2757],[-79.763,42.2701],[-79.763,42.1355],[-79.763,42.0009],[-79.6251,42.0008],[-79.4872,42.0007],[-79.3494,42.0007],[-79.2115,42.0006],[-79.0736,42.0005],[-78.9358,42.0004],[-78.7979,42.0003],[-78.6601,42.0003],[-78.5222,42.0002],[-78.3843,42.0001],[-78.2465,42],[-78.1086,42],[-77.9707,41.9999],[-77.8329,41.9998],[-77.695,41.9997],[-77.5571,41.9997],[-77.4193,41.9996],[-77.2814,41.9995],[-77.1436,41.9994],[-77.0057,41.9994],[-76.8678,41.9993],[-76.73,41.9992],[-76.5921,41.9991],[-76.4542,41.999],[-76.3164,41.999],[-76.1785,41.9989],[-76.0406,41.9988],[-75.9028,41.9987],[-75.7649,41.9986],[-75.6271,41.9986],[-75.4892,41.9985],[-75.3513,41.9984],[-75.274,41.9467],[-75.2389,41.8922],[-75.1219,41.8534],[-75.0955,41.8317],[-75.0948,41.7995],[-75.0537,41.765],[-75.0669,41.7132],[-75.0662,41.6666],[-75.0514,41.6084],[-75.0227,41.5529],[-74.9813,41.5077],[-74.9354,41.4744],[-74.7566,41.4239],[-74.7204,41.3949],[-74.6991,41.3573],[-74.7778,41.3251],[-74.8125,41.3015],[-74.8414,41.2686],[-74.9123,41.1553],[-75.0315,41.0518],[-75.123,40.999],[-75.1227,40.9718],[-75.0749,40.8845],[-75.0756,40.8563],[-75.1118,40.8021],[-75.1747,40.7755],[-75.1857,40.7438],[-75.1923,40.6899],[-75.189,40.5958],[-75.1705,40.5768],[-75.0974,40.5431],[-75.034,40.4204],[-74.9764,40.4058],[-74.7349,40.1545],[-74.9093,40.0795],[-75.0235,40.0174],[-75.0742,39.9835],[-75.1729,39.8948],[-75.3209,39.8647],[-75.4006,39.8316],[-75.421,39.8154],[-75.5104,39.8434],[-75.6346,39.8395],[-75.6768,39.8272],[-75.7091,39.8029],[-75.7847,39.7224],[-76.0155,39.7224],[-76.2463,39.7224],[-76.4771,39.7225],[-76.7079,39.7225],[-76.9387,39.7225],[-77.1695,39.7225],[-77.4003,39.7226],[-77.6311,39.7226],[-77.8619,39.7226],[-78.0927,39.7226],[-78.3235,39.7227],[-78.5543,39.7227],[-78.7851,39.7227],[-79.0159,39.7227],[-79.2467,39.7228],[-79.4775,39.7228],[-79.6077,39.7227],[-79.738,39.7227],[-79.8682,39.7227],[-79.9985,39.7226],[-80.1287,39.7226],[-80.2589,39.7226],[-80.3892,39.7225],[-80.5194,39.7225],[-80.5196,39.8382],[-80.5197,39.9538],[-80.5198,40.0695],[-80.5199,40.1851],[-80.52,40.3008],[-80.5201,40.4165],[-80.5202,40.5321],[-80.5191,40.647],[-80.5203,40.7527],[-80.5203,40.8575],[-80.5203,40.9624],[-80.5203,41.0672],[-80.5203,41.172],[-80.5203,41.2769],[-80.5203,41.3817],[-80.5203,41.4866],[-80.5203,41.5914],[-80.5203,41.6962],[-80.5203,41.8011],[-80.5203,41.9059],[-80.5203,41.9896],[-80.3345,42.0408],[-80.252,42.0753],[-80.1682,42.109],[-80.1247,42.1283],[-80.0762,42.146],[-79.763,42.2757]]]]}},{"type":"Feature","properties":{"code":"VT","name":"Vermont","role":"check-only"},"geometry":{"type":"MultiPolygon","coordinates":[[[[-73.3522,45.0054],[-73.182,45.0056],[-72.7659,45.0061],[-72.3498,45.0066],[-71.9336,45.0071],[-71.5175,45.0076],[-71.5335,44.988],[-71.5102,44.9083],[-71.6207,44.7719],[-71.6183,44.7278],[-71.5684,44.6076],[-71.5715,44.5792],[-71.5878,44.5653],[-71.6093,44.5141],[-71.6382,44.4817],[-71.683,44.4503],[-71.8255,44.3741],[-71.8677,44.3549],[-72.0018,44.3295],[-72.0312,44.3007],[-72.0622,44.1163],[-72.1062,44.0131],[-72.1149,43.9654],[-72.1739,43.8841],[-72.2224,43.7909],[-72.2967,43.715],[-72.3377,43.622],[-72.3624,43.5866],[-72.385,43.5292],[-72.4071,43.332],[-72.4382,43.2246],[-72.4737,43.0385],[-72.4965,42.9917],[-72.5194,42.9667],[-72.5498,42.8867],[-72.5528,42.8564],[-72.5396,42.8296],[-72.4837,42.7662],[-72.4669,42.7303],[-72.5652,42.7331],[-72.6635,42.7358],[-72.7618,42.7385],[-72.8601,42.7413],[-72.9584,42.744],[-73.0567,42.7467],[-73.155,42.7495],[-73.2533,42.7522],[-73.2802,42.8132],[-73.2666,42.8648],[-73.2645,42.9352],[-73.2619,43.0271],[-73.2591,43.1279],[-73.2552,43.2654],[-73.2527,43.3572],[-73.2503,43.4397],[-73.2471,43.553],[-73.3062,43.6163],[-73.3305,43.6267],[-73.3492,43.6204],[-73.3914,43.5785],[-73.4049,43.5788],[-73.4159,43.5896],[-73.4134,43.6279],[-73.3758,43.7622],[-73.375,43.8042],[-73.383,43.8758],[-73.4249,44.0383],[-73.4261,44.0749],[-73.4098,44.1314],[-73.3811,44.1874],[-73.3318,44.2446],[-73.3209,44.2689],[-73.3246,44.3679],[-73.3098,44.4596],[-73.3721,44.5973],[-73.3486,44.7753],[-73.3658,44.8604],[-73.3451,44.9389],[-73.3522,45.0054]]]]}},{"type":"Feature","properties":{"code":"WA","name":"Washington","role":"wave"},"geometry":{"type":"MultiPolygon","coordinates":[[[[-122.7888,48.993],[-122.6864,48.993],[-122.26,48.993],[-121.8336,48.993],[-121.4072,48.993],[-120.9809,48.993],[-120.5545,48.993],[-120.1281,48.993],[-119.7017,48.993],[-119.2753,48.9931],[-118.8489,48.9931],[-118.4226,48.9931],[-117.9962,48.9931],[-117.5698,48.9931],[-117.1434,48.9931],[-117.0391,48.9931],[-117.0374,48.8337],[-117.0365,48.6734],[-117.0357,48.5131],[-117.0349,48.3528],[-117.0341,48.1925],[-117.0333,48.0322],[-117.0325,47.8719],[-117.0316,47.7116],[-117.0308,47.5513],[-117.03,47.391],[-117.0292,47.2307],[-117.0283,47.0704],[-117.0275,46.9101],[-117.0267,46.7498],[-117.0258,46.5895],[-117.025,46.4292],[-117.0325,46.4198],[-117.039,46.3966],[-117.0104,46.3296],[-116.943,46.2321],[-116.9221,46.1636],[-116.9478,46.1243],[-116.9302,46.056],[-116.8965,46.0021],[-117.1443,46.0023],[-117.4098,46.002],[-117.6752,46.0018],[-117.9407,46.0015],[-118.2061,46.0013],[-118.4715,46.001],[-118.737,46.0008],[-119.0024,46.0005],[-119.0197,46.0003],[-119.0499,45.9815],[-119.1773,45.9451],[-119.4291,45.9342],[-119.9343,45.8379],[-120.156,45.7622],[-120.3514,45.7252],[-120.7158,45.6898],[-121.0452,45.639],[-121.1843,45.6438],[-121.2427,45.687],[-121.4021,45.7118],[-121.6625,45.7181],[-121.882,45.6895],[-122.0851,45.6026],[-122.1499,45.5939],[-122.1499,45.5938],[-122.2025,45.5911],[-122.561,45.6251],[-122.6498,45.6274],[-122.7259,45.6738],[-122.7464,45.7497],[-122.8434,45.9781],[-122.942,46.1149],[-123.0423,46.16],[-123.1209,46.1788],[-123.2206,46.1536],[-123.2513,46.1673],[-123.2987,46.1708],[-123.4047,46.221],[-123.4649,46.2711],[-123.6503,46.2677],[-123.6884,46.2999],[-123.8957,46.2678],[-123.9597,46.3007],[-124.0728,46.2794],[-124.0451,46.3729],[-124.0502,46.4906],[-124.0444,46.6051],[-124.0164,46.5214],[-123.9461,46.4326],[-123.9124,46.5333],[-123.8892,46.66],[-123.9577,46.7087],[-124.0717,46.7448],[-124.1125,46.8627],[-123.8429,46.9632],[-123.986,46.9845],[-124.0422,47.0297],[-124.1117,47.0352],[-124.1168,47.0003],[-124.1392,46.9547],[-124.1636,47.0153],[-124.1705,47.0867],[-124.1988,47.2085],[-124.3093,47.4046],[-124.376,47.6586],[-124.46,47.7842],[-124.6211,47.9041],[-124.6631,47.9741],[-124.7017,48.1516],[-124.68,48.2859],[-124.71,48.3804],[-124.6326,48.375],[-124.429,48.3008],[-124.1755,48.2424],[-124.0988,48.2],[-123.9758,48.1685],[-123.2944,48.1195],[-123.2499,48.1242],[-123.1619,48.1546],[-123.1244,48.1509],[-123.0242,48.0816],[-122.9739,48.0733],[-122.9089,48.0769],[-122.8609,48.09],[-122.7786,48.1376],[-122.7675,48.12],[-122.7691,48.076],[-122.7397,48.0132],[-122.6795,47.9318],[-122.6566,47.8811],[-122.7784,47.7384],[-122.8018,47.7353],[-122.8054,47.7836],[-122.8214,47.7932],[-123.0506,47.5519],[-123.131,47.4377],[-123.139,47.3861],[-123.1364,47.3558],[-123.1042,47.3484],[-123.0309,47.3602],[-122.9222,47.4076],[-122.9169,47.418],[-123.0182,47.4011],[-123.0668,47.3996],[-123.0601,47.4536],[-123.0486,47.4793],[-122.9825,47.5594],[-122.9129,47.6074],[-122.8141,47.6585],[-122.7572,47.7005],[-122.7179,47.7621],[-122.6081,47.8355],[-122.5879,47.8559],[-122.5927,47.9164],[-122.5857,47.9279],[-122.5328,47.9197],[-122.5108,47.8157],[-122.5239,47.7693],[-122.6184,47.7128],[-122.6302,47.6928],[-122.6136,47.6156],[-122.6283,47.6082],[-122.6643,47.6173],[-122.6755,47.6123],[-122.5858,47.5284],[-122.5574,47.4632],[-122.5535,47.4049],[-122.5779,47.2932],[-122.6039,47.2746],[-122.6487,47.2815],[-122.7077,47.3164],[-122.7209,47.3051],[-122.7678,47.2184],[-122.7833,47.226],[-122.8126,47.329],[-122.8285,47.3366],[-122.9195,47.2897],[-122.9562,47.2446],[-122.9876,47.1726],[-123.0276,47.1389],[-122.9141,47.1315],[-122.812,47.146],[-122.7299,47.1118],[-122.7019,47.1109],[-122.6271,47.1443],[-122.6041,47.167],[-122.5422,47.2756],[-122.5111,47.295],[-122.4649,47.2958],[-122.4201,47.3121],[-122.3538,47.3716],[-122.3511,47.3952],[-122.3753,47.5284],[-122.3683,47.6039],[-122.3807,47.6278],[-122.4105,47.6527],[-122.4068,47.6768],[-122.3836,47.7165],[-122.382,47.7523],[-122.4018,47.7843],[-122.3929,47.8205],[-122.3303,47.8986],[-122.3185,47.933],[-122.242,48.0108],[-122.2613,48.042],[-122.3175,48.0802],[-122.353,48.1138],[-122.3886,48.1664],[-122.4158,48.1839],[-122.4247,48.1759],[-122.3866,48.0899],[-122.3948,48.0842],[-122.494,48.1304],[-122.517,48.1596],[-122.5292,48.1993],[-122.5203,48.2291],[-122.467,48.2585],[-122.4034,48.2692],[-122.4085,48.2939],[-122.4884,48.3743],[-122.5417,48.411],[-122.5826,48.4287],[-122.6378,48.4333],[-122.6625,48.4464],[-122.669,48.4653],[-122.6573,48.49],[-122.628,48.4979],[-122.5427,48.488],[-122.4968,48.5055],[-122.5011,48.5375],[-122.5148,48.5551],[-122.5127,48.6694],[-122.5451,48.7623],[-122.562,48.778],[-122.5802,48.7796],[-122.5994,48.7671],[-122.653,48.7639],[-122.6859,48.7943],[-122.7225,48.853],[-122.7888,48.993]]],[[[-123.0864,48.993],[-123.0492,48.993],[-123.0633,48.9777],[-123.0773,48.9802],[-123.0864,48.993]]],[[[-122.7821,48.6727],[-122.7688,48.651],[-122.809,48.6299],[-122.8376,48.6265],[-122.8831,48.6606],[-122.903,48.6647],[-122.887,48.6123],[-122.8925,48.5945],[-122.9857,48.6267],[-123.0029,48.6522],[-122.9767,48.6791],[-122.918,48.707],[-122.8977,48.7104],[-122.7821,48.6727]]],[[[-123.0131,48.5009],[-122.9867,48.468],[-123.0944,48.4891],[-123.1399,48.5079],[-123.1534,48.5263],[-123.1696,48.5867],[-123.1621,48.6064],[-123.1142,48.6133],[-123.0242,48.5385],[-123.0131,48.5009]]],[[[-122.8209,48.4314],[-122.8366,48.4215],[-122.89,48.4347],[-122.9216,48.4569],[-122.9323,48.4847],[-122.9122,48.538],[-122.8855,48.5516],[-122.8689,48.5486],[-122.8619,48.5019],[-122.8146,48.4523],[-122.8209,48.4314]]],[[[-122.5728,48.1567],[-122.5238,48.0254],[-122.5029,48.0801],[-122.3667,47.9854],[-122.3666,47.9388],[-122.3831,47.9232],[-122.4114,47.9178],[-122.4376,47.9313],[-122.4616,47.964],[-122.4923,47.9813],[-122.5575,47.9925],[-122.5913,48.0296],[-122.6032,48.055],[-122.6063,48.1286],[-122.6227,48.1514],[-122.6573,48.1565],[-122.6904,48.1739],[-122.7415,48.2253],[-122.7487,48.239],[-122.7245,48.2809],[-122.669,48.351],[-122.6286,48.3842],[-122.6035,48.3806],[-122.5725,48.3596],[-122.5356,48.3212],[-122.5424,48.294],[-122.6921,48.2411],[-122.697,48.2287],[-122.6244,48.2137],[-122.5976,48.2004],[-122.5728,48.1567]]],[[[-122.4973,47.5946],[-122.5026,47.5754],[-122.5578,47.5983],[-122.5759,47.6195],[-122.5738,47.6669],[-122.5601,47.6978],[-122.5498,47.704],[-122.5172,47.6906],[-122.5079,47.6826],[-122.4973,47.5946]]],[[[-122.3941,47.3952],[-122.3987,47.3725],[-122.4371,47.3548],[-122.457,47.3593],[-122.4582,47.3862],[-122.4685,47.3902],[-122.5099,47.358],[-122.5068,47.4217],[-122.4865,47.4888],[-122.4686,47.49],[-122.4421,47.4462],[-122.3941,47.3952]]],[[[-122.8531,47.2047],[-122.8626,47.1851],[-122.8767,47.1861],[-122.908,47.2261],[-122.9119,47.2543],[-122.8851,47.2747],[-122.8492,47.2163],[-122.8531,47.2047]]]]}}]}
