{"type":"Feature","properties":{"reg_name":"Valle d'Aosta/Vallée d'Aoste","slug":"valle-d-aosta","_provenance":{"authority":"ISTAT (openpolis/geojson-italy limits_IT_regions)","licence":"CC BY 4.0","method":"mapshaper 6% simplify, interior rings dropped, 5dp"}},"geometry":{"type":"MultiPolygon","coordinates":[[[[7.73455,45.92365],[7.70999,45.94749],[7.65789,45.97663],[7.63922,45.97032],[7.58412,45.97216],[7.55035,45.9862],[7.53813,45.95503],[7.50234,45.96066],[7.47471,45.93612],[7.3818,45.89691],[7.34386,45.91525],[7.29071,45.92046],[7.25971,45.89037],[7.21641,45.88875],[7.19026,45.8586],[7.15412,45.87932],[7.11827,45.85954],[7.06524,45.89985],[7.04575,45.92225],[7.01841,45.9147],[6.99926,45.87416],[6.95074,45.85883],[6.93963,45.84683],[6.86588,45.83384],[6.81865,45.83621],[6.80133,45.78126],[6.80919,45.72476],[6.82784,45.70392],[6.89352,45.67596],[6.93012,45.64713],[6.96086,45.65507],[6.99998,45.6406],[6.98455,45.62553],[6.97786,45.58894],[6.98963,45.56311],[6.99969,45.50457],[7.05502,45.49311],[7.04789,45.47248],[7.11335,45.47299],[7.12167,45.50624],[7.15727,45.4866],[7.23038,45.47546],[7.2695,45.51468],[7.32295,45.51445],[7.36402,45.52505],[7.37571,45.51649],[7.44796,45.55557],[7.47086,45.57769],[7.53267,45.57717],[7.56549,45.59156],[7.59908,45.57845],[7.60907,45.56288],[7.64594,45.56899],[7.67679,45.55209],[7.71635,45.55896],[7.7327,45.55034],[7.79567,45.58639],[7.84887,45.60226],[7.89625,45.59977],[7.9159,45.63309],[7.9395,45.6437],[7.90521,45.68196],[7.93662,45.72434],[7.929,45.74244],[7.90016,45.74925],[7.8631,45.79099],[7.86882,45.86772],[7.85643,45.9211],[7.81957,45.92669],[7.80115,45.91725],[7.76862,45.93711],[7.73455,45.92365]]]]}}