{"type":"FeatureCollection","_provenance":{"authority":"ISTAT (comune geometry, openpolis/geojson-italy) / MASAF disciplinari (comune membership)","licence":"CC BY 4.0","method":"comune-union: ISTAT comuni dissolved per disciplinare comune lists (comune-level approximation; interior rings dropped, 5dp). Partial-territory comuni are included whole.","reviewed_at":"2026-09-07"},"features":[{"type":"Feature","properties":{"name":"blanc-de-morgex-et-de-la-salle","comuni_count":2},"geometry":{"type":"MultiPolygon","coordinates":[[[[6.99585,45.69623],[6.99522,45.69568],[6.99485,45.6951],[6.99479,45.69414],[6.99473,45.69309],[6.99477,45.69211],[6.99507,45.69034],[6.99556,45.68945],[6.99733,45.688],[6.99872,45.68717],[6.99992,45.6869],[7.00623,45.68639],[7.01103,45.68592],[7.01234,45.68526],[7.02104,45.67602],[7.02261,45.67408],[7.02326,45.67336],[7.02694,45.67195],[7.02832,45.67147],[7.03391,45.67421],[7.03854,45.67696],[7.03972,45.67771],[7.04122,45.67908],[7.04234,45.68021],[7.04273,45.68063],[7.04357,45.68155],[7.04471,45.6826],[7.04655,45.68398],[7.04813,45.68494],[7.0522,45.68714],[7.05411,45.68748],[7.06015,45.6885],[7.06202,45.68877],[7.06338,45.68883],[7.07129,45.68935],[7.08233,45.69033],[7.087,45.69118],[7.09733,45.69847],[7.09973,45.70021],[7.10072,45.70131],[7.10242,45.70332],[7.10373,45.70506],[7.10497,45.70635],[7.10642,45.70731],[7.1088,45.70858],[7.11543,45.71209],[7.11763,45.71222],[7.12036,45.71127],[7.12274,45.71396],[7.1182,45.71829],[7.11174,45.7206],[7.11049,45.72127],[7.09951,45.72988],[7.09932,45.73012],[7.09907,45.731],[7.09901,45.73172],[7.09911,45.73289],[7.09936,45.73371],[7.09978,45.73397],[7.10126,45.73413],[7.10326,45.73468],[7.10871,45.73636],[7.11185,45.73738],[7.1125,45.73768],[7.1129,45.7379],[7.11301,45.75238],[7.11262,45.75573],[7.11141,45.76077],[7.11106,45.76201],[7.11057,45.7631],[7.11008,45.76394],[7.10938,45.76509],[7.10818,45.76631],[7.10655,45.77477],[7.10825,45.78267],[7.11147,45.79344],[7.11296,45.79734],[7.10827,45.79956],[7.10469,45.80546],[7.10119,45.81302],[7.09899,45.81871],[7.08996,45.82824],[7.08734,45.83021],[7.08228,45.83256],[7.081,45.83302],[7.07823,45.83354],[7.07527,45.83052],[7.0697,45.82291],[7.06203,45.8157],[7.06116,45.81526],[7.06,45.81504],[7.05861,45.81527],[7.05711,45.81573],[7.05429,45.81669],[7.04471,45.81261],[7.04353,45.81152],[7.04286,45.81104],[7.04212,45.81075],[7.03563,45.80938],[7.0347,45.80927],[7.03379,45.8103],[7.03265,45.81103],[7.03167,45.81111],[7.03045,45.81081],[7.02936,45.81017],[7.02805,45.80936],[7.02693,45.80852],[7.0254,45.80732],[7.02212,45.80475],[7.02132,45.80363],[7.01998,45.80116],[7.0187,45.79854],[7.01847,45.79758],[7.01782,45.79664],[7.01518,45.79322],[7.01442,45.79246],[7.01256,45.79126],[7.00949,45.78944],[7.00615,45.78744],[7.00439,45.7834],[7.00137,45.77536],[6.99939,45.76938],[6.9954,45.76069],[6.99432,45.75933],[6.99428,45.75928],[6.99341,45.75913],[6.99026,45.75867],[6.98707,45.75062],[6.98713,45.75022],[6.98657,45.7491],[6.98616,45.74844],[6.98263,45.74612],[6.97501,45.74124],[6.97342,45.74038],[6.98808,45.73321],[6.9883,45.73265],[6.98917,45.729],[6.98892,45.72814],[6.98864,45.72753],[6.98729,45.72581],[6.98669,45.72506],[6.98496,45.72306],[6.98397,45.71729],[6.98459,45.70593],[6.98926,45.69899],[6.99003,45.6985],[6.99153,45.69782],[6.99399,45.69673],[6.99469,45.69649],[6.99543,45.69629],[6.99585,45.69623]]]]}},{"type":"Feature","properties":{"name":"donnas","comuni_count":4},"geometry":{"type":"MultiPolygon","coordinates":[[[[7.79568,45.58639],[7.80118,45.58682],[7.80861,45.58937],[7.8119,45.59103],[7.81648,45.59326],[7.82735,45.59694],[7.82779,45.59707],[7.82883,45.5973],[7.82993,45.59753],[7.83094,45.59773],[7.83171,45.59778],[7.83552,45.59773],[7.83686,45.59765],[7.83969,45.59742],[7.84063,45.59732],[7.84301,45.598],[7.84526,45.59917],[7.84607,45.59962],[7.84723,45.60052],[7.84887,45.60226],[7.86228,45.59699],[7.86134,45.60023],[7.85798,45.60864],[7.85268,45.61751],[7.85201,45.61836],[7.85168,45.61866],[7.851,45.61926],[7.84959,45.62014],[7.84811,45.62096],[7.84659,45.6212],[7.84123,45.62189],[7.83569,45.62398],[7.82696,45.62866],[7.82594,45.62923],[7.82489,45.63009],[7.82274,45.63203],[7.82163,45.63416],[7.8209,45.63805],[7.81809,45.64696],[7.81507,45.65633],[7.81473,45.65725],[7.81412,45.65857],[7.81295,45.65968],[7.81215,45.66011],[7.81179,45.66027],[7.80965,45.66112],[7.79677,45.66379],[7.79383,45.66341],[7.78982,45.66294],[7.78731,45.66316],[7.78568,45.66331],[7.78502,45.66339],[7.78285,45.66084],[7.78238,45.66005],[7.78209,45.65857],[7.78197,45.65758],[7.78193,45.65631],[7.78188,45.65478],[7.78191,45.6535],[7.78208,45.65261],[7.78262,45.6513],[7.78307,45.63915],[7.78213,45.6283],[7.78227,45.6276],[7.7826,45.62679],[7.78369,45.62498],[7.76306,45.62549],[7.75833,45.62477],[7.75657,45.62466],[7.75521,45.62481],[7.75268,45.62541],[7.75156,45.62592],[7.7506,45.62647],[7.74961,45.62671],[7.74808,45.6265],[7.74355,45.62573],[7.74038,45.62518],[7.73613,45.62439],[7.73672,45.62204],[7.74271,45.61003],[7.74196,45.60934],[7.74171,45.60911],[7.74162,45.609],[7.74157,45.6089],[7.74155,45.60875],[7.74152,45.60856],[7.74155,45.60842],[7.7417,45.60791],[7.74186,45.60767],[7.74481,45.60434],[7.74488,45.60428],[7.74498,45.60419],[7.74536,45.60406],[7.74565,45.60398],[7.74615,45.60385],[7.74651,45.60377],[7.74633,45.60309],[7.74541,45.601],[7.73257,45.59094],[7.73161,45.59021],[7.72813,45.58913],[7.7247,45.58849],[7.72341,45.58853],[7.72316,45.58854],[7.72218,45.58868],[7.72194,45.58882],[7.71958,45.5892],[7.71686,45.58914],[7.71638,45.58912],[7.71604,45.58906],[7.71546,45.58895],[7.71387,45.58854],[7.71256,45.58767],[7.71182,45.58718],[7.71097,45.58659],[7.71028,45.58597],[7.70638,45.58208],[7.69795,45.57248],[7.69382,45.56737],[7.69101,45.56345],[7.68961,45.56063],[7.68828,45.55735],[7.69015,45.55617],[7.69091,45.55587],[7.69172,45.55585],[7.69586,45.55573],[7.6967,45.55571],[7.69753,45.5559],[7.7032,45.55562],[7.70352,45.55542],[7.70426,45.55537],[7.70626,45.55546],[7.70665,45.55549],[7.70783,45.55563],[7.7098,45.556],[7.71256,45.55685],[7.71457,45.55764],[7.71501,45.55807],[7.71521,45.55826],[7.71635,45.55896],[7.71893,45.55889],[7.71912,45.55885],[7.71942,45.55878],[7.72052,45.5585],[7.72244,45.5578],[7.72295,45.55741],[7.72932,45.55221],[7.7303,45.55074],[7.7327,45.55034],[7.73604,45.55112],[7.73765,45.55211],[7.74131,45.55414],[7.74185,45.55453],[7.74486,45.55685],[7.74546,45.55782],[7.74574,45.55839],[7.74957,45.56069],[7.75719,45.56458],[7.76748,45.56706],[7.76848,45.56725],[7.77211,45.56848],[7.77361,45.56905],[7.77399,45.56921],[7.7748,45.56956],[7.77746,45.57072],[7.77894,45.57148],[7.78533,45.57479],[7.78714,45.57597],[7.78876,45.57732],[7.79337,45.58095],[7.79341,45.58098],[7.79435,45.58169],[7.7954,45.58231],[7.79628,45.58262],[7.79681,45.58272],[7.79568,45.58639]]]]}}]}