{"type":"Feature","properties":{"name":"Veneto"},"geometry":{"type":"MultiPolygon","coordinates":[[[[10.63538,45.53543],[10.64301,45.45731],[10.66523,45.42772],[10.71252,45.41855],[10.71684,45.39557],[10.68554,45.35368],[10.73048,45.31586],[10.73742,45.28724],[10.78282,45.31542],[10.81649,45.29408],[10.84661,45.25657],[10.89966,45.24692],[10.93679,45.23294],[10.94696,45.20574],[10.99039,45.19611],[10.99452,45.15036],[11.02837,45.15924],[11.04385,45.13428],[11.0287,45.12305],[11.07294,45.09875],[11.1054,45.10905],[11.1274,45.10323],[11.13874,45.12386],[11.18923,45.10977],[11.18733,45.08251],[11.20145,45.0602],[11.23853,45.04321],[11.25696,45.05391],[11.2755,45.01731],[11.31322,45.00973],[11.33825,44.98942],[11.42442,44.9619],[11.42497,44.93226],[11.53413,44.93625],[11.58643,44.91134],[11.59208,44.89204],[11.62481,44.88922],[11.67284,44.91517],[11.74475,44.93713],[11.74704,44.9581],[11.78383,44.96419],[11.80472,44.97696],[11.83832,44.97279],[11.89956,44.9778],[11.92638,44.97479],[11.96268,44.98683],[12.05689,44.9706],[12.09156,44.97021],[12.11618,44.95767],[12.14242,44.9279],[12.16914,44.94209],[12.19417,44.92535],[12.22497,44.92298],[12.25618,44.94253],[12.28087,44.94177],[12.29475,44.92537],[12.28219,44.91151],[12.28665,44.87031],[12.30384,44.85539],[12.33632,44.85224],[12.35328,44.81703],[12.39811,44.79278],[12.42904,44.83093],[12.46501,44.84373],[12.51561,44.93447],[12.55394,44.96598],[12.5109,44.99138],[12.48514,44.99295],[12.39353,45.0455],[12.33723,45.08952],[12.32726,45.12264],[12.3309,45.16371],[12.30625,45.19438],[12.2959,45.24446],[12.30601,45.28785],[12.33068,45.35355],[12.36014,45.39609],[12.39957,45.4298],[12.4269,45.41797],[12.4528,45.43866],[12.5843,45.47961],[12.65017,45.50545],[12.71546,45.52441],[12.91784,45.61263],[12.97812,45.62648],[13.06339,45.63096],[13.10213,45.64191],[13.04437,45.68431],[13.03016,45.72527],[13.00129,45.75002],[13.00759,45.76563],[12.98468,45.7814],[12.97423,45.80759],[12.95207,45.82221],[12.89006,45.82047],[12.86967,45.83376],[12.87498,45.85034],[12.8043,45.84462],[12.77503,45.8531],[12.74286,45.82662],[12.72999,45.83728],[12.67893,45.7947],[12.65028,45.80367],[12.63216,45.82926],[12.59739,45.82214],[12.5593,45.82592],[12.55898,45.84706],[12.50083,45.92521],[12.4631,45.93452],[12.42229,45.95616],[12.42818,45.99576],[12.40508,46.04274],[12.42784,46.07632],[12.48443,46.10447],[12.49879,46.137],[12.49151,46.1569],[12.45692,46.17065],[12.43059,46.20943],[12.40726,46.20702],[12.33771,46.23947],[12.32122,46.26446],[12.35083,46.29384],[12.35465,46.31968],[12.37907,46.33177],[12.41146,46.33083],[12.42867,46.3516],[12.46294,46.36926],[12.46052,46.38042],[12.49526,46.41202],[12.50586,46.44096],[12.56995,46.47549],[12.60607,46.46413],[12.65406,46.48439],[12.63002,46.50071],[12.61916,46.54004],[12.64394,46.57605],[12.65679,46.57255],[12.70472,46.6184],[12.73198,46.63381],[12.69011,46.65597],[12.64246,46.65193],[12.62142,46.66075],[12.5704,46.65077],[12.51426,46.67806],[12.47759,46.67982],[12.43424,46.66828],[12.38516,46.62278],[12.3397,46.63138],[12.28384,46.61793],[12.26122,46.62912],[12.24184,46.61632],[12.19446,46.60491],[12.17133,46.6341],[12.14513,46.63407],[12.06827,46.67507],[12.06479,46.6232],[12.04977,46.59376],[11.99842,46.53286],[11.96615,46.54468],[11.93389,46.5279],[11.91188,46.53296],[11.85135,46.51784],[11.81545,46.50032],[11.81316,46.47814],[11.87422,46.47288],[11.88879,46.442],[11.85052,46.43431],[11.83204,46.38719],[11.80401,46.36498],[11.77438,46.35824],[11.83185,46.32515],[11.83764,46.27072],[11.88525,46.27881],[11.88626,46.25819],[11.92481,46.24295],[11.90957,46.22443],[11.96227,46.18786],[11.92863,46.1758],[11.92177,46.14934],[11.89341,46.12115],[11.81367,46.10227],[11.71679,46.10294],[11.68235,46.08999],[11.68639,46.06626],[11.70644,46.04599],[11.6669,46.03806],[11.66665,46.0171],[11.69,45.98881],[11.67323,45.96435],[11.58759,45.969],[11.57723,46.00652],[11.53891,46.0133],[11.4912,46.00855],[11.44678,45.98089],[11.3724,45.97317],[11.38075,45.94267],[11.35806,45.92529],[11.32435,45.91742],[11.26124,45.91825],[11.23932,45.85598],[11.21845,45.84396],[11.17357,45.78652],[11.18066,45.76291],[11.17465,45.73311],[11.13866,45.70932],[11.13851,45.69685],[11.0924,45.69515],[11.05773,45.7176],[11.04138,45.70632],[11.00756,45.71042],[10.96832,45.68012],[10.93746,45.67342],[10.91878,45.70055],[10.88958,45.71507],[10.84383,45.71859],[10.86524,45.7613],[10.8834,45.81697],[10.84015,45.83276],[10.77199,45.75078],[10.70201,45.67274],[10.63104,45.60951],[10.63538,45.53543]]]]}}